; WAVES — rippled ribbons to shape by hand, 7x8 of 16.0mm
; bead 1.5x0.9 = 1.35mm2 at 41 mm/s -> flow=55.0 mm3/s
; 194 x 120mm on a 229x225 bed, pressed to 0.55mm
; HEADER_BLOCK_START
; total layer number: 1
; HEADER_BLOCK_END
M140 S95
M104 S210
G90
; NO HOME — assumes the machine is ALREADY homed; push.py verifies and homes if not
M190 S95
M109 S210
M204 S8000
M107
M82
G92 E0
G1 Z0.550 F600
G0 F9000 X6.000 Y45.833
G1 E25 F300                      ; stationary purge — pressure before motion
G1 F1200 X17.505 Y57.833 E37   ; prime ends where the comb begins
G92 E0
; BODY_START
G1 F2444 X17.517 Y57.320 Z0.550 E0.28819
G1 X17.551 Y56.847 Z0.550 E0.55456
G1 X17.609 Y56.413 Z0.550 E0.79993
G1 X17.690 Y56.020 Z0.550 E1.02531
G1 X17.794 Y55.667 Z0.550 E1.23202
G1 X17.921 Y55.353 Z0.550 E1.42178
G1 X18.071 Y55.080 Z0.550 E1.59681
G1 X18.244 Y54.847 Z0.550 E1.75991
G1 X18.440 Y54.653 Z0.550 E1.91455
G1 X18.660 Y54.500 Z0.550 E2.06478
G1 X18.902 Y54.387 Z0.550 E2.21501
G1 X19.168 Y54.313 Z0.550 E2.36965
G1 X19.457 Y54.280 Z0.550 E2.53275
G1 X19.768 Y54.287 Z0.550 E2.70777
G1 X20.103 Y54.333 Z0.550 E2.89754
G1 X20.461 Y54.420 Z0.550 E3.10425
G1 X20.842 Y54.547 Z0.550 E3.32963
G1 X21.246 Y54.713 Z0.550 E3.57499
G1 X21.674 Y54.920 Z0.550 E3.84137
G1 X22.124 Y55.167 Z0.550 E4.12956
G1 X26.743 Y57.833 Z0.550 E7.12297
G1 X27.403 Y58.187 Z0.550 E7.54317
G1 X28.062 Y58.486 Z0.550 E7.94983
G1 X28.722 Y58.731 Z0.550 E8.34486
G1 X29.382 Y58.922 Z0.550 E8.73032
G1 X30.042 Y59.058 Z0.550 E9.10845
G1 X30.702 Y59.139 Z0.550 E9.48161
G1 X31.362 Y59.167 Z0.550 E9.85226
G1 X32.021 Y59.139 Z0.550 E10.22292
G1 X32.681 Y59.058 Z0.550 E10.59608
G1 X33.341 Y58.922 Z0.550 E10.97421
G1 X34.001 Y58.731 Z0.550 E11.35967
G1 X34.661 Y58.486 Z0.550 E11.75469
G1 X35.321 Y58.187 Z0.550 E12.16135
G1 X35.980 Y57.833 Z0.550 E12.58156
G1 X40.599 Y55.167 Z0.550 E15.57497
G1 X41.259 Y54.813 Z0.550 E15.99517
G1 X41.919 Y54.514 Z0.550 E16.40183
G1 X42.579 Y54.269 Z0.550 E16.79686
G1 X43.238 Y54.078 Z0.550 E17.18232
G1 X43.898 Y53.942 Z0.550 E17.56045
G1 X44.558 Y53.861 Z0.550 E17.93361
G1 X45.218 Y53.833 Z0.550 E18.30426
G1 X45.878 Y53.861 Z0.550 E18.67492
G1 X46.538 Y53.942 Z0.550 E19.04808
G1 X47.197 Y54.078 Z0.550 E19.42621
G1 X47.857 Y54.269 Z0.550 E19.81167
G1 X48.517 Y54.514 Z0.550 E20.20669
G1 X49.177 Y54.813 Z0.550 E20.61335
G1 X49.837 Y55.167 Z0.550 E21.03356
G1 X54.456 Y57.833 Z0.550 E24.02697
G1 X55.115 Y58.187 Z0.550 E24.44717
G1 X55.775 Y58.486 Z0.550 E24.85383
G1 X56.435 Y58.731 Z0.550 E25.24886
G1 X57.095 Y58.922 Z0.550 E25.63432
G1 X57.755 Y59.058 Z0.550 E26.01245
G1 X58.415 Y59.139 Z0.550 E26.38561
G1 X59.074 Y59.167 Z0.550 E26.75626
G1 X59.734 Y59.139 Z0.550 E27.12692
G1 X60.394 Y59.058 Z0.550 E27.50008
G1 X61.054 Y58.922 Z0.550 E27.87821
G1 X61.714 Y58.731 Z0.550 E28.26367
G1 X62.374 Y58.486 Z0.550 E28.65869
G1 X63.033 Y58.187 Z0.550 E29.06536
G1 X63.693 Y57.833 Z0.550 E29.48556
G1 X68.312 Y55.167 Z0.550 E32.47897
G1 X68.972 Y54.813 Z0.550 E32.89917
G1 X69.632 Y54.514 Z0.550 E33.30583
G1 X70.291 Y54.269 Z0.550 E33.70086
G1 X70.951 Y54.078 Z0.550 E34.08632
G1 X71.611 Y53.942 Z0.550 E34.46445
G1 X72.271 Y53.861 Z0.550 E34.83761
G1 X72.931 Y53.833 Z0.550 E35.20826
G1 X73.591 Y53.861 Z0.550 E35.57892
G1 X74.250 Y53.942 Z0.550 E35.95208
G1 X74.910 Y54.078 Z0.550 E36.33021
G1 X75.570 Y54.269 Z0.550 E36.71567
G1 X76.230 Y54.514 Z0.550 E37.11069
G1 X76.890 Y54.813 Z0.550 E37.51736
G1 X77.550 Y55.167 Z0.550 E37.93756
G1 X82.168 Y57.833 Z0.550 E40.93097
G1 X82.828 Y58.187 Z0.550 E41.35117
G1 X83.488 Y58.486 Z0.550 E41.75783
G1 X84.148 Y58.731 Z0.550 E42.15286
G1 X84.808 Y58.922 Z0.550 E42.53832
G1 X85.468 Y59.058 Z0.550 E42.91645
G1 X86.127 Y59.139 Z0.550 E43.28961
G1 X86.787 Y59.167 Z0.550 E43.66026
G1 X87.447 Y59.139 Z0.550 E44.03092
G1 X88.107 Y59.058 Z0.550 E44.40408
G1 X88.767 Y58.922 Z0.550 E44.78221
G1 X89.427 Y58.731 Z0.550 E45.16767
G1 X90.086 Y58.486 Z0.550 E45.56269
G1 X90.746 Y58.187 Z0.550 E45.96936
G1 X91.406 Y57.833 Z0.550 E46.38956
G1 X96.025 Y55.167 Z0.550 E49.38297
G1 X96.685 Y54.813 Z0.550 E49.80317
G1 X97.344 Y54.514 Z0.550 E50.20984
G1 X98.004 Y54.269 Z0.550 E50.60486
G1 X98.664 Y54.078 Z0.550 E50.99032
G1 X99.324 Y53.942 Z0.550 E51.36845
G1 X99.984 Y53.861 Z0.550 E51.74161
G1 X100.644 Y53.833 Z0.550 E52.11227
G1 X101.303 Y53.861 Z0.550 E52.48292
G1 X101.963 Y53.942 Z0.550 E52.85608
G1 X102.623 Y54.078 Z0.550 E53.23421
G1 X103.283 Y54.269 Z0.550 E53.61967
G1 X103.943 Y54.514 Z0.550 E54.01470
G1 X104.603 Y54.813 Z0.550 E54.42136
G1 X105.262 Y55.167 Z0.550 E54.84156
G1 X109.881 Y57.833 Z0.550 E57.83497
G1 X110.541 Y58.187 Z0.550 E58.25517
G1 X111.201 Y58.486 Z0.550 E58.66184
G1 X111.861 Y58.731 Z0.550 E59.05686
G1 X112.521 Y58.922 Z0.550 E59.44232
G1 X113.180 Y59.058 Z0.550 E59.82045
G1 X113.840 Y59.139 Z0.550 E60.19361
G1 X114.500 Y59.167 Z0.550 E60.56427
G1 X115.160 Y59.139 Z0.550 E60.93492
G1 X115.820 Y59.058 Z0.550 E61.30808
G1 X116.479 Y58.922 Z0.550 E61.68621
G1 X117.139 Y58.731 Z0.550 E62.07167
G1 X117.799 Y58.486 Z0.550 E62.46670
G1 X118.459 Y58.187 Z0.550 E62.87336
G1 X119.119 Y57.833 Z0.550 E63.29356
G1 X123.738 Y55.167 Z0.550 E66.28697
G1 X124.397 Y54.813 Z0.550 E66.70717
G1 X125.057 Y54.514 Z0.550 E67.11384
G1 X125.717 Y54.269 Z0.550 E67.50886
G1 X126.377 Y54.078 Z0.550 E67.89432
G1 X127.037 Y53.942 Z0.550 E68.27245
G1 X127.697 Y53.861 Z0.550 E68.64561
G1 X128.356 Y53.833 Z0.550 E69.01627
G1 X129.016 Y53.861 Z0.550 E69.38692
G1 X129.676 Y53.942 Z0.550 E69.76008
G1 X130.336 Y54.078 Z0.550 E70.13821
G1 X130.996 Y54.269 Z0.550 E70.52367
G1 X131.656 Y54.514 Z0.550 E70.91870
G1 X132.315 Y54.813 Z0.550 E71.32536
G1 X132.975 Y55.167 Z0.550 E71.74556
G1 X137.594 Y57.833 Z0.550 E74.73897
G1 X138.254 Y58.187 Z0.550 E75.15918
G1 X138.914 Y58.486 Z0.550 E75.56584
G1 X139.573 Y58.731 Z0.550 E75.96086
G1 X140.233 Y58.922 Z0.550 E76.34632
G1 X140.893 Y59.058 Z0.550 E76.72445
G1 X141.553 Y59.139 Z0.550 E77.09761
G1 X142.213 Y59.167 Z0.550 E77.46827
G1 X142.873 Y59.139 Z0.550 E77.83892
G1 X143.532 Y59.058 Z0.550 E78.21208
G1 X144.192 Y58.922 Z0.550 E78.59021
G1 X144.852 Y58.731 Z0.550 E78.97567
G1 X145.512 Y58.486 Z0.550 E79.37070
G1 X146.172 Y58.187 Z0.550 E79.77736
G1 X146.832 Y57.833 Z0.550 E80.19756
G1 X151.450 Y55.167 Z0.550 E83.19097
G1 X152.110 Y54.813 Z0.550 E83.61118
G1 X152.770 Y54.514 Z0.550 E84.01784
G1 X153.430 Y54.269 Z0.550 E84.41286
G1 X154.090 Y54.078 Z0.550 E84.79832
G1 X154.750 Y53.942 Z0.550 E85.17645
G1 X155.409 Y53.861 Z0.550 E85.54961
G1 X156.069 Y53.833 Z0.550 E85.92027
G1 X156.729 Y53.861 Z0.550 E86.29092
G1 X157.389 Y53.942 Z0.550 E86.66408
G1 X158.049 Y54.078 Z0.550 E87.04221
G1 X158.709 Y54.269 Z0.550 E87.42767
G1 X159.368 Y54.514 Z0.550 E87.82270
G1 X160.028 Y54.813 Z0.550 E88.22936
G1 X160.688 Y55.167 Z0.550 E88.64956
G1 X165.307 Y57.833 Z0.550 E91.64297
G1 X165.967 Y58.187 Z0.550 E92.06318
G1 X166.626 Y58.486 Z0.550 E92.46984
G1 X167.286 Y58.731 Z0.550 E92.86486
G1 X167.946 Y58.922 Z0.550 E93.25032
G1 X168.606 Y59.058 Z0.550 E93.62845
G1 X169.266 Y59.139 Z0.550 E94.00162
G1 X169.926 Y59.167 Z0.550 E94.37227
G1 X170.585 Y59.139 Z0.550 E94.74292
G1 X171.245 Y59.058 Z0.550 E95.11608
G1 X171.905 Y58.922 Z0.550 E95.49421
G1 X172.565 Y58.731 Z0.550 E95.87967
G1 X173.225 Y58.486 Z0.550 E96.27470
G1 X173.885 Y58.187 Z0.550 E96.68136
G1 X174.544 Y57.833 Z0.550 E97.10156
G1 X179.163 Y55.167 Z0.550 E100.09498
G1 X179.823 Y54.813 Z0.550 E100.51518
G1 X180.483 Y54.514 Z0.550 E100.92184
G1 X181.143 Y54.269 Z0.550 E101.31686
G1 X181.803 Y54.078 Z0.550 E101.70232
G1 X182.462 Y53.942 Z0.550 E102.08045
G1 X183.122 Y53.861 Z0.550 E102.45362
G1 X183.782 Y53.833 Z0.550 E102.82427
G1 X184.442 Y53.861 Z0.550 E103.19492
G1 X185.102 Y53.942 Z0.550 E103.56809
G1 X185.762 Y54.078 Z0.550 E103.94621
G1 X186.421 Y54.269 Z0.550 E104.33168
G1 X187.081 Y54.514 Z0.550 E104.72670
G1 X187.741 Y54.813 Z0.550 E105.13336
G1 X188.401 Y55.167 Z0.550 E105.55356
G1 X193.020 Y57.833 Z0.550 E108.54698
G1 X193.679 Y58.187 Z0.550 E108.96718
G1 X194.339 Y58.486 Z0.550 E109.37384
G1 X194.999 Y58.731 Z0.550 E109.76886
G1 X195.659 Y58.922 Z0.550 E110.15433
G1 X196.319 Y59.058 Z0.550 E110.53245
G1 X196.979 Y59.139 Z0.550 E110.90562
G1 X197.638 Y59.167 Z0.550 E111.27627
G1 X198.298 Y59.139 Z0.550 E111.64692
G1 X198.958 Y59.058 Z0.550 E112.02009
G1 X199.618 Y58.922 Z0.550 E112.39822
G1 X200.278 Y58.731 Z0.550 E112.78368
G1 X200.938 Y58.486 Z0.550 E113.17870
G1 X201.597 Y58.187 Z0.550 E113.58536
G1 X202.257 Y57.833 Z0.550 E114.00556
G1 X206.876 Y55.167 Z0.550 E116.99898
G1 X207.305 Y54.931 Z0.550 E117.27394
G1 X207.714 Y54.731 Z0.550 E117.52910
G1 X208.101 Y54.568 Z0.550 E117.76511
G1 X208.468 Y54.441 Z0.550 E117.98285
G1 X208.814 Y54.350 Z0.550 E118.18341
G1 X209.138 Y54.296 Z0.550 E118.36818
G1 X209.442 Y54.278 Z0.550 E118.53896
G1 X209.725 Y54.296 Z0.550 E118.69800
G1 X209.987 Y54.350 Z0.550 E118.84810
G1 X210.228 Y54.441 Z0.550 E118.99257
G1 X210.447 Y54.568 Z0.550 E119.13511
G1 X210.646 Y54.731 Z0.550 E119.27958
G1 X210.825 Y54.931 Z0.550 E119.42968
G1 X210.982 Y55.167 Z0.550 E119.58873
G1 X211.118 Y55.439 Z0.550 E119.75950
G1 X211.233 Y55.747 Z0.550 E119.94428
G1 X211.327 Y56.092 Z0.550 E120.14483
G1 X211.401 Y56.473 Z0.550 E120.36257
G1 X211.453 Y56.890 Z0.550 E120.59859
G1 X211.484 Y57.344 Z0.550 E120.85374
G1 X211.495 Y57.833 Z0.550 E121.12871
G1 X211.495 Y63.167 Z0.550 E124.12212
G1 X211.471 Y63.915 Z0.550 E124.54232
G1 X211.401 Y64.636 Z0.550 E124.94898
G1 X211.283 Y65.330 Z0.550 E125.34401
G1 X211.118 Y65.997 Z0.550 E125.72947
G1 X210.906 Y66.636 Z0.550 E126.10760
G1 X210.646 Y67.248 Z0.550 E126.48076
G1 X210.340 Y67.833 Z0.550 E126.85141
G1 X209.987 Y68.391 Z0.550 E127.22207
G1 X209.586 Y68.922 Z0.550 E127.59523
G1 X209.138 Y69.425 Z0.550 E127.97336
G1 X208.643 Y69.901 Z0.550 E128.35882
G1 X208.101 Y70.350 Z0.550 E128.75384
G1 X207.512 Y70.772 Z0.550 E129.16050
G1 X206.876 Y71.167 Z0.550 E129.58071
G1 X202.257 Y73.833 Z0.550 E132.57412
G1 X201.597 Y74.187 Z0.550 E132.99432
G1 X200.938 Y74.486 Z0.550 E133.40098
G1 X200.278 Y74.731 Z0.550 E133.79601
G1 X199.618 Y74.922 Z0.550 E134.18147
G1 X198.958 Y75.058 Z0.550 E134.55960
G1 X198.298 Y75.139 Z0.550 E134.93276
G1 X197.638 Y75.167 Z0.550 E135.30341
G1 X196.979 Y75.139 Z0.550 E135.67407
G1 X196.319 Y75.058 Z0.550 E136.04723
G1 X195.659 Y74.922 Z0.550 E136.42536
G1 X194.999 Y74.731 Z0.550 E136.81082
G1 X194.339 Y74.486 Z0.550 E137.20584
G1 X193.679 Y74.187 Z0.550 E137.61251
G1 X193.020 Y73.833 Z0.550 E138.03271
G1 X188.401 Y71.167 Z0.550 E141.02612
G1 X187.741 Y70.813 Z0.550 E141.44632
G1 X187.081 Y70.514 Z0.550 E141.85298
G1 X186.421 Y70.269 Z0.550 E142.24801
G1 X185.762 Y70.078 Z0.550 E142.63347
G1 X185.102 Y69.942 Z0.550 E143.01160
G1 X184.442 Y69.861 Z0.550 E143.38476
G1 X183.782 Y69.833 Z0.550 E143.75541
G1 X183.122 Y69.861 Z0.550 E144.12607
G1 X182.462 Y69.942 Z0.550 E144.49923
G1 X181.803 Y70.078 Z0.550 E144.87736
G1 X181.143 Y70.269 Z0.550 E145.26282
G1 X180.483 Y70.514 Z0.550 E145.65784
G1 X179.823 Y70.813 Z0.550 E146.06451
G1 X179.163 Y71.167 Z0.550 E146.48471
G1 X174.544 Y73.833 Z0.550 E149.47812
G1 X173.885 Y74.187 Z0.550 E149.89832
G1 X173.225 Y74.486 Z0.550 E150.30498
G1 X172.565 Y74.731 Z0.550 E150.70001
G1 X171.905 Y74.922 Z0.550 E151.08547
G1 X171.245 Y75.058 Z0.550 E151.46360
G1 X170.585 Y75.139 Z0.550 E151.83676
G1 X169.926 Y75.167 Z0.550 E152.20741
G1 X169.266 Y75.139 Z0.550 E152.57807
G1 X168.606 Y75.058 Z0.550 E152.95123
G1 X167.946 Y74.922 Z0.550 E153.32936
G1 X167.286 Y74.731 Z0.550 E153.71482
G1 X166.626 Y74.486 Z0.550 E154.10984
G1 X165.967 Y74.187 Z0.550 E154.51651
G1 X165.307 Y73.833 Z0.550 E154.93671
G1 X160.688 Y71.167 Z0.550 E157.93012
G1 X160.028 Y70.813 Z0.550 E158.35032
G1 X159.368 Y70.514 Z0.550 E158.75699
G1 X158.709 Y70.269 Z0.550 E159.15201
G1 X158.049 Y70.078 Z0.550 E159.53747
G1 X157.389 Y69.942 Z0.550 E159.91560
G1 X156.729 Y69.861 Z0.550 E160.28876
G1 X156.069 Y69.833 Z0.550 E160.65942
G1 X155.409 Y69.861 Z0.550 E161.03007
G1 X154.750 Y69.942 Z0.550 E161.40323
G1 X154.090 Y70.078 Z0.550 E161.78136
G1 X153.430 Y70.269 Z0.550 E162.16682
G1 X152.770 Y70.514 Z0.550 E162.56185
G1 X152.110 Y70.813 Z0.550 E162.96851
G1 X151.450 Y71.167 Z0.550 E163.38871
G1 X146.832 Y73.833 Z0.550 E166.38212
G1 X146.172 Y74.187 Z0.550 E166.80232
G1 X145.512 Y74.486 Z0.550 E167.20899
G1 X144.852 Y74.731 Z0.550 E167.60401
G1 X144.192 Y74.922 Z0.550 E167.98947
G1 X143.532 Y75.058 Z0.550 E168.36760
G1 X142.873 Y75.139 Z0.550 E168.74076
G1 X142.213 Y75.167 Z0.550 E169.11142
G1 X141.553 Y75.139 Z0.550 E169.48207
G1 X140.893 Y75.058 Z0.550 E169.85523
G1 X140.233 Y74.922 Z0.550 E170.23336
G1 X139.573 Y74.731 Z0.550 E170.61882
G1 X138.914 Y74.486 Z0.550 E171.01385
G1 X138.254 Y74.187 Z0.550 E171.42051
G1 X137.594 Y73.833 Z0.550 E171.84071
G1 X132.975 Y71.167 Z0.550 E174.83412
G1 X132.315 Y70.813 Z0.550 E175.25432
G1 X131.656 Y70.514 Z0.550 E175.66099
G1 X130.996 Y70.269 Z0.550 E176.05601
G1 X130.336 Y70.078 Z0.550 E176.44147
G1 X129.676 Y69.942 Z0.550 E176.81960
G1 X129.016 Y69.861 Z0.550 E177.19276
G1 X128.356 Y69.833 Z0.550 E177.56342
G1 X127.697 Y69.861 Z0.550 E177.93407
G1 X127.037 Y69.942 Z0.550 E178.30723
G1 X126.377 Y70.078 Z0.550 E178.68536
G1 X125.717 Y70.269 Z0.550 E179.07082
G1 X125.057 Y70.514 Z0.550 E179.46585
G1 X124.397 Y70.813 Z0.550 E179.87251
G1 X123.738 Y71.167 Z0.550 E180.29271
G1 X119.119 Y73.833 Z0.550 E183.28612
G1 X118.459 Y74.187 Z0.550 E183.70633
G1 X117.799 Y74.486 Z0.550 E184.11299
G1 X117.139 Y74.731 Z0.550 E184.50801
G1 X116.479 Y74.922 Z0.550 E184.89347
G1 X115.820 Y75.058 Z0.550 E185.27160
G1 X115.160 Y75.139 Z0.550 E185.64476
G1 X114.500 Y75.167 Z0.550 E186.01542
G1 X113.840 Y75.139 Z0.550 E186.38607
G1 X113.180 Y75.058 Z0.550 E186.75923
G1 X112.521 Y74.922 Z0.550 E187.13736
G1 X111.861 Y74.731 Z0.550 E187.52282
G1 X111.201 Y74.486 Z0.550 E187.91785
G1 X110.541 Y74.187 Z0.550 E188.32451
G1 X109.881 Y73.833 Z0.550 E188.74471
G1 X105.262 Y71.167 Z0.550 E191.73812
G1 X104.603 Y70.813 Z0.550 E192.15833
G1 X103.943 Y70.514 Z0.550 E192.56499
G1 X103.283 Y70.269 Z0.550 E192.96001
G1 X102.623 Y70.078 Z0.550 E193.34547
G1 X101.963 Y69.942 Z0.550 E193.72360
G1 X101.303 Y69.861 Z0.550 E194.09676
G1 X100.644 Y69.833 Z0.550 E194.46742
G1 X99.984 Y69.861 Z0.550 E194.83807
G1 X99.324 Y69.942 Z0.550 E195.21123
G1 X98.664 Y70.078 Z0.550 E195.58936
G1 X98.004 Y70.269 Z0.550 E195.97482
G1 X97.344 Y70.514 Z0.550 E196.36985
G1 X96.685 Y70.813 Z0.550 E196.77651
G1 X96.025 Y71.167 Z0.550 E197.19671
G1 X91.406 Y73.833 Z0.550 E200.19012
G1 X90.746 Y74.187 Z0.550 E200.61033
G1 X90.086 Y74.486 Z0.550 E201.01699
G1 X89.427 Y74.731 Z0.550 E201.41201
G1 X88.767 Y74.922 Z0.550 E201.79747
G1 X88.107 Y75.058 Z0.550 E202.17560
G1 X87.447 Y75.139 Z0.550 E202.54877
G1 X86.787 Y75.167 Z0.550 E202.91942
G1 X86.127 Y75.139 Z0.550 E203.29007
G1 X85.468 Y75.058 Z0.550 E203.66323
G1 X84.808 Y74.922 Z0.550 E204.04136
G1 X84.148 Y74.731 Z0.550 E204.42682
G1 X83.488 Y74.486 Z0.550 E204.82185
G1 X82.828 Y74.187 Z0.550 E205.22851
G1 X82.168 Y73.833 Z0.550 E205.64871
G1 X77.550 Y71.167 Z0.550 E208.64213
G1 X76.890 Y70.813 Z0.550 E209.06233
G1 X76.230 Y70.514 Z0.550 E209.46899
G1 X75.570 Y70.269 Z0.550 E209.86401
G1 X74.910 Y70.078 Z0.550 E210.24947
G1 X74.250 Y69.942 Z0.550 E210.62760
G1 X73.591 Y69.861 Z0.550 E211.00077
G1 X72.931 Y69.833 Z0.550 E211.37142
G1 X72.271 Y69.861 Z0.550 E211.74207
G1 X71.611 Y69.942 Z0.550 E212.11524
G1 X70.951 Y70.078 Z0.550 E212.49336
G1 X70.291 Y70.269 Z0.550 E212.87883
G1 X69.632 Y70.514 Z0.550 E213.27385
G1 X68.972 Y70.813 Z0.550 E213.68051
G1 X68.312 Y71.167 Z0.550 E214.10071
G1 X63.693 Y73.833 Z0.550 E217.09413
G1 X63.033 Y74.187 Z0.550 E217.51433
G1 X62.374 Y74.486 Z0.550 E217.92099
G1 X61.714 Y74.731 Z0.550 E218.31601
G1 X61.054 Y74.922 Z0.550 E218.70148
G1 X60.394 Y75.058 Z0.550 E219.07960
G1 X59.734 Y75.139 Z0.550 E219.45277
G1 X59.074 Y75.167 Z0.550 E219.82342
G1 X58.415 Y75.139 Z0.550 E220.19407
G1 X57.755 Y75.058 Z0.550 E220.56724
G1 X57.095 Y74.922 Z0.550 E220.94537
G1 X56.435 Y74.731 Z0.550 E221.33083
G1 X55.775 Y74.486 Z0.550 E221.72585
G1 X55.115 Y74.187 Z0.550 E222.13251
G1 X54.456 Y73.833 Z0.550 E222.55271
G1 X49.837 Y71.167 Z0.550 E225.54613
G1 X49.177 Y70.813 Z0.550 E225.96633
G1 X48.517 Y70.514 Z0.550 E226.37299
G1 X47.857 Y70.269 Z0.550 E226.76802
G1 X47.197 Y70.078 Z0.550 E227.15348
G1 X46.538 Y69.942 Z0.550 E227.53161
G1 X45.878 Y69.861 Z0.550 E227.90477
G1 X45.218 Y69.833 Z0.550 E228.27542
G1 X44.558 Y69.861 Z0.550 E228.64607
G1 X43.898 Y69.942 Z0.550 E229.01924
G1 X43.238 Y70.078 Z0.550 E229.39737
G1 X42.579 Y70.269 Z0.550 E229.78283
G1 X41.919 Y70.514 Z0.550 E230.17785
G1 X41.259 Y70.813 Z0.550 E230.58451
G1 X40.599 Y71.167 Z0.550 E231.00472
G1 X35.980 Y73.833 Z0.550 E233.99813
G1 X35.321 Y74.187 Z0.550 E234.41833
G1 X34.661 Y74.486 Z0.550 E234.82499
G1 X34.001 Y74.731 Z0.550 E235.22002
G1 X33.341 Y74.922 Z0.550 E235.60548
G1 X32.681 Y75.058 Z0.550 E235.98361
G1 X32.021 Y75.139 Z0.550 E236.35677
G1 X31.362 Y75.167 Z0.550 E236.72742
G1 X30.702 Y75.139 Z0.550 E237.09808
G1 X30.042 Y75.058 Z0.550 E237.47124
G1 X29.382 Y74.922 Z0.550 E237.84937
G1 X28.722 Y74.731 Z0.550 E238.23483
G1 X28.062 Y74.486 Z0.550 E238.62985
G1 X27.403 Y74.187 Z0.550 E239.03651
G1 X26.743 Y73.833 Z0.550 E239.45672
G1 X22.124 Y71.167 Z0.550 E242.45013
G1 X21.674 Y70.920 Z0.550 E242.73832
G1 X21.246 Y70.713 Z0.550 E243.00469
G1 X20.842 Y70.547 Z0.550 E243.25006
G1 X20.461 Y70.420 Z0.550 E243.47543
G1 X20.103 Y70.333 Z0.550 E243.68215
G1 X19.768 Y70.287 Z0.550 E243.87191
G1 X19.457 Y70.280 Z0.550 E244.04694
G1 X19.168 Y70.313 Z0.550 E244.21004
G1 X18.902 Y70.387 Z0.550 E244.36468
G1 X18.660 Y70.500 Z0.550 E244.51491
G1 X18.440 Y70.653 Z0.550 E244.66514
G1 X18.244 Y70.847 Z0.550 E244.81978
G1 X18.071 Y71.080 Z0.550 E244.98288
G1 X17.921 Y71.353 Z0.550 E245.15790
G1 X17.794 Y71.667 Z0.550 E245.34766
G1 X17.690 Y72.020 Z0.550 E245.55438
G1 X17.609 Y72.413 Z0.550 E245.77976
G1 X17.551 Y72.847 Z0.550 E246.02512
G1 X17.517 Y73.320 Z0.550 E246.29149
G1 X17.505 Y73.833 Z0.550 E246.57968
G1 X17.505 Y79.167 Z0.550 E249.57310
G1 X17.529 Y79.915 Z0.550 E249.99330
G1 X17.599 Y80.636 Z0.550 E250.39996
G1 X17.717 Y81.330 Z0.550 E250.79498
G1 X17.882 Y81.997 Z0.550 E251.18044
G1 X18.094 Y82.636 Z0.550 E251.55857
G1 X18.354 Y83.248 Z0.550 E251.93174
G1 X18.660 Y83.833 Z0.550 E252.30239
G1 X19.013 Y84.391 Z0.550 E252.67304
G1 X19.414 Y84.922 Z0.550 E253.04621
G1 X19.862 Y85.425 Z0.550 E253.42434
G1 X20.357 Y85.901 Z0.550 E253.80980
G1 X20.899 Y86.350 Z0.550 E254.20482
G1 X21.488 Y86.772 Z0.550 E254.61148
G1 X22.124 Y87.167 Z0.550 E255.03168
G1 X26.743 Y89.833 Z0.550 E258.02510
G1 X27.403 Y90.187 Z0.550 E258.44530
G1 X28.062 Y90.486 Z0.550 E258.85196
G1 X28.722 Y90.731 Z0.550 E259.24698
G1 X29.382 Y90.922 Z0.550 E259.63245
G1 X30.042 Y91.058 Z0.550 E260.01058
G1 X30.702 Y91.139 Z0.550 E260.38374
G1 X31.362 Y91.167 Z0.550 E260.75439
G1 X32.021 Y91.139 Z0.550 E261.12504
G1 X32.681 Y91.058 Z0.550 E261.49821
G1 X33.341 Y90.922 Z0.550 E261.87634
G1 X34.001 Y90.731 Z0.550 E262.26180
G1 X34.661 Y90.486 Z0.550 E262.65682
G1 X35.321 Y90.187 Z0.550 E263.06348
G1 X35.980 Y89.833 Z0.550 E263.48369
G1 X40.599 Y87.167 Z0.550 E266.47710
G1 X41.259 Y86.813 Z0.550 E266.89730
G1 X41.919 Y86.514 Z0.550 E267.30396
G1 X42.579 Y86.269 Z0.550 E267.69899
G1 X43.238 Y86.078 Z0.550 E268.08445
G1 X43.898 Y85.942 Z0.550 E268.46258
G1 X44.558 Y85.861 Z0.550 E268.83574
G1 X45.218 Y85.833 Z0.550 E269.20639
G1 X45.878 Y85.861 Z0.550 E269.57705
G1 X46.538 Y85.942 Z0.550 E269.95021
G1 X47.197 Y86.078 Z0.550 E270.32834
G1 X47.857 Y86.269 Z0.550 E270.71380
G1 X48.517 Y86.514 Z0.550 E271.10882
G1 X49.177 Y86.813 Z0.550 E271.51548
G1 X49.837 Y87.167 Z0.550 E271.93569
G1 X54.456 Y89.833 Z0.550 E274.92910
G1 X55.115 Y90.187 Z0.550 E275.34930
G1 X55.775 Y90.486 Z0.550 E275.75596
G1 X56.435 Y90.731 Z0.550 E276.15099
G1 X57.095 Y90.922 Z0.550 E276.53645
G1 X57.755 Y91.058 Z0.550 E276.91458
G1 X58.415 Y91.139 Z0.550 E277.28774
G1 X59.074 Y91.167 Z0.550 E277.65839
G1 X59.734 Y91.139 Z0.550 E278.02905
G1 X60.394 Y91.058 Z0.550 E278.40221
G1 X61.054 Y90.922 Z0.550 E278.78034
G1 X61.714 Y90.731 Z0.550 E279.16580
G1 X62.374 Y90.486 Z0.550 E279.56082
G1 X63.033 Y90.187 Z0.550 E279.96748
G1 X63.693 Y89.833 Z0.550 E280.38769
G1 X68.312 Y87.167 Z0.550 E283.38110
G1 X68.972 Y86.813 Z0.550 E283.80130
G1 X69.632 Y86.514 Z0.550 E284.20796
G1 X70.291 Y86.269 Z0.550 E284.60299
G1 X70.951 Y86.078 Z0.550 E284.98845
G1 X71.611 Y85.942 Z0.550 E285.36658
G1 X72.271 Y85.861 Z0.550 E285.73974
G1 X72.931 Y85.833 Z0.550 E286.11039
G1 X73.591 Y85.861 Z0.550 E286.48105
G1 X74.250 Y85.942 Z0.550 E286.85421
G1 X74.910 Y86.078 Z0.550 E287.23234
G1 X75.570 Y86.269 Z0.550 E287.61780
G1 X76.230 Y86.514 Z0.550 E288.01282
G1 X76.890 Y86.813 Z0.550 E288.41948
G1 X77.550 Y87.167 Z0.550 E288.83969
G1 X82.168 Y89.833 Z0.550 E291.83310
G1 X82.828 Y90.187 Z0.550 E292.25330
G1 X83.488 Y90.486 Z0.550 E292.65996
G1 X84.148 Y90.731 Z0.550 E293.05499
G1 X84.808 Y90.922 Z0.550 E293.44045
G1 X85.468 Y91.058 Z0.550 E293.81858
G1 X86.127 Y91.139 Z0.550 E294.19174
G1 X86.787 Y91.167 Z0.550 E294.56239
G1 X87.447 Y91.139 Z0.550 E294.93305
G1 X88.107 Y91.058 Z0.550 E295.30621
G1 X88.767 Y90.922 Z0.550 E295.68434
G1 X89.427 Y90.731 Z0.550 E296.06980
G1 X90.086 Y90.486 Z0.550 E296.46482
G1 X90.746 Y90.187 Z0.550 E296.87149
G1 X91.406 Y89.833 Z0.550 E297.29169
G1 X96.025 Y87.167 Z0.550 E300.28510
G1 X96.685 Y86.813 Z0.550 E300.70530
G1 X97.344 Y86.514 Z0.550 E301.11196
G1 X98.004 Y86.269 Z0.550 E301.50699
G1 X98.664 Y86.078 Z0.550 E301.89245
G1 X99.324 Y85.942 Z0.550 E302.27058
G1 X99.984 Y85.861 Z0.550 E302.64374
G1 X100.644 Y85.833 Z0.550 E303.01439
G1 X101.303 Y85.861 Z0.550 E303.38505
G1 X101.963 Y85.942 Z0.550 E303.75821
G1 X102.623 Y86.078 Z0.550 E304.13634
G1 X103.283 Y86.269 Z0.550 E304.52180
G1 X103.943 Y86.514 Z0.550 E304.91682
G1 X104.603 Y86.813 Z0.550 E305.32349
G1 X105.262 Y87.167 Z0.550 E305.74369
G1 X109.881 Y89.833 Z0.550 E308.73710
G1 X110.541 Y90.187 Z0.550 E309.15730
G1 X111.201 Y90.486 Z0.550 E309.56397
G1 X111.861 Y90.731 Z0.550 E309.95899
G1 X112.521 Y90.922 Z0.550 E310.34445
G1 X113.180 Y91.058 Z0.550 E310.72258
G1 X113.840 Y91.139 Z0.550 E311.09574
G1 X114.500 Y91.167 Z0.550 E311.46640
G1 X115.160 Y91.139 Z0.550 E311.83705
G1 X115.820 Y91.058 Z0.550 E312.21021
G1 X116.479 Y90.922 Z0.550 E312.58834
G1 X117.139 Y90.731 Z0.550 E312.97380
G1 X117.799 Y90.486 Z0.550 E313.36883
G1 X118.459 Y90.187 Z0.550 E313.77549
G1 X119.119 Y89.833 Z0.550 E314.19569
G1 X123.738 Y87.167 Z0.550 E317.18910
G1 X124.397 Y86.813 Z0.550 E317.60930
G1 X125.057 Y86.514 Z0.550 E318.01597
G1 X125.717 Y86.269 Z0.550 E318.41099
G1 X126.377 Y86.078 Z0.550 E318.79645
G1 X127.037 Y85.942 Z0.550 E319.17458
G1 X127.697 Y85.861 Z0.550 E319.54774
G1 X128.356 Y85.833 Z0.550 E319.91840
G1 X129.016 Y85.861 Z0.550 E320.28905
G1 X129.676 Y85.942 Z0.550 E320.66221
G1 X130.336 Y86.078 Z0.550 E321.04034
G1 X130.996 Y86.269 Z0.550 E321.42580
G1 X131.656 Y86.514 Z0.550 E321.82083
G1 X132.315 Y86.813 Z0.550 E322.22749
G1 X132.975 Y87.167 Z0.550 E322.64769
G1 X137.594 Y89.833 Z0.550 E325.64110
G1 X138.254 Y90.187 Z0.550 E326.06130
G1 X138.914 Y90.486 Z0.550 E326.46797
G1 X139.573 Y90.731 Z0.550 E326.86299
G1 X140.233 Y90.922 Z0.550 E327.24845
G1 X140.893 Y91.058 Z0.550 E327.62658
G1 X141.553 Y91.139 Z0.550 E327.99974
G1 X142.213 Y91.167 Z0.550 E328.37040
G1 X142.873 Y91.139 Z0.550 E328.74105
G1 X143.532 Y91.058 Z0.550 E329.11421
G1 X144.192 Y90.922 Z0.550 E329.49234
G1 X144.852 Y90.731 Z0.550 E329.87780
G1 X145.512 Y90.486 Z0.550 E330.27283
G1 X146.172 Y90.187 Z0.550 E330.67949
G1 X146.832 Y89.833 Z0.550 E331.09969
G1 X151.450 Y87.167 Z0.550 E334.09310
G1 X152.110 Y86.813 Z0.550 E334.51331
G1 X152.770 Y86.514 Z0.550 E334.91997
G1 X153.430 Y86.269 Z0.550 E335.31499
G1 X154.090 Y86.078 Z0.550 E335.70045
G1 X154.750 Y85.942 Z0.550 E336.07858
G1 X155.409 Y85.861 Z0.550 E336.45174
G1 X156.069 Y85.833 Z0.550 E336.82240
G1 X156.729 Y85.861 Z0.550 E337.19305
G1 X157.389 Y85.942 Z0.550 E337.56621
G1 X158.049 Y86.078 Z0.550 E337.94434
G1 X158.709 Y86.269 Z0.550 E338.32980
G1 X159.368 Y86.514 Z0.550 E338.72483
G1 X160.028 Y86.813 Z0.550 E339.13149
G1 X160.688 Y87.167 Z0.550 E339.55169
G1 X165.307 Y89.833 Z0.550 E342.54510
G1 X165.967 Y90.187 Z0.550 E342.96531
G1 X166.626 Y90.486 Z0.550 E343.37197
G1 X167.286 Y90.731 Z0.550 E343.76699
G1 X167.946 Y90.922 Z0.550 E344.15245
G1 X168.606 Y91.058 Z0.550 E344.53058
G1 X169.266 Y91.139 Z0.550 E344.90374
G1 X169.926 Y91.167 Z0.550 E345.27440
G1 X170.585 Y91.139 Z0.550 E345.64505
G1 X171.245 Y91.058 Z0.550 E346.01821
G1 X171.905 Y90.922 Z0.550 E346.39634
G1 X172.565 Y90.731 Z0.550 E346.78180
G1 X173.225 Y90.486 Z0.550 E347.17683
G1 X173.885 Y90.187 Z0.550 E347.58349
G1 X174.544 Y89.833 Z0.550 E348.00369
G1 X179.163 Y87.167 Z0.550 E350.99710
G1 X179.823 Y86.813 Z0.550 E351.41731
G1 X180.483 Y86.514 Z0.550 E351.82397
G1 X181.143 Y86.269 Z0.550 E352.21899
G1 X181.803 Y86.078 Z0.550 E352.60445
G1 X182.462 Y85.942 Z0.550 E352.98258
G1 X183.122 Y85.861 Z0.550 E353.35575
G1 X183.782 Y85.833 Z0.550 E353.72640
G1 X184.442 Y85.861 Z0.550 E354.09705
G1 X185.102 Y85.942 Z0.550 E354.47021
G1 X185.762 Y86.078 Z0.550 E354.84834
G1 X186.421 Y86.269 Z0.550 E355.23380
G1 X187.081 Y86.514 Z0.550 E355.62883
G1 X187.741 Y86.813 Z0.550 E356.03549
G1 X188.401 Y87.167 Z0.550 E356.45569
G1 X193.020 Y89.833 Z0.550 E359.44911
G1 X193.679 Y90.187 Z0.550 E359.86931
G1 X194.339 Y90.486 Z0.550 E360.27597
G1 X194.999 Y90.731 Z0.550 E360.67099
G1 X195.659 Y90.922 Z0.550 E361.05645
G1 X196.319 Y91.058 Z0.550 E361.43458
G1 X196.979 Y91.139 Z0.550 E361.80775
G1 X197.638 Y91.167 Z0.550 E362.17840
G1 X198.298 Y91.139 Z0.550 E362.54905
G1 X198.958 Y91.058 Z0.550 E362.92221
G1 X199.618 Y90.922 Z0.550 E363.30034
G1 X200.278 Y90.731 Z0.550 E363.68581
G1 X200.938 Y90.486 Z0.550 E364.08083
G1 X201.597 Y90.187 Z0.550 E364.48749
G1 X202.257 Y89.833 Z0.550 E364.90769
G1 X206.876 Y87.167 Z0.550 E367.90111
G1 X207.305 Y86.931 Z0.550 E368.17607
G1 X207.714 Y86.731 Z0.550 E368.43123
G1 X208.101 Y86.568 Z0.550 E368.66724
G1 X208.468 Y86.441 Z0.550 E368.88498
G1 X208.814 Y86.350 Z0.550 E369.08554
G1 X209.138 Y86.296 Z0.550 E369.27031
G1 X209.442 Y86.278 Z0.550 E369.44109
G1 X209.725 Y86.296 Z0.550 E369.60013
G1 X209.987 Y86.350 Z0.550 E369.75023
G1 X210.228 Y86.441 Z0.550 E369.89470
G1 X210.447 Y86.568 Z0.550 E370.03724
G1 X210.646 Y86.731 Z0.550 E370.18171
G1 X210.825 Y86.931 Z0.550 E370.33181
G1 X210.982 Y87.167 Z0.550 E370.49086
G1 X211.118 Y87.439 Z0.550 E370.66163
G1 X211.233 Y87.747 Z0.550 E370.84640
G1 X211.327 Y88.092 Z0.550 E371.04696
G1 X211.401 Y88.473 Z0.550 E371.26470
G1 X211.453 Y88.890 Z0.550 E371.50072
G1 X211.484 Y89.344 Z0.550 E371.75587
G1 X211.495 Y89.833 Z0.550 E372.03084
G1 X211.495 Y95.167 Z0.550 E375.02425
G1 X211.471 Y95.915 Z0.550 E375.44445
G1 X211.401 Y96.636 Z0.550 E375.85111
G1 X211.283 Y97.330 Z0.550 E376.24614
G1 X211.118 Y97.997 Z0.550 E376.63160
G1 X210.906 Y98.636 Z0.550 E377.00973
G1 X210.646 Y99.248 Z0.550 E377.38289
G1 X210.340 Y99.833 Z0.550 E377.75354
G1 X209.987 Y100.391 Z0.550 E378.12420
G1 X209.586 Y100.922 Z0.550 E378.49736
G1 X209.138 Y101.425 Z0.550 E378.87549
G1 X208.643 Y101.901 Z0.550 E379.26095
G1 X208.101 Y102.350 Z0.550 E379.65597
G1 X207.512 Y102.772 Z0.550 E380.06263
G1 X206.876 Y103.167 Z0.550 E380.48284
G1 X202.257 Y105.833 Z0.550 E383.47625
G1 X201.597 Y106.187 Z0.550 E383.89645
G1 X200.938 Y106.486 Z0.550 E384.30311
G1 X200.278 Y106.731 Z0.550 E384.69814
G1 X199.618 Y106.922 Z0.550 E385.08360
G1 X198.958 Y107.058 Z0.550 E385.46173
G1 X198.298 Y107.139 Z0.550 E385.83489
G1 X197.638 Y107.167 Z0.550 E386.20554
G1 X196.979 Y107.139 Z0.550 E386.57620
G1 X196.319 Y107.058 Z0.550 E386.94936
G1 X195.659 Y106.922 Z0.550 E387.32749
G1 X194.999 Y106.731 Z0.550 E387.71295
G1 X194.339 Y106.486 Z0.550 E388.10797
G1 X193.679 Y106.187 Z0.550 E388.51463
G1 X193.020 Y105.833 Z0.550 E388.93484
G1 X188.401 Y103.167 Z0.550 E391.92825
G1 X187.741 Y102.813 Z0.550 E392.34845
G1 X187.081 Y102.514 Z0.550 E392.75511
G1 X186.421 Y102.269 Z0.550 E393.15014
G1 X185.762 Y102.078 Z0.550 E393.53560
G1 X185.102 Y101.942 Z0.550 E393.91373
G1 X184.442 Y101.861 Z0.550 E394.28689
G1 X183.782 Y101.833 Z0.550 E394.65754
G1 X183.122 Y101.861 Z0.550 E395.02820
G1 X182.462 Y101.942 Z0.550 E395.40136
G1 X181.803 Y102.078 Z0.550 E395.77949
G1 X181.143 Y102.269 Z0.550 E396.16495
G1 X180.483 Y102.514 Z0.550 E396.55997
G1 X179.823 Y102.813 Z0.550 E396.96663
G1 X179.163 Y103.167 Z0.550 E397.38684
G1 X174.544 Y105.833 Z0.550 E400.38025
G1 X173.885 Y106.187 Z0.550 E400.80045
G1 X173.225 Y106.486 Z0.550 E401.20711
G1 X172.565 Y106.731 Z0.550 E401.60214
G1 X171.905 Y106.922 Z0.550 E401.98760
G1 X171.245 Y107.058 Z0.550 E402.36573
G1 X170.585 Y107.139 Z0.550 E402.73889
G1 X169.926 Y107.167 Z0.550 E403.10954
G1 X169.266 Y107.139 Z0.550 E403.48020
G1 X168.606 Y107.058 Z0.550 E403.85336
G1 X167.946 Y106.922 Z0.550 E404.23149
G1 X167.286 Y106.731 Z0.550 E404.61695
G1 X166.626 Y106.486 Z0.550 E405.01197
G1 X165.967 Y106.187 Z0.550 E405.41864
G1 X165.307 Y105.833 Z0.550 E405.83884
G1 X160.688 Y103.167 Z0.550 E408.83225
G1 X160.028 Y102.813 Z0.550 E409.25245
G1 X159.368 Y102.514 Z0.550 E409.65911
G1 X158.709 Y102.269 Z0.550 E410.05414
G1 X158.049 Y102.078 Z0.550 E410.43960
G1 X157.389 Y101.942 Z0.550 E410.81773
G1 X156.729 Y101.861 Z0.550 E411.19089
G1 X156.069 Y101.833 Z0.550 E411.56154
G1 X155.409 Y101.861 Z0.550 E411.93220
G1 X154.750 Y101.942 Z0.550 E412.30536
G1 X154.090 Y102.078 Z0.550 E412.68349
G1 X153.430 Y102.269 Z0.550 E413.06895
G1 X152.770 Y102.514 Z0.550 E413.46397
G1 X152.110 Y102.813 Z0.550 E413.87064
G1 X151.450 Y103.167 Z0.550 E414.29084
G1 X146.832 Y105.833 Z0.550 E417.28425
G1 X146.172 Y106.187 Z0.550 E417.70445
G1 X145.512 Y106.486 Z0.550 E418.11112
G1 X144.852 Y106.731 Z0.550 E418.50614
G1 X144.192 Y106.922 Z0.550 E418.89160
G1 X143.532 Y107.058 Z0.550 E419.26973
G1 X142.873 Y107.139 Z0.550 E419.64289
G1 X142.213 Y107.167 Z0.550 E420.01355
G1 X141.553 Y107.139 Z0.550 E420.38420
G1 X140.893 Y107.058 Z0.550 E420.75736
G1 X140.233 Y106.922 Z0.550 E421.13549
G1 X139.573 Y106.731 Z0.550 E421.52095
G1 X138.914 Y106.486 Z0.550 E421.91598
G1 X138.254 Y106.187 Z0.550 E422.32264
G1 X137.594 Y105.833 Z0.550 E422.74284
G1 X132.975 Y103.167 Z0.550 E425.73625
G1 X132.315 Y102.813 Z0.550 E426.15645
G1 X131.656 Y102.514 Z0.550 E426.56312
G1 X130.996 Y102.269 Z0.550 E426.95814
G1 X130.336 Y102.078 Z0.550 E427.34360
G1 X129.676 Y101.942 Z0.550 E427.72173
G1 X129.016 Y101.861 Z0.550 E428.09489
G1 X128.356 Y101.833 Z0.550 E428.46555
G1 X127.697 Y101.861 Z0.550 E428.83620
G1 X127.037 Y101.942 Z0.550 E429.20936
G1 X126.377 Y102.078 Z0.550 E429.58749
G1 X125.717 Y102.269 Z0.550 E429.97295
G1 X125.057 Y102.514 Z0.550 E430.36798
G1 X124.397 Y102.813 Z0.550 E430.77464
G1 X123.738 Y103.167 Z0.550 E431.19484
G1 X119.119 Y105.833 Z0.550 E434.18825
G1 X118.459 Y106.187 Z0.550 E434.60845
G1 X117.799 Y106.486 Z0.550 E435.01512
G1 X117.139 Y106.731 Z0.550 E435.41014
G1 X116.479 Y106.922 Z0.550 E435.79560
G1 X115.820 Y107.058 Z0.550 E436.17373
G1 X115.160 Y107.139 Z0.550 E436.54689
G1 X114.500 Y107.167 Z0.550 E436.91755
G1 X113.840 Y107.139 Z0.550 E437.28820
G1 X113.180 Y107.058 Z0.550 E437.66136
G1 X112.521 Y106.922 Z0.550 E438.03949
G1 X111.861 Y106.731 Z0.550 E438.42495
G1 X111.201 Y106.486 Z0.550 E438.81998
G1 X110.541 Y106.187 Z0.550 E439.22664
G1 X109.881 Y105.833 Z0.550 E439.64684
G1 X105.262 Y103.167 Z0.550 E442.64025
G1 X104.603 Y102.813 Z0.550 E443.06046
G1 X103.943 Y102.514 Z0.550 E443.46712
G1 X103.283 Y102.269 Z0.550 E443.86214
G1 X102.623 Y102.078 Z0.550 E444.24760
G1 X101.963 Y101.942 Z0.550 E444.62573
G1 X101.303 Y101.861 Z0.550 E444.99889
G1 X100.644 Y101.833 Z0.550 E445.36955
G1 X99.984 Y101.861 Z0.550 E445.74020
G1 X99.324 Y101.942 Z0.550 E446.11336
G1 X98.664 Y102.078 Z0.550 E446.49149
G1 X98.004 Y102.269 Z0.550 E446.87695
G1 X97.344 Y102.514 Z0.550 E447.27198
G1 X96.685 Y102.813 Z0.550 E447.67864
G1 X96.025 Y103.167 Z0.550 E448.09884
G1 X91.406 Y105.833 Z0.550 E451.09225
G1 X90.746 Y106.187 Z0.550 E451.51246
G1 X90.086 Y106.486 Z0.550 E451.91912
G1 X89.427 Y106.731 Z0.550 E452.31414
G1 X88.767 Y106.922 Z0.550 E452.69960
G1 X88.107 Y107.058 Z0.550 E453.07773
G1 X87.447 Y107.139 Z0.550 E453.45089
G1 X86.787 Y107.167 Z0.550 E453.82155
G1 X86.127 Y107.139 Z0.550 E454.19220
G1 X85.468 Y107.058 Z0.550 E454.56536
G1 X84.808 Y106.922 Z0.550 E454.94349
G1 X84.148 Y106.731 Z0.550 E455.32895
G1 X83.488 Y106.486 Z0.550 E455.72398
G1 X82.828 Y106.187 Z0.550 E456.13064
G1 X82.168 Y105.833 Z0.550 E456.55084
G1 X77.550 Y103.167 Z0.550 E459.54425
G1 X76.890 Y102.813 Z0.550 E459.96446
G1 X76.230 Y102.514 Z0.550 E460.37112
G1 X75.570 Y102.269 Z0.550 E460.76614
G1 X74.910 Y102.078 Z0.550 E461.15160
G1 X74.250 Y101.942 Z0.550 E461.52973
G1 X73.591 Y101.861 Z0.550 E461.90290
G1 X72.931 Y101.833 Z0.550 E462.27355
G1 X72.271 Y101.861 Z0.550 E462.64420
G1 X71.611 Y101.942 Z0.550 E463.01736
G1 X70.951 Y102.078 Z0.550 E463.39549
G1 X70.291 Y102.269 Z0.550 E463.78095
G1 X69.632 Y102.514 Z0.550 E464.17598
G1 X68.972 Y102.813 Z0.550 E464.58264
G1 X68.312 Y103.167 Z0.550 E465.00284
G1 X63.693 Y105.833 Z0.550 E467.99626
G1 X63.033 Y106.187 Z0.550 E468.41646
G1 X62.374 Y106.486 Z0.550 E468.82312
G1 X61.714 Y106.731 Z0.550 E469.21814
G1 X61.054 Y106.922 Z0.550 E469.60360
G1 X60.394 Y107.058 Z0.550 E469.98173
G1 X59.734 Y107.139 Z0.550 E470.35490
G1 X59.074 Y107.167 Z0.550 E470.72555
G1 X58.415 Y107.139 Z0.550 E471.09620
G1 X57.755 Y107.058 Z0.550 E471.46936
G1 X57.095 Y106.922 Z0.550 E471.84749
G1 X56.435 Y106.731 Z0.550 E472.23296
G1 X55.775 Y106.486 Z0.550 E472.62798
G1 X55.115 Y106.187 Z0.550 E473.03464
G1 X54.456 Y105.833 Z0.550 E473.45484
G1 X49.837 Y103.167 Z0.550 E476.44826
G1 X49.177 Y102.813 Z0.550 E476.86846
G1 X48.517 Y102.514 Z0.550 E477.27512
G1 X47.857 Y102.269 Z0.550 E477.67014
G1 X47.197 Y102.078 Z0.550 E478.05560
G1 X46.538 Y101.942 Z0.550 E478.43373
G1 X45.878 Y101.861 Z0.550 E478.80690
G1 X45.218 Y101.833 Z0.550 E479.17755
G1 X44.558 Y101.861 Z0.550 E479.54820
G1 X43.898 Y101.942 Z0.550 E479.92137
G1 X43.238 Y102.078 Z0.550 E480.29950
G1 X42.579 Y102.269 Z0.550 E480.68496
G1 X41.919 Y102.514 Z0.550 E481.07998
G1 X41.259 Y102.813 Z0.550 E481.48664
G1 X40.599 Y103.167 Z0.550 E481.90684
G1 X35.980 Y105.833 Z0.550 E484.90026
G1 X35.321 Y106.187 Z0.550 E485.32046
G1 X34.661 Y106.486 Z0.550 E485.72712
G1 X34.001 Y106.731 Z0.550 E486.12214
G1 X33.341 Y106.922 Z0.550 E486.50761
G1 X32.681 Y107.058 Z0.550 E486.88574
G1 X32.021 Y107.139 Z0.550 E487.25890
G1 X31.362 Y107.167 Z0.550 E487.62955
G1 X30.702 Y107.139 Z0.550 E488.00020
G1 X30.042 Y107.058 Z0.550 E488.37337
G1 X29.382 Y106.922 Z0.550 E488.75150
G1 X28.722 Y106.731 Z0.550 E489.13696
G1 X28.062 Y106.486 Z0.550 E489.53198
G1 X27.403 Y106.187 Z0.550 E489.93864
G1 X26.743 Y105.833 Z0.550 E490.35885
G1 X22.124 Y103.167 Z0.550 E493.35226
G1 X21.674 Y102.920 Z0.550 E493.64045
G1 X21.246 Y102.713 Z0.550 E493.90682
G1 X20.842 Y102.547 Z0.550 E494.15219
G1 X20.461 Y102.420 Z0.550 E494.37756
G1 X20.103 Y102.333 Z0.550 E494.58428
G1 X19.768 Y102.287 Z0.550 E494.77404
G1 X19.457 Y102.280 Z0.550 E494.94906
G1 X19.168 Y102.313 Z0.550 E495.11216
G1 X18.902 Y102.387 Z0.550 E495.26680
G1 X18.660 Y102.500 Z0.550 E495.41703
G1 X18.440 Y102.653 Z0.550 E495.56727
G1 X18.244 Y102.847 Z0.550 E495.72191
G1 X18.071 Y103.080 Z0.550 E495.88500
G1 X17.921 Y103.353 Z0.550 E496.06003
G1 X17.794 Y103.667 Z0.550 E496.24979
G1 X17.690 Y104.020 Z0.550 E496.45651
G1 X17.609 Y104.413 Z0.550 E496.68188
G1 X17.551 Y104.847 Z0.550 E496.92725
G1 X17.517 Y105.320 Z0.550 E497.19362
G1 X17.505 Y105.833 Z0.550 E497.48181
G1 X17.505 Y111.167 Z0.550 E500.47522
G1 X17.529 Y111.915 Z0.550 E500.89543
G1 X17.599 Y112.636 Z0.550 E501.30209
G1 X17.717 Y113.330 Z0.550 E501.69711
G1 X17.882 Y113.997 Z0.550 E502.08257
G1 X18.094 Y114.636 Z0.550 E502.46070
G1 X18.354 Y115.248 Z0.550 E502.83387
G1 X18.660 Y115.833 Z0.550 E503.20452
G1 X19.013 Y116.391 Z0.550 E503.57517
G1 X19.414 Y116.922 Z0.550 E503.94833
G1 X19.862 Y117.425 Z0.550 E504.32646
G1 X20.357 Y117.901 Z0.550 E504.71193
G1 X20.899 Y118.350 Z0.550 E505.10695
G1 X21.488 Y118.772 Z0.550 E505.51361
G1 X22.124 Y119.167 Z0.550 E505.93381
G1 X26.743 Y121.833 Z0.550 E508.92723
G1 X27.403 Y122.187 Z0.550 E509.34743
G1 X28.062 Y122.486 Z0.550 E509.75409
G1 X28.722 Y122.731 Z0.550 E510.14911
G1 X29.382 Y122.922 Z0.550 E510.53457
G1 X30.042 Y123.058 Z0.550 E510.91270
G1 X30.702 Y123.139 Z0.550 E511.28587
G1 X31.362 Y123.167 Z0.550 E511.65652
G1 X32.021 Y123.139 Z0.550 E512.02717
G1 X32.681 Y123.058 Z0.550 E512.40034
G1 X33.341 Y122.922 Z0.550 E512.77847
G1 X34.001 Y122.731 Z0.550 E513.16393
G1 X34.661 Y122.486 Z0.550 E513.55895
G1 X35.321 Y122.187 Z0.550 E513.96561
G1 X35.980 Y121.833 Z0.550 E514.38581
G1 X40.599 Y119.167 Z0.550 E517.37923
G1 X41.259 Y118.813 Z0.550 E517.79943
G1 X41.919 Y118.514 Z0.550 E518.20609
G1 X42.579 Y118.269 Z0.550 E518.60111
G1 X43.238 Y118.078 Z0.550 E518.98658
G1 X43.898 Y117.942 Z0.550 E519.36470
G1 X44.558 Y117.861 Z0.550 E519.73787
G1 X45.218 Y117.833 Z0.550 E520.10852
G1 X45.878 Y117.861 Z0.550 E520.47917
G1 X46.538 Y117.942 Z0.550 E520.85234
G1 X47.197 Y118.078 Z0.550 E521.23047
G1 X47.857 Y118.269 Z0.550 E521.61593
G1 X48.517 Y118.514 Z0.550 E522.01095
G1 X49.177 Y118.813 Z0.550 E522.41761
G1 X49.837 Y119.167 Z0.550 E522.83781
G1 X54.456 Y121.833 Z0.550 E525.83123
G1 X55.115 Y122.187 Z0.550 E526.25143
G1 X55.775 Y122.486 Z0.550 E526.65809
G1 X56.435 Y122.731 Z0.550 E527.05312
G1 X57.095 Y122.922 Z0.550 E527.43858
G1 X57.755 Y123.058 Z0.550 E527.81671
G1 X58.415 Y123.139 Z0.550 E528.18987
G1 X59.074 Y123.167 Z0.550 E528.56052
G1 X59.734 Y123.139 Z0.550 E528.93117
G1 X60.394 Y123.058 Z0.550 E529.30434
G1 X61.054 Y122.922 Z0.550 E529.68247
G1 X61.714 Y122.731 Z0.550 E530.06793
G1 X62.374 Y122.486 Z0.550 E530.46295
G1 X63.033 Y122.187 Z0.550 E530.86961
G1 X63.693 Y121.833 Z0.550 E531.28982
G1 X68.312 Y119.167 Z0.550 E534.28323
G1 X68.972 Y118.813 Z0.550 E534.70343
G1 X69.632 Y118.514 Z0.550 E535.11009
G1 X70.291 Y118.269 Z0.550 E535.50512
G1 X70.951 Y118.078 Z0.550 E535.89058
G1 X71.611 Y117.942 Z0.550 E536.26871
G1 X72.271 Y117.861 Z0.550 E536.64187
G1 X72.931 Y117.833 Z0.550 E537.01252
G1 X73.591 Y117.861 Z0.550 E537.38318
G1 X74.250 Y117.942 Z0.550 E537.75634
G1 X74.910 Y118.078 Z0.550 E538.13447
G1 X75.570 Y118.269 Z0.550 E538.51993
G1 X76.230 Y118.514 Z0.550 E538.91495
G1 X76.890 Y118.813 Z0.550 E539.32161
G1 X77.550 Y119.167 Z0.550 E539.74182
G1 X82.168 Y121.833 Z0.550 E542.73523
G1 X82.828 Y122.187 Z0.550 E543.15543
G1 X83.488 Y122.486 Z0.550 E543.56209
G1 X84.148 Y122.731 Z0.550 E543.95712
G1 X84.808 Y122.922 Z0.550 E544.34258
G1 X85.468 Y123.058 Z0.550 E544.72071
G1 X86.127 Y123.139 Z0.550 E545.09387
G1 X86.787 Y123.167 Z0.550 E545.46452
G1 X87.447 Y123.139 Z0.550 E545.83518
G1 X88.107 Y123.058 Z0.550 E546.20834
G1 X88.767 Y122.922 Z0.550 E546.58647
G1 X89.427 Y122.731 Z0.550 E546.97193
G1 X90.086 Y122.486 Z0.550 E547.36695
G1 X90.746 Y122.187 Z0.550 E547.77361
G1 X91.406 Y121.833 Z0.550 E548.19382
G1 X96.025 Y119.167 Z0.550 E551.18723
G1 X96.685 Y118.813 Z0.550 E551.60743
G1 X97.344 Y118.514 Z0.550 E552.01409
G1 X98.004 Y118.269 Z0.550 E552.40912
G1 X98.664 Y118.078 Z0.550 E552.79458
G1 X99.324 Y117.942 Z0.550 E553.17271
G1 X99.984 Y117.861 Z0.550 E553.54587
G1 X100.644 Y117.833 Z0.550 E553.91652
G1 X101.303 Y117.861 Z0.550 E554.28718
G1 X101.963 Y117.942 Z0.550 E554.66034
G1 X102.623 Y118.078 Z0.550 E555.03847
G1 X103.283 Y118.269 Z0.550 E555.42393
G1 X103.943 Y118.514 Z0.550 E555.81895
G1 X104.603 Y118.813 Z0.550 E556.22562
G1 X105.262 Y119.167 Z0.550 E556.64582
G1 X109.881 Y121.833 Z0.550 E559.63923
G1 X110.541 Y122.187 Z0.550 E560.05943
G1 X111.201 Y122.486 Z0.550 E560.46609
G1 X111.861 Y122.731 Z0.550 E560.86112
G1 X112.521 Y122.922 Z0.550 E561.24658
G1 X113.180 Y123.058 Z0.550 E561.62471
G1 X113.840 Y123.139 Z0.550 E561.99787
G1 X114.500 Y123.167 Z0.550 E562.36852
G1 X115.160 Y123.139 Z0.550 E562.73918
G1 X115.820 Y123.058 Z0.550 E563.11234
G1 X116.479 Y122.922 Z0.550 E563.49047
G1 X117.139 Y122.731 Z0.550 E563.87593
G1 X117.799 Y122.486 Z0.550 E564.27095
G1 X118.459 Y122.187 Z0.550 E564.67762
G1 X119.119 Y121.833 Z0.550 E565.09782
G1 X123.738 Y119.167 Z0.550 E568.09123
G1 X124.397 Y118.813 Z0.550 E568.51143
G1 X125.057 Y118.514 Z0.550 E568.91809
G1 X125.717 Y118.269 Z0.550 E569.31312
G1 X126.377 Y118.078 Z0.550 E569.69858
G1 X127.037 Y117.942 Z0.550 E570.07671
G1 X127.697 Y117.861 Z0.550 E570.44987
G1 X128.356 Y117.833 Z0.550 E570.82052
G1 X129.016 Y117.861 Z0.550 E571.19118
G1 X129.676 Y117.942 Z0.550 E571.56434
G1 X130.336 Y118.078 Z0.550 E571.94247
G1 X130.996 Y118.269 Z0.550 E572.32793
G1 X131.656 Y118.514 Z0.550 E572.72295
G1 X132.315 Y118.813 Z0.550 E573.12962
G1 X132.975 Y119.167 Z0.550 E573.54982
G1 X137.594 Y121.833 Z0.550 E576.54323
G1 X138.254 Y122.187 Z0.550 E576.96343
G1 X138.914 Y122.486 Z0.550 E577.37010
G1 X139.573 Y122.731 Z0.550 E577.76512
G1 X140.233 Y122.922 Z0.550 E578.15058
G1 X140.893 Y123.058 Z0.550 E578.52871
G1 X141.553 Y123.139 Z0.550 E578.90187
G1 X142.213 Y123.167 Z0.550 E579.27253
G1 X142.873 Y123.139 Z0.550 E579.64318
G1 X143.532 Y123.058 Z0.550 E580.01634
G1 X144.192 Y122.922 Z0.550 E580.39447
G1 X144.852 Y122.731 Z0.550 E580.77993
G1 X145.512 Y122.486 Z0.550 E581.17496
G1 X146.172 Y122.187 Z0.550 E581.58162
G1 X146.832 Y121.833 Z0.550 E582.00182
G1 X151.450 Y119.167 Z0.550 E584.99523
G1 X152.110 Y118.813 Z0.550 E585.41543
G1 X152.770 Y118.514 Z0.550 E585.82210
G1 X153.430 Y118.269 Z0.550 E586.21712
G1 X154.090 Y118.078 Z0.550 E586.60258
G1 X154.750 Y117.942 Z0.550 E586.98071
G1 X155.409 Y117.861 Z0.550 E587.35387
G1 X156.069 Y117.833 Z0.550 E587.72453
G1 X156.729 Y117.861 Z0.550 E588.09518
G1 X157.389 Y117.942 Z0.550 E588.46834
G1 X158.049 Y118.078 Z0.550 E588.84647
G1 X158.709 Y118.269 Z0.550 E589.23193
G1 X159.368 Y118.514 Z0.550 E589.62696
G1 X160.028 Y118.813 Z0.550 E590.03362
G1 X160.688 Y119.167 Z0.550 E590.45382
G1 X165.307 Y121.833 Z0.550 E593.44723
G1 X165.967 Y122.187 Z0.550 E593.86743
G1 X166.626 Y122.486 Z0.550 E594.27410
G1 X167.286 Y122.731 Z0.550 E594.66912
G1 X167.946 Y122.922 Z0.550 E595.05458
G1 X168.606 Y123.058 Z0.550 E595.43271
G1 X169.266 Y123.139 Z0.550 E595.80587
G1 X169.926 Y123.167 Z0.550 E596.17653
G1 X170.585 Y123.139 Z0.550 E596.54718
G1 X171.245 Y123.058 Z0.550 E596.92034
G1 X171.905 Y122.922 Z0.550 E597.29847
G1 X172.565 Y122.731 Z0.550 E597.68393
G1 X173.225 Y122.486 Z0.550 E598.07896
G1 X173.885 Y122.187 Z0.550 E598.48562
G1 X174.544 Y121.833 Z0.550 E598.90582
G1 X179.163 Y119.167 Z0.550 E601.89923
G1 X179.823 Y118.813 Z0.550 E602.31944
G1 X180.483 Y118.514 Z0.550 E602.72610
G1 X181.143 Y118.269 Z0.550 E603.12112
G1 X181.803 Y118.078 Z0.550 E603.50658
G1 X182.462 Y117.942 Z0.550 E603.88471
G1 X183.122 Y117.861 Z0.550 E604.25787
G1 X183.782 Y117.833 Z0.550 E604.62853
G1 X184.442 Y117.861 Z0.550 E604.99918
G1 X185.102 Y117.942 Z0.550 E605.37234
G1 X185.762 Y118.078 Z0.550 E605.75047
G1 X186.421 Y118.269 Z0.550 E606.13593
G1 X187.081 Y118.514 Z0.550 E606.53096
G1 X187.741 Y118.813 Z0.550 E606.93762
G1 X188.401 Y119.167 Z0.550 E607.35782
G1 X193.020 Y121.833 Z0.550 E610.35123
G1 X193.679 Y122.187 Z0.550 E610.77144
G1 X194.339 Y122.486 Z0.550 E611.17810
G1 X194.999 Y122.731 Z0.550 E611.57312
G1 X195.659 Y122.922 Z0.550 E611.95858
G1 X196.319 Y123.058 Z0.550 E612.33671
G1 X196.979 Y123.139 Z0.550 E612.70987
G1 X197.638 Y123.167 Z0.550 E613.08053
G1 X198.298 Y123.139 Z0.550 E613.45118
G1 X198.958 Y123.058 Z0.550 E613.82434
G1 X199.618 Y122.922 Z0.550 E614.20247
G1 X200.278 Y122.731 Z0.550 E614.58793
G1 X200.938 Y122.486 Z0.550 E614.98296
G1 X201.597 Y122.187 Z0.550 E615.38962
G1 X202.257 Y121.833 Z0.550 E615.80982
G1 X206.876 Y119.167 Z0.550 E618.80323
G1 X207.305 Y118.931 Z0.550 E619.07820
G1 X207.714 Y118.731 Z0.550 E619.33335
G1 X208.101 Y118.568 Z0.550 E619.56937
G1 X208.468 Y118.441 Z0.550 E619.78711
G1 X208.814 Y118.350 Z0.550 E619.98766
G1 X209.138 Y118.296 Z0.550 E620.17244
G1 X209.442 Y118.278 Z0.550 E620.34321
G1 X209.725 Y118.296 Z0.550 E620.50226
G1 X209.987 Y118.350 Z0.550 E620.65236
G1 X210.228 Y118.441 Z0.550 E620.79683
G1 X210.447 Y118.568 Z0.550 E620.93937
G1 X210.646 Y118.731 Z0.550 E621.08384
G1 X210.825 Y118.931 Z0.550 E621.23394
G1 X210.982 Y119.167 Z0.550 E621.39298
G1 X211.118 Y119.439 Z0.550 E621.56376
G1 X211.233 Y119.747 Z0.550 E621.74853
G1 X211.327 Y120.092 Z0.550 E621.94909
G1 X211.401 Y120.473 Z0.550 E622.16683
G1 X211.453 Y120.890 Z0.550 E622.40284
G1 X211.484 Y121.344 Z0.550 E622.65800
G1 X211.495 Y121.833 Z0.550 E622.93296
G1 X211.495 Y127.167 Z0.550 E625.92638
G1 X211.471 Y127.915 Z0.550 E626.34658
G1 X211.401 Y128.636 Z0.550 E626.75324
G1 X211.283 Y129.330 Z0.550 E627.14826
G1 X211.118 Y129.997 Z0.550 E627.53373
G1 X210.906 Y130.636 Z0.550 E627.91185
G1 X210.646 Y131.248 Z0.550 E628.28502
G1 X210.340 Y131.833 Z0.550 E628.65567
G1 X209.987 Y132.391 Z0.550 E629.02632
G1 X209.586 Y132.922 Z0.550 E629.39949
G1 X209.138 Y133.425 Z0.550 E629.77762
G1 X208.643 Y133.901 Z0.550 E630.16308
G1 X208.101 Y134.350 Z0.550 E630.55810
G1 X207.512 Y134.772 Z0.550 E630.96476
G1 X206.876 Y135.167 Z0.550 E631.38496
G1 X202.257 Y137.833 Z0.550 E634.37838
G1 X201.597 Y138.187 Z0.550 E634.79858
G1 X200.938 Y138.486 Z0.550 E635.20524
G1 X200.278 Y138.731 Z0.550 E635.60027
G1 X199.618 Y138.922 Z0.550 E635.98573
G1 X198.958 Y139.058 Z0.550 E636.36386
G1 X198.298 Y139.139 Z0.550 E636.73702
G1 X197.638 Y139.167 Z0.550 E637.10767
G1 X196.979 Y139.139 Z0.550 E637.47832
G1 X196.319 Y139.058 Z0.550 E637.85149
G1 X195.659 Y138.922 Z0.550 E638.22962
G1 X194.999 Y138.731 Z0.550 E638.61508
G1 X194.339 Y138.486 Z0.550 E639.01010
G1 X193.679 Y138.187 Z0.550 E639.41676
G1 X193.020 Y137.833 Z0.550 E639.83697
G1 X188.401 Y135.167 Z0.550 E642.83038
G1 X187.741 Y134.813 Z0.550 E643.25058
G1 X187.081 Y134.514 Z0.550 E643.65724
G1 X186.421 Y134.269 Z0.550 E644.05227
G1 X185.762 Y134.078 Z0.550 E644.43773
G1 X185.102 Y133.942 Z0.550 E644.81586
G1 X184.442 Y133.861 Z0.550 E645.18902
G1 X183.782 Y133.833 Z0.550 E645.55967
G1 X183.122 Y133.861 Z0.550 E645.93033
G1 X182.462 Y133.942 Z0.550 E646.30349
G1 X181.803 Y134.078 Z0.550 E646.68162
G1 X181.143 Y134.269 Z0.550 E647.06708
G1 X180.483 Y134.514 Z0.550 E647.46210
G1 X179.823 Y134.813 Z0.550 E647.86876
G1 X179.163 Y135.167 Z0.550 E648.28897
G1 X174.544 Y137.833 Z0.550 E651.28238
G1 X173.885 Y138.187 Z0.550 E651.70258
G1 X173.225 Y138.486 Z0.550 E652.10924
G1 X172.565 Y138.731 Z0.550 E652.50427
G1 X171.905 Y138.922 Z0.550 E652.88973
G1 X171.245 Y139.058 Z0.550 E653.26786
G1 X170.585 Y139.139 Z0.550 E653.64102
G1 X169.926 Y139.167 Z0.550 E654.01167
G1 X169.266 Y139.139 Z0.550 E654.38233
G1 X168.606 Y139.058 Z0.550 E654.75549
G1 X167.946 Y138.922 Z0.550 E655.13362
G1 X167.286 Y138.731 Z0.550 E655.51908
G1 X166.626 Y138.486 Z0.550 E655.91410
G1 X165.967 Y138.187 Z0.550 E656.32076
G1 X165.307 Y137.833 Z0.550 E656.74097
G1 X160.688 Y135.167 Z0.550 E659.73438
G1 X160.028 Y134.813 Z0.550 E660.15458
G1 X159.368 Y134.514 Z0.550 E660.56124
G1 X158.709 Y134.269 Z0.550 E660.95627
G1 X158.049 Y134.078 Z0.550 E661.34173
G1 X157.389 Y133.942 Z0.550 E661.71986
G1 X156.729 Y133.861 Z0.550 E662.09302
G1 X156.069 Y133.833 Z0.550 E662.46367
G1 X155.409 Y133.861 Z0.550 E662.83433
G1 X154.750 Y133.942 Z0.550 E663.20749
G1 X154.090 Y134.078 Z0.550 E663.58562
G1 X153.430 Y134.269 Z0.550 E663.97108
G1 X152.770 Y134.514 Z0.550 E664.36610
G1 X152.110 Y134.813 Z0.550 E664.77277
G1 X151.450 Y135.167 Z0.550 E665.19297
G1 X146.832 Y137.833 Z0.550 E668.18638
G1 X146.172 Y138.187 Z0.550 E668.60658
G1 X145.512 Y138.486 Z0.550 E669.01324
G1 X144.852 Y138.731 Z0.550 E669.40827
G1 X144.192 Y138.922 Z0.550 E669.79373
G1 X143.532 Y139.058 Z0.550 E670.17186
G1 X142.873 Y139.139 Z0.550 E670.54502
G1 X142.213 Y139.167 Z0.550 E670.91567
G1 X141.553 Y139.139 Z0.550 E671.28633
G1 X140.893 Y139.058 Z0.550 E671.65949
G1 X140.233 Y138.922 Z0.550 E672.03762
G1 X139.573 Y138.731 Z0.550 E672.42308
G1 X138.914 Y138.486 Z0.550 E672.81810
G1 X138.254 Y138.187 Z0.550 E673.22477
G1 X137.594 Y137.833 Z0.550 E673.64497
G1 X132.975 Y135.167 Z0.550 E676.63838
G1 X132.315 Y134.813 Z0.550 E677.05858
G1 X131.656 Y134.514 Z0.550 E677.46524
G1 X130.996 Y134.269 Z0.550 E677.86027
G1 X130.336 Y134.078 Z0.550 E678.24573
G1 X129.676 Y133.942 Z0.550 E678.62386
G1 X129.016 Y133.861 Z0.550 E678.99702
G1 X128.356 Y133.833 Z0.550 E679.36767
G1 X127.697 Y133.861 Z0.550 E679.73833
G1 X127.037 Y133.942 Z0.550 E680.11149
G1 X126.377 Y134.078 Z0.550 E680.48962
G1 X125.717 Y134.269 Z0.550 E680.87508
G1 X125.057 Y134.514 Z0.550 E681.27010
G1 X124.397 Y134.813 Z0.550 E681.67677
G1 X123.738 Y135.167 Z0.550 E682.09697
G1 X119.119 Y137.833 Z0.550 E685.09038
G1 X118.459 Y138.187 Z0.550 E685.51058
G1 X117.799 Y138.486 Z0.550 E685.91725
G1 X117.139 Y138.731 Z0.550 E686.31227
G1 X116.479 Y138.922 Z0.550 E686.69773
G1 X115.820 Y139.058 Z0.550 E687.07586
G1 X115.160 Y139.139 Z0.550 E687.44902
G1 X114.500 Y139.167 Z0.550 E687.81968
G1 X113.840 Y139.139 Z0.550 E688.19033
G1 X113.180 Y139.058 Z0.550 E688.56349
G1 X112.521 Y138.922 Z0.550 E688.94162
G1 X111.861 Y138.731 Z0.550 E689.32708
G1 X111.201 Y138.486 Z0.550 E689.72211
G1 X110.541 Y138.187 Z0.550 E690.12877
G1 X109.881 Y137.833 Z0.550 E690.54897
G1 X105.262 Y135.167 Z0.550 E693.54238
G1 X104.603 Y134.813 Z0.550 E693.96258
G1 X103.943 Y134.514 Z0.550 E694.36925
G1 X103.283 Y134.269 Z0.550 E694.76427
G1 X102.623 Y134.078 Z0.550 E695.14973
G1 X101.963 Y133.942 Z0.550 E695.52786
G1 X101.303 Y133.861 Z0.550 E695.90102
G1 X100.644 Y133.833 Z0.550 E696.27168
G1 X99.984 Y133.861 Z0.550 E696.64233
G1 X99.324 Y133.942 Z0.550 E697.01549
G1 X98.664 Y134.078 Z0.550 E697.39362
G1 X98.004 Y134.269 Z0.550 E697.77908
G1 X97.344 Y134.514 Z0.550 E698.17411
G1 X96.685 Y134.813 Z0.550 E698.58077
G1 X96.025 Y135.167 Z0.550 E699.00097
G1 X91.406 Y137.833 Z0.550 E701.99438
G1 X90.746 Y138.187 Z0.550 E702.41458
G1 X90.086 Y138.486 Z0.550 E702.82125
G1 X89.427 Y138.731 Z0.550 E703.21627
G1 X88.767 Y138.922 Z0.550 E703.60173
G1 X88.107 Y139.058 Z0.550 E703.97986
G1 X87.447 Y139.139 Z0.550 E704.35302
G1 X86.787 Y139.167 Z0.550 E704.72368
G1 X86.127 Y139.139 Z0.550 E705.09433
G1 X85.468 Y139.058 Z0.550 E705.46749
G1 X84.808 Y138.922 Z0.550 E705.84562
G1 X84.148 Y138.731 Z0.550 E706.23108
G1 X83.488 Y138.486 Z0.550 E706.62611
G1 X82.828 Y138.187 Z0.550 E707.03277
G1 X82.168 Y137.833 Z0.550 E707.45297
G1 X77.550 Y135.167 Z0.550 E710.44638
G1 X76.890 Y134.813 Z0.550 E710.86659
G1 X76.230 Y134.514 Z0.550 E711.27325
G1 X75.570 Y134.269 Z0.550 E711.66827
G1 X74.910 Y134.078 Z0.550 E712.05373
G1 X74.250 Y133.942 Z0.550 E712.43186
G1 X73.591 Y133.861 Z0.550 E712.80502
G1 X72.931 Y133.833 Z0.550 E713.17568
G1 X72.271 Y133.861 Z0.550 E713.54633
G1 X71.611 Y133.942 Z0.550 E713.91949
G1 X70.951 Y134.078 Z0.550 E714.29762
G1 X70.291 Y134.269 Z0.550 E714.68308
G1 X69.632 Y134.514 Z0.550 E715.07811
G1 X68.972 Y134.813 Z0.550 E715.48477
G1 X68.312 Y135.167 Z0.550 E715.90497
G1 X63.693 Y137.833 Z0.550 E718.89838
G1 X63.033 Y138.187 Z0.550 E719.31859
G1 X62.374 Y138.486 Z0.550 E719.72525
G1 X61.714 Y138.731 Z0.550 E720.12027
G1 X61.054 Y138.922 Z0.550 E720.50573
G1 X60.394 Y139.058 Z0.550 E720.88386
G1 X59.734 Y139.139 Z0.550 E721.25702
G1 X59.074 Y139.167 Z0.550 E721.62768
G1 X58.415 Y139.139 Z0.550 E721.99833
G1 X57.755 Y139.058 Z0.550 E722.37149
G1 X57.095 Y138.922 Z0.550 E722.74962
G1 X56.435 Y138.731 Z0.550 E723.13508
G1 X55.775 Y138.486 Z0.550 E723.53011
G1 X55.115 Y138.187 Z0.550 E723.93677
G1 X54.456 Y137.833 Z0.550 E724.35697
G1 X49.837 Y135.167 Z0.550 E727.35038
G1 X49.177 Y134.813 Z0.550 E727.77059
G1 X48.517 Y134.514 Z0.550 E728.17725
G1 X47.857 Y134.269 Z0.550 E728.57227
G1 X47.197 Y134.078 Z0.550 E728.95773
G1 X46.538 Y133.942 Z0.550 E729.33586
G1 X45.878 Y133.861 Z0.550 E729.70903
G1 X45.218 Y133.833 Z0.550 E730.07968
G1 X44.558 Y133.861 Z0.550 E730.45033
G1 X43.898 Y133.942 Z0.550 E730.82349
G1 X43.238 Y134.078 Z0.550 E731.20162
G1 X42.579 Y134.269 Z0.550 E731.58708
G1 X41.919 Y134.514 Z0.550 E731.98211
G1 X41.259 Y134.813 Z0.550 E732.38877
G1 X40.599 Y135.167 Z0.550 E732.80897
G1 X35.980 Y137.833 Z0.550 E735.80239
G1 X35.321 Y138.187 Z0.550 E736.22259
G1 X34.661 Y138.486 Z0.550 E736.62925
G1 X34.001 Y138.731 Z0.550 E737.02427
G1 X33.341 Y138.922 Z0.550 E737.40973
G1 X32.681 Y139.058 Z0.550 E737.78786
G1 X32.021 Y139.139 Z0.550 E738.16103
G1 X31.362 Y139.167 Z0.550 E738.53168
G1 X30.702 Y139.139 Z0.550 E738.90233
G1 X30.042 Y139.058 Z0.550 E739.27550
G1 X29.382 Y138.922 Z0.550 E739.65362
G1 X28.722 Y138.731 Z0.550 E740.03909
G1 X28.062 Y138.486 Z0.550 E740.43411
G1 X27.403 Y138.187 Z0.550 E740.84077
G1 X26.743 Y137.833 Z0.550 E741.26097
G1 X22.124 Y135.167 Z0.550 E744.25439
G1 X21.674 Y134.920 Z0.550 E744.54257
G1 X21.246 Y134.713 Z0.550 E744.80895
G1 X20.842 Y134.547 Z0.550 E745.05431
G1 X20.461 Y134.420 Z0.550 E745.27969
G1 X20.103 Y134.333 Z0.550 E745.48641
G1 X19.768 Y134.287 Z0.550 E745.67617
G1 X19.457 Y134.280 Z0.550 E745.85119
G1 X19.168 Y134.313 Z0.550 E746.01429
G1 X18.902 Y134.387 Z0.550 E746.16893
G1 X18.660 Y134.500 Z0.550 E746.31916
G1 X18.440 Y134.653 Z0.550 E746.46939
G1 X18.244 Y134.847 Z0.550 E746.62403
G1 X18.071 Y135.080 Z0.550 E746.78713
G1 X17.921 Y135.353 Z0.550 E746.96216
G1 X17.794 Y135.667 Z0.550 E747.15192
G1 X17.690 Y136.020 Z0.550 E747.35864
G1 X17.609 Y136.413 Z0.550 E747.58401
G1 X17.551 Y136.847 Z0.550 E747.82938
G1 X17.517 Y137.320 Z0.550 E748.09575
G1 X17.505 Y137.833 Z0.550 E748.38394
G1 X17.505 Y143.167 Z0.550 E751.37735
G1 X17.529 Y143.915 Z0.550 E751.79756
G1 X17.599 Y144.636 Z0.550 E752.20422
G1 X17.717 Y145.330 Z0.550 E752.59924
G1 X17.882 Y145.997 Z0.550 E752.98470
G1 X18.094 Y146.636 Z0.550 E753.36283
G1 X18.354 Y147.248 Z0.550 E753.73599
G1 X18.660 Y147.833 Z0.550 E754.10665
G1 X19.013 Y148.391 Z0.550 E754.47730
G1 X19.414 Y148.922 Z0.550 E754.85046
G1 X19.862 Y149.425 Z0.550 E755.22859
G1 X20.357 Y149.901 Z0.550 E755.61405
G1 X20.899 Y150.350 Z0.550 E756.00908
G1 X21.488 Y150.772 Z0.550 E756.41574
G1 X22.124 Y151.167 Z0.550 E756.83594
G1 X26.743 Y153.833 Z0.550 E759.82935
G1 X27.403 Y154.187 Z0.550 E760.24956
G1 X28.062 Y154.486 Z0.550 E760.65622
G1 X28.722 Y154.731 Z0.550 E761.05124
G1 X29.382 Y154.922 Z0.550 E761.43670
G1 X30.042 Y155.058 Z0.550 E761.81483
G1 X30.702 Y155.139 Z0.550 E762.18800
G1 X31.362 Y155.167 Z0.550 E762.55865
G1 X32.021 Y155.139 Z0.550 E762.92930
G1 X32.681 Y155.058 Z0.550 E763.30246
G1 X33.341 Y154.922 Z0.550 E763.68059
G1 X34.001 Y154.731 Z0.550 E764.06605
G1 X34.661 Y154.486 Z0.550 E764.46108
G1 X35.321 Y154.187 Z0.550 E764.86774
G1 X35.980 Y153.833 Z0.550 E765.28794
G1 X40.599 Y151.167 Z0.550 E768.28136
G1 X41.259 Y150.813 Z0.550 E768.70156
G1 X41.919 Y150.514 Z0.550 E769.10822
G1 X42.579 Y150.269 Z0.550 E769.50324
G1 X43.238 Y150.078 Z0.550 E769.88870
G1 X43.898 Y149.942 Z0.550 E770.26683
G1 X44.558 Y149.861 Z0.550 E770.64000
G1 X45.218 Y149.833 Z0.550 E771.01065
G1 X45.878 Y149.861 Z0.550 E771.38130
G1 X46.538 Y149.942 Z0.550 E771.75447
G1 X47.197 Y150.078 Z0.550 E772.13259
G1 X47.857 Y150.269 Z0.550 E772.51806
G1 X48.517 Y150.514 Z0.550 E772.91308
G1 X49.177 Y150.813 Z0.550 E773.31974
G1 X49.837 Y151.167 Z0.550 E773.73994
G1 X54.456 Y153.833 Z0.550 E776.73336
G1 X55.115 Y154.187 Z0.550 E777.15356
G1 X55.775 Y154.486 Z0.550 E777.56022
G1 X56.435 Y154.731 Z0.550 E777.95524
G1 X57.095 Y154.922 Z0.550 E778.34070
G1 X57.755 Y155.058 Z0.550 E778.71883
G1 X58.415 Y155.139 Z0.550 E779.09200
G1 X59.074 Y155.167 Z0.550 E779.46265
G1 X59.734 Y155.139 Z0.550 E779.83330
G1 X60.394 Y155.058 Z0.550 E780.20647
G1 X61.054 Y154.922 Z0.550 E780.58460
G1 X61.714 Y154.731 Z0.550 E780.97006
G1 X62.374 Y154.486 Z0.550 E781.36508
G1 X63.033 Y154.187 Z0.550 E781.77174
G1 X63.693 Y153.833 Z0.550 E782.19194
G1 X68.312 Y151.167 Z0.550 E785.18536
G1 X68.972 Y150.813 Z0.550 E785.60556
G1 X69.632 Y150.514 Z0.550 E786.01222
G1 X70.291 Y150.269 Z0.550 E786.40724
G1 X70.951 Y150.078 Z0.550 E786.79271
G1 X71.611 Y149.942 Z0.550 E787.17084
G1 X72.271 Y149.861 Z0.550 E787.54400
G1 X72.931 Y149.833 Z0.550 E787.91465
G1 X73.591 Y149.861 Z0.550 E788.28530
G1 X74.250 Y149.942 Z0.550 E788.65847
G1 X74.910 Y150.078 Z0.550 E789.03660
G1 X75.570 Y150.269 Z0.550 E789.42206
G1 X76.230 Y150.514 Z0.550 E789.81708
G1 X76.890 Y150.813 Z0.550 E790.22374
G1 X77.550 Y151.167 Z0.550 E790.64395
G1 X82.168 Y153.833 Z0.550 E793.63736
G1 X82.828 Y154.187 Z0.550 E794.05756
G1 X83.488 Y154.486 Z0.550 E794.46422
G1 X84.148 Y154.731 Z0.550 E794.85925
G1 X84.808 Y154.922 Z0.550 E795.24471
G1 X85.468 Y155.058 Z0.550 E795.62284
G1 X86.127 Y155.139 Z0.550 E795.99600
G1 X86.787 Y155.167 Z0.550 E796.36665
G1 X87.447 Y155.139 Z0.550 E796.73730
G1 X88.107 Y155.058 Z0.550 E797.11047
G1 X88.767 Y154.922 Z0.550 E797.48860
G1 X89.427 Y154.731 Z0.550 E797.87406
G1 X90.086 Y154.486 Z0.550 E798.26908
G1 X90.746 Y154.187 Z0.550 E798.67574
G1 X91.406 Y153.833 Z0.550 E799.09595
G1 X96.025 Y151.167 Z0.550 E802.08936
G1 X96.685 Y150.813 Z0.550 E802.50956
G1 X97.344 Y150.514 Z0.550 E802.91622
G1 X98.004 Y150.269 Z0.550 E803.31125
G1 X98.664 Y150.078 Z0.550 E803.69671
G1 X99.324 Y149.942 Z0.550 E804.07484
G1 X99.984 Y149.861 Z0.550 E804.44800
G1 X100.644 Y149.833 Z0.550 E804.81865
G1 X101.303 Y149.861 Z0.550 E805.18931
G1 X101.963 Y149.942 Z0.550 E805.56247
G1 X102.623 Y150.078 Z0.550 E805.94060
G1 X103.283 Y150.269 Z0.550 E806.32606
G1 X103.943 Y150.514 Z0.550 E806.72108
G1 X104.603 Y150.813 Z0.550 E807.12774
G1 X105.262 Y151.167 Z0.550 E807.54795
G1 X109.881 Y153.833 Z0.550 E810.54136
G1 X110.541 Y154.187 Z0.550 E810.96156
G1 X111.201 Y154.486 Z0.550 E811.36822
G1 X111.861 Y154.731 Z0.550 E811.76325
G1 X112.521 Y154.922 Z0.550 E812.14871
G1 X113.180 Y155.058 Z0.550 E812.52684
G1 X113.840 Y155.139 Z0.550 E812.90000
G1 X114.500 Y155.167 Z0.550 E813.27065
G1 X115.160 Y155.139 Z0.550 E813.64131
G1 X115.820 Y155.058 Z0.550 E814.01447
G1 X116.479 Y154.922 Z0.550 E814.39260
G1 X117.139 Y154.731 Z0.550 E814.77806
G1 X117.799 Y154.486 Z0.550 E815.17308
G1 X118.459 Y154.187 Z0.550 E815.57974
G1 X119.119 Y153.833 Z0.550 E815.99995
G1 X123.738 Y151.167 Z0.550 E818.99336
G1 X124.397 Y150.813 Z0.550 E819.41356
G1 X125.057 Y150.514 Z0.550 E819.82022
G1 X125.717 Y150.269 Z0.550 E820.21525
G1 X126.377 Y150.078 Z0.550 E820.60071
G1 X127.037 Y149.942 Z0.550 E820.97884
G1 X127.697 Y149.861 Z0.550 E821.35200
G1 X128.356 Y149.833 Z0.550 E821.72265
G1 X129.016 Y149.861 Z0.550 E822.09331
G1 X129.676 Y149.942 Z0.550 E822.46647
G1 X130.336 Y150.078 Z0.550 E822.84460
G1 X130.996 Y150.269 Z0.550 E823.23006
G1 X131.656 Y150.514 Z0.550 E823.62508
G1 X132.315 Y150.813 Z0.550 E824.03175
G1 X132.975 Y151.167 Z0.550 E824.45195
G1 X137.594 Y153.833 Z0.550 E827.44536
G1 X138.254 Y154.187 Z0.550 E827.86556
G1 X138.914 Y154.486 Z0.550 E828.27222
G1 X139.573 Y154.731 Z0.550 E828.66725
G1 X140.233 Y154.922 Z0.550 E829.05271
G1 X140.893 Y155.058 Z0.550 E829.43084
G1 X141.553 Y155.139 Z0.550 E829.80400
G1 X142.213 Y155.167 Z0.550 E830.17465
G1 X142.873 Y155.139 Z0.550 E830.54531
G1 X143.532 Y155.058 Z0.550 E830.91847
G1 X144.192 Y154.922 Z0.550 E831.29660
G1 X144.852 Y154.731 Z0.550 E831.68206
G1 X145.512 Y154.486 Z0.550 E832.07708
G1 X146.172 Y154.187 Z0.550 E832.48375
G1 X146.832 Y153.833 Z0.550 E832.90395
G1 X151.450 Y151.167 Z0.550 E835.89736
G1 X152.110 Y150.813 Z0.550 E836.31756
G1 X152.770 Y150.514 Z0.550 E836.72422
G1 X153.430 Y150.269 Z0.550 E837.11925
G1 X154.090 Y150.078 Z0.550 E837.50471
G1 X154.750 Y149.942 Z0.550 E837.88284
G1 X155.409 Y149.861 Z0.550 E838.25600
G1 X156.069 Y149.833 Z0.550 E838.62666
G1 X156.729 Y149.861 Z0.550 E838.99731
G1 X157.389 Y149.942 Z0.550 E839.37047
G1 X158.049 Y150.078 Z0.550 E839.74860
G1 X158.709 Y150.269 Z0.550 E840.13406
G1 X159.368 Y150.514 Z0.550 E840.52909
G1 X160.028 Y150.813 Z0.550 E840.93575
G1 X160.688 Y151.167 Z0.550 E841.35595
G1 X165.307 Y153.833 Z0.550 E844.34936
G1 X165.967 Y154.187 Z0.550 E844.76956
G1 X166.626 Y154.486 Z0.550 E845.17623
G1 X167.286 Y154.731 Z0.550 E845.57125
G1 X167.946 Y154.922 Z0.550 E845.95671
G1 X168.606 Y155.058 Z0.550 E846.33484
G1 X169.266 Y155.139 Z0.550 E846.70800
G1 X169.926 Y155.167 Z0.550 E847.07866
G1 X170.585 Y155.139 Z0.550 E847.44931
G1 X171.245 Y155.058 Z0.550 E847.82247
G1 X171.905 Y154.922 Z0.550 E848.20060
G1 X172.565 Y154.731 Z0.550 E848.58606
G1 X173.225 Y154.486 Z0.550 E848.98109
G1 X173.885 Y154.187 Z0.550 E849.38775
G1 X174.544 Y153.833 Z0.550 E849.80795
G1 X179.163 Y151.167 Z0.550 E852.80136
G1 X179.823 Y150.813 Z0.550 E853.22156
G1 X180.483 Y150.514 Z0.550 E853.62823
G1 X181.143 Y150.269 Z0.550 E854.02325
G1 X181.803 Y150.078 Z0.550 E854.40871
G1 X182.462 Y149.942 Z0.550 E854.78684
G1 X183.122 Y149.861 Z0.550 E855.16000
G1 X183.782 Y149.833 Z0.550 E855.53066
G1 X184.442 Y149.861 Z0.550 E855.90131
G1 X185.102 Y149.942 Z0.550 E856.27447
G1 X185.762 Y150.078 Z0.550 E856.65260
G1 X186.421 Y150.269 Z0.550 E857.03806
G1 X187.081 Y150.514 Z0.550 E857.43309
G1 X187.741 Y150.813 Z0.550 E857.83975
G1 X188.401 Y151.167 Z0.550 E858.25995
G1 X193.020 Y153.833 Z0.550 E861.25336
G1 X193.679 Y154.187 Z0.550 E861.67357
G1 X194.339 Y154.486 Z0.550 E862.08023
G1 X194.999 Y154.731 Z0.550 E862.47525
G1 X195.659 Y154.922 Z0.550 E862.86071
G1 X196.319 Y155.058 Z0.550 E863.23884
G1 X196.979 Y155.139 Z0.550 E863.61200
G1 X197.638 Y155.167 Z0.550 E863.98266
G1 X198.298 Y155.139 Z0.550 E864.35331
G1 X198.958 Y155.058 Z0.550 E864.72647
G1 X199.618 Y154.922 Z0.550 E865.10460
G1 X200.278 Y154.731 Z0.550 E865.49006
G1 X200.938 Y154.486 Z0.550 E865.88509
G1 X201.597 Y154.187 Z0.550 E866.29175
G1 X202.257 Y153.833 Z0.550 E866.71195
G1 X206.876 Y151.167 Z0.550 E869.70536
G1 X207.305 Y150.931 Z0.550 E869.98033
G1 X207.714 Y150.731 Z0.550 E870.23548
G1 X208.101 Y150.568 Z0.550 E870.47150
G1 X208.468 Y150.441 Z0.550 E870.68924
G1 X208.814 Y150.350 Z0.550 E870.88979
G1 X209.138 Y150.296 Z0.550 E871.07457
G1 X209.442 Y150.278 Z0.550 E871.24534
G1 X209.725 Y150.296 Z0.550 E871.40439
G1 X209.987 Y150.350 Z0.550 E871.55449
G1 X210.228 Y150.441 Z0.550 E871.69896
G1 X210.447 Y150.568 Z0.550 E871.84150
G1 X210.646 Y150.731 Z0.550 E871.98597
G1 X210.825 Y150.931 Z0.550 E872.13607
G1 X210.982 Y151.167 Z0.550 E872.29511
G1 X211.118 Y151.439 Z0.550 E872.46589
G1 X211.233 Y151.747 Z0.550 E872.65066
G1 X211.327 Y152.092 Z0.550 E872.85122
G1 X211.401 Y152.473 Z0.550 E873.06896
G1 X211.453 Y152.890 Z0.550 E873.30497
G1 X211.484 Y153.344 Z0.550 E873.56012
G1 X211.495 Y153.833 Z0.550 E873.83509
G1 X211.495 Y159.167 Z0.550 E876.82851
G1 X211.471 Y159.915 Z0.550 E877.24871
G1 X211.401 Y160.636 Z0.550 E877.65537
G1 X211.283 Y161.330 Z0.550 E878.05039
G1 X211.118 Y161.997 Z0.550 E878.43585
G1 X210.906 Y162.636 Z0.550 E878.81398
G1 X210.646 Y163.248 Z0.550 E879.18715
G1 X210.340 Y163.833 Z0.550 E879.55780
G1 X209.987 Y164.391 Z0.550 E879.92845
G1 X209.586 Y164.922 Z0.550 E880.30162
G1 X209.138 Y165.425 Z0.550 E880.67974
G1 X208.643 Y165.901 Z0.550 E881.06521
G1 X208.101 Y166.350 Z0.550 E881.46023
G1 X207.512 Y166.772 Z0.550 E881.86689
G1 X206.876 Y167.167 Z0.550 E882.28709
G1 X202.257 Y169.833 Z0.550 E885.28051
G1 X201.597 Y170.187 Z0.550 E885.70071
G1 X200.938 Y170.486 Z0.550 E886.10737
G1 X200.278 Y170.731 Z0.550 E886.50239
G1 X199.618 Y170.922 Z0.550 E886.88785
G1 X198.958 Y171.058 Z0.550 E887.26598
G1 X198.298 Y171.139 Z0.550 E887.63915
G1 X197.638 Y171.167 Z0.550 E888.00980
G1 X196.979 Y171.139 Z0.550 E888.38045
G1 X196.319 Y171.058 Z0.550 E888.75362
G1 X195.659 Y170.922 Z0.550 E889.13175
G1 X194.999 Y170.731 Z0.550 E889.51721
G1 X194.339 Y170.486 Z0.550 E889.91223
G1 X193.679 Y170.187 Z0.550 E890.31889
G1 X193.020 Y169.833 Z0.550 E890.73909
G1 X188.401 Y167.167 Z0.550 E893.73251
G1 X187.741 Y166.813 Z0.550 E894.15271
G1 X187.081 Y166.514 Z0.550 E894.55937
G1 X186.421 Y166.269 Z0.550 E894.95439
G1 X185.762 Y166.078 Z0.550 E895.33986
G1 X185.102 Y165.942 Z0.550 E895.71799
G1 X184.442 Y165.861 Z0.550 E896.09115
G1 X183.782 Y165.833 Z0.550 E896.46180
G1 X183.122 Y165.861 Z0.550 E896.83245
G1 X182.462 Y165.942 Z0.550 E897.20562
G1 X181.803 Y166.078 Z0.550 E897.58375
G1 X181.143 Y166.269 Z0.550 E897.96921
G1 X180.483 Y166.514 Z0.550 E898.36423
G1 X179.823 Y166.813 Z0.550 E898.77089
G1 X179.163 Y167.167 Z0.550 E899.19110
G1 X174.544 Y169.833 Z0.550 E902.18451
G1 X173.885 Y170.187 Z0.550 E902.60471
G1 X173.225 Y170.486 Z0.550 E903.01137
G1 X172.565 Y170.731 Z0.550 E903.40640
G1 X171.905 Y170.922 Z0.550 E903.79186
G1 X171.245 Y171.058 Z0.550 E904.16999
G1 X170.585 Y171.139 Z0.550 E904.54315
G1 X169.926 Y171.167 Z0.550 E904.91380
G1 X169.266 Y171.139 Z0.550 E905.28446
G1 X168.606 Y171.058 Z0.550 E905.65762
G1 X167.946 Y170.922 Z0.550 E906.03575
G1 X167.286 Y170.731 Z0.550 E906.42121
G1 X166.626 Y170.486 Z0.550 E906.81623
G1 X165.967 Y170.187 Z0.550 E907.22289
G1 X165.307 Y169.833 Z0.550 E907.64310
G1 X160.688 Y167.167 Z0.550 E910.63651
G1 X160.028 Y166.813 Z0.550 E911.05671
G1 X159.368 Y166.514 Z0.550 E911.46337
G1 X158.709 Y166.269 Z0.550 E911.85840
G1 X158.049 Y166.078 Z0.550 E912.24386
G1 X157.389 Y165.942 Z0.550 E912.62199
G1 X156.729 Y165.861 Z0.550 E912.99515
G1 X156.069 Y165.833 Z0.550 E913.36580
G1 X155.409 Y165.861 Z0.550 E913.73646
G1 X154.750 Y165.942 Z0.550 E914.10962
G1 X154.090 Y166.078 Z0.550 E914.48775
G1 X153.430 Y166.269 Z0.550 E914.87321
G1 X152.770 Y166.514 Z0.550 E915.26823
G1 X152.110 Y166.813 Z0.550 E915.67489
G1 X151.450 Y167.167 Z0.550 E916.09510
G1 X146.832 Y169.833 Z0.550 E919.08851
G1 X146.172 Y170.187 Z0.550 E919.50871
G1 X145.512 Y170.486 Z0.550 E919.91537
G1 X144.852 Y170.731 Z0.550 E920.31040
G1 X144.192 Y170.922 Z0.550 E920.69586
G1 X143.532 Y171.058 Z0.550 E921.07399
G1 X142.873 Y171.139 Z0.550 E921.44715
G1 X142.213 Y171.167 Z0.550 E921.81780
G1 X141.553 Y171.139 Z0.550 E922.18846
G1 X140.893 Y171.058 Z0.550 E922.56162
G1 X140.233 Y170.922 Z0.550 E922.93975
G1 X139.573 Y170.731 Z0.550 E923.32521
G1 X138.914 Y170.486 Z0.550 E923.72023
G1 X138.254 Y170.187 Z0.550 E924.12689
G1 X137.594 Y169.833 Z0.550 E924.54710
G1 X132.975 Y167.167 Z0.550 E927.54051
G1 X132.315 Y166.813 Z0.550 E927.96071
G1 X131.656 Y166.514 Z0.550 E928.36737
G1 X130.996 Y166.269 Z0.550 E928.76240
G1 X130.336 Y166.078 Z0.550 E929.14786
G1 X129.676 Y165.942 Z0.550 E929.52599
G1 X129.016 Y165.861 Z0.550 E929.89915
G1 X128.356 Y165.833 Z0.550 E930.26980
G1 X127.697 Y165.861 Z0.550 E930.64046
G1 X127.037 Y165.942 Z0.550 E931.01362
G1 X126.377 Y166.078 Z0.550 E931.39175
G1 X125.717 Y166.269 Z0.550 E931.77721
G1 X125.057 Y166.514 Z0.550 E932.17223
G1 X124.397 Y166.813 Z0.550 E932.57890
G1 X123.738 Y167.167 Z0.550 E932.99910
G1 X119.119 Y169.833 Z0.550 E935.99251
G1 X118.459 Y170.187 Z0.550 E936.41271
G1 X117.799 Y170.486 Z0.550 E936.81937
G1 X117.139 Y170.731 Z0.550 E937.21440
G1 X116.479 Y170.922 Z0.550 E937.59986
G1 X115.820 Y171.058 Z0.550 E937.97799
G1 X115.160 Y171.139 Z0.550 E938.35115
G1 X114.500 Y171.167 Z0.550 E938.72180
G1 X113.840 Y171.139 Z0.550 E939.09246
G1 X113.180 Y171.058 Z0.550 E939.46562
G1 X112.521 Y170.922 Z0.550 E939.84375
G1 X111.861 Y170.731 Z0.550 E940.22921
G1 X111.201 Y170.486 Z0.550 E940.62423
G1 X110.541 Y170.187 Z0.550 E941.03090
G1 X109.881 Y169.833 Z0.550 E941.45110
G1 X105.262 Y167.167 Z0.550 E944.44451
G1 X104.603 Y166.813 Z0.550 E944.86471
G1 X103.943 Y166.514 Z0.550 E945.27138
G1 X103.283 Y166.269 Z0.550 E945.66640
G1 X102.623 Y166.078 Z0.550 E946.05186
G1 X101.963 Y165.942 Z0.550 E946.42999
G1 X101.303 Y165.861 Z0.550 E946.80315
G1 X100.644 Y165.833 Z0.550 E947.17381
G1 X99.984 Y165.861 Z0.550 E947.54446
G1 X99.324 Y165.942 Z0.550 E947.91762
G1 X98.664 Y166.078 Z0.550 E948.29575
G1 X98.004 Y166.269 Z0.550 E948.68121
G1 X97.344 Y166.514 Z0.550 E949.07624
G1 X96.685 Y166.813 Z0.550 E949.48290
G1 X96.025 Y167.167 Z0.550 E949.90310
G1 X91.406 Y169.833 Z0.550 E952.89651
G1 X90.746 Y170.187 Z0.550 E953.31671
G1 X90.086 Y170.486 Z0.550 E953.72338
G1 X89.427 Y170.731 Z0.550 E954.11840
G1 X88.767 Y170.922 Z0.550 E954.50386
G1 X88.107 Y171.058 Z0.550 E954.88199
G1 X87.447 Y171.139 Z0.550 E955.25515
G1 X86.787 Y171.167 Z0.550 E955.62581
G1 X86.127 Y171.139 Z0.550 E955.99646
G1 X85.468 Y171.058 Z0.550 E956.36962
G1 X84.808 Y170.922 Z0.550 E956.74775
G1 X84.148 Y170.731 Z0.550 E957.13321
G1 X83.488 Y170.486 Z0.550 E957.52824
G1 X82.828 Y170.187 Z0.550 E957.93490
G1 X82.168 Y169.833 Z0.550 E958.35510
G1 X77.550 Y167.167 Z0.550 E961.34851
G1 X76.890 Y166.813 Z0.550 E961.76871
G1 X76.230 Y166.514 Z0.550 E962.17538
G1 X75.570 Y166.269 Z0.550 E962.57040
G1 X74.910 Y166.078 Z0.550 E962.95586
G1 X74.250 Y165.942 Z0.550 E963.33399
G1 X73.591 Y165.861 Z0.550 E963.70715
G1 X72.931 Y165.833 Z0.550 E964.07781
G1 X72.271 Y165.861 Z0.550 E964.44846
G1 X71.611 Y165.942 Z0.550 E964.82162
G1 X70.951 Y166.078 Z0.550 E965.19975
G1 X70.291 Y166.269 Z0.550 E965.58521
G1 X69.632 Y166.514 Z0.550 E965.98024
G1 X68.972 Y166.813 Z0.550 E966.38690
G1 X68.312 Y167.167 Z0.550 E966.80710
G1 X63.693 Y169.833 Z0.550 E969.80051
G1 X63.033 Y170.187 Z0.550 E970.22072
G1 X62.374 Y170.486 Z0.550 E970.62738
G1 X61.714 Y170.731 Z0.550 E971.02240
G1 X61.054 Y170.922 Z0.550 E971.40786
G1 X60.394 Y171.058 Z0.550 E971.78599
G1 X59.734 Y171.139 Z0.550 E972.15915
G1 X59.074 Y171.167 Z0.550 E972.52981
G1 X58.415 Y171.139 Z0.550 E972.90046
G1 X57.755 Y171.058 Z0.550 E973.27362
G1 X57.095 Y170.922 Z0.550 E973.65175
G1 X56.435 Y170.731 Z0.550 E974.03721
G1 X55.775 Y170.486 Z0.550 E974.43224
G1 X55.115 Y170.187 Z0.550 E974.83890
G1 X54.456 Y169.833 Z0.550 E975.25910
G1 X49.837 Y167.167 Z0.550 E978.25251
G1 X49.177 Y166.813 Z0.550 E978.67272
G1 X48.517 Y166.514 Z0.550 E979.07938
G1 X47.857 Y166.269 Z0.550 E979.47440
G1 X47.197 Y166.078 Z0.550 E979.85986
G1 X46.538 Y165.942 Z0.550 E980.23799
G1 X45.878 Y165.861 Z0.550 E980.61115
G1 X45.218 Y165.833 Z0.550 E980.98181
G1 X44.558 Y165.861 Z0.550 E981.35246
G1 X43.898 Y165.942 Z0.550 E981.72562
G1 X43.238 Y166.078 Z0.550 E982.10375
G1 X42.579 Y166.269 Z0.550 E982.48921
G1 X41.919 Y166.514 Z0.550 E982.88424
G1 X41.259 Y166.813 Z0.550 E983.29090
G1 X40.599 Y167.167 Z0.550 E983.71110
G1 X35.980 Y169.833 Z0.550 E986.70451
G1 X35.321 Y170.187 Z0.550 E987.12472
G1 X34.661 Y170.486 Z0.550 E987.53138
G1 X34.001 Y170.731 Z0.550 E987.92640
G1 X33.341 Y170.922 Z0.550 E988.31186
G1 X32.681 Y171.058 Z0.550 E988.68999
G1 X32.021 Y171.139 Z0.550 E989.06316
G1 X31.362 Y171.167 Z0.550 E989.43381
G1 X30.702 Y171.139 Z0.550 E989.80446
G1 X30.042 Y171.058 Z0.550 E990.17762
G1 X29.382 Y170.922 Z0.550 E990.55575
G1 X28.722 Y170.731 Z0.550 E990.94121
G1 X28.062 Y170.486 Z0.550 E991.33624
G1 X27.403 Y170.187 Z0.550 E991.74290
G1 X26.743 Y169.833 Z0.550 E992.16310
G1 X22.124 Y167.167 Z0.550 E995.15652
G1 X21.488 Y166.772 Z0.550 E995.57672
G1 X20.899 Y166.350 Z0.550 E995.98338
G1 X20.357 Y165.901 Z0.550 E996.37840
G1 X19.862 Y165.425 Z0.550 E996.76386
G1 X19.414 Y164.922 Z0.550 E997.14199
G1 X19.013 Y164.391 Z0.550 E997.51516
G1 X18.660 Y163.833 Z0.550 E997.88581
G1 X18.354 Y163.248 Z0.550 E998.25646
G1 X18.094 Y162.636 Z0.550 E998.62962
G1 X17.882 Y161.997 Z0.550 E999.00775
G1 X17.717 Y161.330 Z0.550 E999.39322
G1 X17.599 Y160.636 Z0.550 E999.78824
G1 X17.529 Y159.915 Z0.550 E1000.19490
G1 X17.505 Y159.167 Z0.550 E1000.61510
G1 X17.505 Y57.833 Z0.550 E1057.48993
M107
M104 S0
M140 S0
G1 Z40.5 F900
G0 X10 Y215 F9000
