; WAVES — rippled ribbons to shape by hand, 8x12 of 12.0mm
; bead 1.5x0.9 = 1.35mm2 at 41 mm/s -> flow=55.0 mm3/s
; 166 x 138mm on a 229x225 bed, pressed to 0.55mm
; HEADER_BLOCK_START
; total layer number: 1
; HEADER_BLOCK_END
M140 S95
M104 S210
G90
; NO HOME — assumes the machine is ALREADY homed; push.py verifies and homes if not
M190 S95
M109 S210
M204 S8000
M107
M82
G92 E0
G1 Z0.550 F600
G0 F9000 X6.000 Y35.500
G1 E25 F300                      ; stationary purge — pressure before motion
G1 F1200 X31.362 Y47.500 E37   ; prime ends where the comb begins
G92 E0
; BODY_START
G1 F2444 X31.370 Y47.115 Z0.550 E0.21614
G1 X31.396 Y46.760 Z0.550 E0.41592
G1 X31.440 Y46.435 Z0.550 E0.59995
G1 X31.500 Y46.140 Z0.550 E0.76898
G1 X31.578 Y45.875 Z0.550 E0.92401
G1 X31.673 Y45.640 Z0.550 E1.06634
G1 X31.786 Y45.435 Z0.550 E1.19761
G1 X31.916 Y45.260 Z0.550 E1.31993
G1 X32.063 Y45.115 Z0.550 E1.43591
G1 X32.228 Y45.000 Z0.550 E1.54858
G1 X32.409 Y44.915 Z0.550 E1.66126
G1 X32.609 Y44.860 Z0.550 E1.77724
G1 X32.825 Y44.835 Z0.550 E1.89956
G1 X33.059 Y44.840 Z0.550 E2.03083
G1 X33.310 Y44.875 Z0.550 E2.17315
G1 X33.579 Y44.940 Z0.550 E2.32819
G1 X33.864 Y45.035 Z0.550 E2.49722
G1 X34.167 Y45.160 Z0.550 E2.68124
G1 X34.488 Y45.315 Z0.550 E2.88102
G1 X34.826 Y45.500 Z0.550 E3.09717
G1 X38.290 Y47.500 Z0.550 E5.34223
G1 X38.983 Y47.860 Z0.550 E5.78044
G1 X39.675 Y48.140 Z0.550 E6.19986
G1 X40.368 Y48.340 Z0.550 E6.60459
G1 X41.061 Y48.460 Z0.550 E6.99923
G1 X41.754 Y48.500 Z0.550 E7.38874
G1 X42.447 Y48.460 Z0.550 E7.77824
G1 X43.140 Y48.340 Z0.550 E8.17289
G1 X43.832 Y48.140 Z0.550 E8.57762
G1 X44.525 Y47.860 Z0.550 E8.99703
G1 X45.218 Y47.500 Z0.550 E9.43525
G1 X48.682 Y45.500 Z0.550 E11.68031
G1 X49.375 Y45.140 Z0.550 E12.11853
G1 X50.068 Y44.860 Z0.550 E12.53794
G1 X50.761 Y44.660 Z0.550 E12.94267
G1 X51.453 Y44.540 Z0.550 E13.33732
G1 X52.146 Y44.500 Z0.550 E13.72682
G1 X52.839 Y44.540 Z0.550 E14.11632
G1 X53.532 Y44.660 Z0.550 E14.51097
G1 X54.225 Y44.860 Z0.550 E14.91570
G1 X54.917 Y45.140 Z0.550 E15.33512
G1 X55.610 Y45.500 Z0.550 E15.77333
G1 X59.074 Y47.500 Z0.550 E18.01839
G1 X59.767 Y47.860 Z0.550 E18.45661
G1 X60.460 Y48.140 Z0.550 E18.87602
G1 X61.153 Y48.340 Z0.550 E19.28076
G1 X61.846 Y48.460 Z0.550 E19.67540
G1 X62.538 Y48.500 Z0.550 E20.06490
G1 X63.231 Y48.460 Z0.550 E20.45441
G1 X63.924 Y48.340 Z0.550 E20.84905
G1 X64.617 Y48.140 Z0.550 E21.25379
G1 X65.310 Y47.860 Z0.550 E21.67320
G1 X66.003 Y47.500 Z0.550 E22.11142
G1 X69.467 Y45.500 Z0.550 E24.35648
G1 X70.159 Y45.140 Z0.550 E24.79469
G1 X70.852 Y44.860 Z0.550 E25.21411
G1 X71.545 Y44.660 Z0.550 E25.61884
G1 X72.238 Y44.540 Z0.550 E26.01348
G1 X72.931 Y44.500 Z0.550 E26.40299
G1 X73.624 Y44.540 Z0.550 E26.79249
G1 X74.316 Y44.660 Z0.550 E27.18714
G1 X75.009 Y44.860 Z0.550 E27.59187
G1 X75.702 Y45.140 Z0.550 E28.01128
G1 X76.395 Y45.500 Z0.550 E28.44950
G1 X79.859 Y47.500 Z0.550 E30.69456
G1 X80.552 Y47.860 Z0.550 E31.13278
G1 X81.245 Y48.140 Z0.550 E31.55219
G1 X81.937 Y48.340 Z0.550 E31.95692
G1 X82.630 Y48.460 Z0.550 E32.35157
G1 X83.323 Y48.500 Z0.550 E32.74107
G1 X84.016 Y48.460 Z0.550 E33.13057
G1 X84.709 Y48.340 Z0.550 E33.52522
G1 X85.402 Y48.140 Z0.550 E33.92995
G1 X86.094 Y47.860 Z0.550 E34.34936
G1 X86.787 Y47.500 Z0.550 E34.78758
G1 X90.251 Y45.500 Z0.550 E37.03264
G1 X90.944 Y45.140 Z0.550 E37.47086
G1 X91.637 Y44.860 Z0.550 E37.89027
G1 X92.330 Y44.660 Z0.550 E38.29501
G1 X93.023 Y44.540 Z0.550 E38.68965
G1 X93.715 Y44.500 Z0.550 E39.07915
G1 X94.408 Y44.540 Z0.550 E39.46866
G1 X95.101 Y44.660 Z0.550 E39.86330
G1 X95.794 Y44.860 Z0.550 E40.26804
G1 X96.487 Y45.140 Z0.550 E40.68745
G1 X97.179 Y45.500 Z0.550 E41.12567
G1 X100.644 Y47.500 Z0.550 E43.37073
G1 X101.336 Y47.860 Z0.550 E43.80894
G1 X102.029 Y48.140 Z0.550 E44.22836
G1 X102.722 Y48.340 Z0.550 E44.63309
G1 X103.415 Y48.460 Z0.550 E45.02773
G1 X104.108 Y48.500 Z0.550 E45.41724
G1 X104.801 Y48.460 Z0.550 E45.80674
G1 X105.493 Y48.340 Z0.550 E46.20139
G1 X106.186 Y48.140 Z0.550 E46.60612
G1 X106.879 Y47.860 Z0.550 E47.02553
G1 X107.572 Y47.500 Z0.550 E47.46375
G1 X111.036 Y45.500 Z0.550 E49.70881
G1 X111.729 Y45.140 Z0.550 E50.14703
G1 X112.422 Y44.860 Z0.550 E50.56644
G1 X113.114 Y44.660 Z0.550 E50.97117
G1 X113.807 Y44.540 Z0.550 E51.36582
G1 X114.500 Y44.500 Z0.550 E51.75532
G1 X115.193 Y44.540 Z0.550 E52.14482
G1 X115.886 Y44.660 Z0.550 E52.53947
G1 X116.578 Y44.860 Z0.550 E52.94420
G1 X117.271 Y45.140 Z0.550 E53.36361
G1 X117.964 Y45.500 Z0.550 E53.80183
G1 X121.428 Y47.500 Z0.550 E56.04689
G1 X122.121 Y47.860 Z0.550 E56.48511
G1 X122.814 Y48.140 Z0.550 E56.90452
G1 X123.507 Y48.340 Z0.550 E57.30926
G1 X124.199 Y48.460 Z0.550 E57.70390
G1 X124.892 Y48.500 Z0.550 E58.09340
G1 X125.585 Y48.460 Z0.550 E58.48291
G1 X126.278 Y48.340 Z0.550 E58.87755
G1 X126.971 Y48.140 Z0.550 E59.28229
G1 X127.664 Y47.860 Z0.550 E59.70170
G1 X128.356 Y47.500 Z0.550 E60.13992
G1 X131.821 Y45.500 Z0.550 E62.38498
G1 X132.513 Y45.140 Z0.550 E62.82319
G1 X133.206 Y44.860 Z0.550 E63.24260
G1 X133.899 Y44.660 Z0.550 E63.64734
G1 X134.592 Y44.540 Z0.550 E64.04198
G1 X135.285 Y44.500 Z0.550 E64.43149
G1 X135.977 Y44.540 Z0.550 E64.82099
G1 X136.670 Y44.660 Z0.550 E65.21564
G1 X137.363 Y44.860 Z0.550 E65.62037
G1 X138.056 Y45.140 Z0.550 E66.03978
G1 X138.749 Y45.500 Z0.550 E66.47800
G1 X142.213 Y47.500 Z0.550 E68.72306
G1 X142.906 Y47.860 Z0.550 E69.16128
G1 X143.598 Y48.140 Z0.550 E69.58069
G1 X144.291 Y48.340 Z0.550 E69.98542
G1 X144.984 Y48.460 Z0.550 E70.38007
G1 X145.677 Y48.500 Z0.550 E70.76957
G1 X146.370 Y48.460 Z0.550 E71.15907
G1 X147.063 Y48.340 Z0.550 E71.55372
G1 X147.755 Y48.140 Z0.550 E71.95845
G1 X148.448 Y47.860 Z0.550 E72.37786
G1 X149.141 Y47.500 Z0.550 E72.81608
G1 X152.605 Y45.500 Z0.550 E75.06114
G1 X153.298 Y45.140 Z0.550 E75.49936
G1 X153.991 Y44.860 Z0.550 E75.91877
G1 X154.684 Y44.660 Z0.550 E76.32351
G1 X155.376 Y44.540 Z0.550 E76.71815
G1 X156.069 Y44.500 Z0.550 E77.10765
G1 X156.762 Y44.540 Z0.550 E77.49716
G1 X157.455 Y44.660 Z0.550 E77.89180
G1 X158.148 Y44.860 Z0.550 E78.29654
G1 X158.841 Y45.140 Z0.550 E78.71595
G1 X159.533 Y45.500 Z0.550 E79.15417
G1 X162.997 Y47.500 Z0.550 E81.39922
G1 X163.690 Y47.860 Z0.550 E81.83744
G1 X164.383 Y48.140 Z0.550 E82.25685
G1 X165.076 Y48.340 Z0.550 E82.66159
G1 X165.769 Y48.460 Z0.550 E83.05623
G1 X166.462 Y48.500 Z0.550 E83.44574
G1 X167.154 Y48.460 Z0.550 E83.83524
G1 X167.847 Y48.340 Z0.550 E84.22989
G1 X168.540 Y48.140 Z0.550 E84.63462
G1 X169.233 Y47.860 Z0.550 E85.05403
G1 X169.926 Y47.500 Z0.550 E85.49225
G1 X173.390 Y45.500 Z0.550 E87.73731
G1 X174.083 Y45.140 Z0.550 E88.17553
G1 X174.775 Y44.860 Z0.550 E88.59494
G1 X175.468 Y44.660 Z0.550 E88.99967
G1 X176.161 Y44.540 Z0.550 E89.39432
G1 X176.854 Y44.500 Z0.550 E89.78382
G1 X177.547 Y44.540 Z0.550 E90.17332
G1 X178.239 Y44.660 Z0.550 E90.56797
G1 X178.932 Y44.860 Z0.550 E90.97270
G1 X179.625 Y45.140 Z0.550 E91.39211
G1 X180.318 Y45.500 Z0.550 E91.83033
G1 X183.782 Y47.500 Z0.550 E94.07539
G1 X184.475 Y47.860 Z0.550 E94.51361
G1 X185.168 Y48.140 Z0.550 E94.93302
G1 X185.860 Y48.340 Z0.550 E95.33775
G1 X186.553 Y48.460 Z0.550 E95.73240
G1 X187.246 Y48.500 Z0.550 E96.12190
G1 X187.939 Y48.460 Z0.550 E96.51141
G1 X188.632 Y48.340 Z0.550 E96.90605
G1 X189.325 Y48.140 Z0.550 E97.31079
G1 X190.017 Y47.860 Z0.550 E97.73020
G1 X190.710 Y47.500 Z0.550 E98.16842
G1 X194.174 Y45.500 Z0.550 E100.41347
G1 X194.512 Y45.315 Z0.550 E100.62962
G1 X194.833 Y45.160 Z0.550 E100.82940
G1 X195.136 Y45.035 Z0.550 E101.01342
G1 X195.421 Y44.940 Z0.550 E101.18245
G1 X195.690 Y44.875 Z0.550 E101.33749
G1 X195.941 Y44.840 Z0.550 E101.47981
G1 X196.175 Y44.835 Z0.550 E101.61108
G1 X196.391 Y44.860 Z0.550 E101.73341
G1 X196.591 Y44.915 Z0.550 E101.84938
G1 X196.772 Y45.000 Z0.550 E101.96206
G1 X196.937 Y45.115 Z0.550 E102.07473
G1 X197.084 Y45.260 Z0.550 E102.19071
G1 X197.214 Y45.435 Z0.550 E102.31304
G1 X197.327 Y45.640 Z0.550 E102.44430
G1 X197.422 Y45.875 Z0.550 E102.58663
G1 X197.500 Y46.140 Z0.550 E102.74166
G1 X197.560 Y46.435 Z0.550 E102.91069
G1 X197.604 Y46.760 Z0.550 E103.09472
G1 X197.630 Y47.115 Z0.550 E103.29450
G1 X197.638 Y47.500 Z0.550 E103.51064
G1 X197.638 Y51.500 Z0.550 E105.75570
G1 X197.604 Y52.280 Z0.550 E106.19392
G1 X197.500 Y53.020 Z0.550 E106.61333
G1 X197.327 Y53.720 Z0.550 E107.01806
G1 X197.084 Y54.380 Z0.550 E107.41271
G1 X196.772 Y55.000 Z0.550 E107.80221
G1 X196.391 Y55.580 Z0.550 E108.19172
G1 X195.941 Y56.120 Z0.550 E108.58636
G1 X195.421 Y56.620 Z0.550 E108.99109
G1 X194.833 Y57.080 Z0.550 E109.41051
G1 X194.174 Y57.500 Z0.550 E109.84872
G1 X190.710 Y59.500 Z0.550 E112.09378
G1 X190.017 Y59.860 Z0.550 E112.53200
G1 X189.325 Y60.140 Z0.550 E112.95141
G1 X188.632 Y60.340 Z0.550 E113.35615
G1 X187.939 Y60.460 Z0.550 E113.75079
G1 X187.246 Y60.500 Z0.550 E114.14030
G1 X186.553 Y60.460 Z0.550 E114.52980
G1 X185.860 Y60.340 Z0.550 E114.92444
G1 X185.168 Y60.140 Z0.550 E115.32918
G1 X184.475 Y59.860 Z0.550 E115.74859
G1 X183.782 Y59.500 Z0.550 E116.18681
G1 X180.318 Y57.500 Z0.550 E118.43187
G1 X179.625 Y57.140 Z0.550 E118.87009
G1 X178.932 Y56.860 Z0.550 E119.28950
G1 X178.239 Y56.660 Z0.550 E119.69423
G1 X177.547 Y56.540 Z0.550 E120.08888
G1 X176.854 Y56.500 Z0.550 E120.47838
G1 X176.161 Y56.540 Z0.550 E120.86788
G1 X175.468 Y56.660 Z0.550 E121.26253
G1 X174.775 Y56.860 Z0.550 E121.66726
G1 X174.083 Y57.140 Z0.550 E122.08667
G1 X173.390 Y57.500 Z0.550 E122.52489
G1 X169.926 Y59.500 Z0.550 E124.76995
G1 X169.233 Y59.860 Z0.550 E125.20817
G1 X168.540 Y60.140 Z0.550 E125.62758
G1 X167.847 Y60.340 Z0.550 E126.03231
G1 X167.154 Y60.460 Z0.550 E126.42696
G1 X166.462 Y60.500 Z0.550 E126.81646
G1 X165.769 Y60.460 Z0.550 E127.20597
G1 X165.076 Y60.340 Z0.550 E127.60061
G1 X164.383 Y60.140 Z0.550 E128.00534
G1 X163.690 Y59.860 Z0.550 E128.42476
G1 X162.997 Y59.500 Z0.550 E128.86297
G1 X159.533 Y57.500 Z0.550 E131.10803
G1 X158.841 Y57.140 Z0.550 E131.54625
G1 X158.148 Y56.860 Z0.550 E131.96566
G1 X157.455 Y56.660 Z0.550 E132.37040
G1 X156.762 Y56.540 Z0.550 E132.76504
G1 X156.069 Y56.500 Z0.550 E133.15455
G1 X155.376 Y56.540 Z0.550 E133.54405
G1 X154.684 Y56.660 Z0.550 E133.93869
G1 X153.991 Y56.860 Z0.550 E134.34343
G1 X153.298 Y57.140 Z0.550 E134.76284
G1 X152.605 Y57.500 Z0.550 E135.20106
G1 X149.141 Y59.500 Z0.550 E137.44612
G1 X148.448 Y59.860 Z0.550 E137.88433
G1 X147.755 Y60.140 Z0.550 E138.30375
G1 X147.063 Y60.340 Z0.550 E138.70848
G1 X146.370 Y60.460 Z0.550 E139.10313
G1 X145.677 Y60.500 Z0.550 E139.49263
G1 X144.984 Y60.460 Z0.550 E139.88213
G1 X144.291 Y60.340 Z0.550 E140.27678
G1 X143.598 Y60.140 Z0.550 E140.68151
G1 X142.906 Y59.860 Z0.550 E141.10092
G1 X142.213 Y59.500 Z0.550 E141.53914
G1 X138.749 Y57.500 Z0.550 E143.78420
G1 X138.056 Y57.140 Z0.550 E144.22242
G1 X137.363 Y56.860 Z0.550 E144.64183
G1 X136.670 Y56.660 Z0.550 E145.04656
G1 X135.977 Y56.540 Z0.550 E145.44121
G1 X135.285 Y56.500 Z0.550 E145.83071
G1 X134.592 Y56.540 Z0.550 E146.22022
G1 X133.899 Y56.660 Z0.550 E146.61486
G1 X133.206 Y56.860 Z0.550 E147.01959
G1 X132.513 Y57.140 Z0.550 E147.43901
G1 X131.821 Y57.500 Z0.550 E147.87722
G1 X128.356 Y59.500 Z0.550 E150.12228
G1 X127.664 Y59.860 Z0.550 E150.56050
G1 X126.971 Y60.140 Z0.550 E150.97991
G1 X126.278 Y60.340 Z0.550 E151.38465
G1 X125.585 Y60.460 Z0.550 E151.77929
G1 X124.892 Y60.500 Z0.550 E152.16880
G1 X124.199 Y60.460 Z0.550 E152.55830
G1 X123.507 Y60.340 Z0.550 E152.95294
G1 X122.814 Y60.140 Z0.550 E153.35768
G1 X122.121 Y59.860 Z0.550 E153.77709
G1 X121.428 Y59.500 Z0.550 E154.21531
G1 X117.964 Y57.500 Z0.550 E156.46037
G1 X117.271 Y57.140 Z0.550 E156.89858
G1 X116.578 Y56.860 Z0.550 E157.31800
G1 X115.886 Y56.660 Z0.550 E157.72273
G1 X115.193 Y56.540 Z0.550 E158.11738
G1 X114.500 Y56.500 Z0.550 E158.50688
G1 X113.807 Y56.540 Z0.550 E158.89638
G1 X113.114 Y56.660 Z0.550 E159.29103
G1 X112.422 Y56.860 Z0.550 E159.69576
G1 X111.729 Y57.140 Z0.550 E160.11517
G1 X111.036 Y57.500 Z0.550 E160.55339
G1 X107.572 Y59.500 Z0.550 E162.79845
G1 X106.879 Y59.860 Z0.550 E163.23667
G1 X106.186 Y60.140 Z0.550 E163.65608
G1 X105.493 Y60.340 Z0.550 E164.06081
G1 X104.801 Y60.460 Z0.550 E164.45546
G1 X104.108 Y60.500 Z0.550 E164.84496
G1 X103.415 Y60.460 Z0.550 E165.23447
G1 X102.722 Y60.340 Z0.550 E165.62911
G1 X102.029 Y60.140 Z0.550 E166.03384
G1 X101.336 Y59.860 Z0.550 E166.45326
G1 X100.644 Y59.500 Z0.550 E166.89147
G1 X97.179 Y57.500 Z0.550 E169.13653
G1 X96.487 Y57.140 Z0.550 E169.57475
G1 X95.794 Y56.860 Z0.550 E169.99416
G1 X95.101 Y56.660 Z0.550 E170.39890
G1 X94.408 Y56.540 Z0.550 E170.79354
G1 X93.715 Y56.500 Z0.550 E171.18305
G1 X93.023 Y56.540 Z0.550 E171.57255
G1 X92.330 Y56.660 Z0.550 E171.96719
G1 X91.637 Y56.860 Z0.550 E172.37193
G1 X90.944 Y57.140 Z0.550 E172.79134
G1 X90.251 Y57.500 Z0.550 E173.22956
G1 X86.787 Y59.500 Z0.550 E175.47462
G1 X86.094 Y59.860 Z0.550 E175.91283
G1 X85.402 Y60.140 Z0.550 E176.33225
G1 X84.709 Y60.340 Z0.550 E176.73698
G1 X84.016 Y60.460 Z0.550 E177.13163
G1 X83.323 Y60.500 Z0.550 E177.52113
G1 X82.630 Y60.460 Z0.550 E177.91063
G1 X81.937 Y60.340 Z0.550 E178.30528
G1 X81.245 Y60.140 Z0.550 E178.71001
G1 X80.552 Y59.860 Z0.550 E179.12942
G1 X79.859 Y59.500 Z0.550 E179.56764
G1 X76.395 Y57.500 Z0.550 E181.81270
G1 X75.702 Y57.140 Z0.550 E182.25092
G1 X75.009 Y56.860 Z0.550 E182.67033
G1 X74.316 Y56.660 Z0.550 E183.07506
G1 X73.624 Y56.540 Z0.550 E183.46971
G1 X72.931 Y56.500 Z0.550 E183.85921
G1 X72.238 Y56.540 Z0.550 E184.24871
G1 X71.545 Y56.660 Z0.550 E184.64336
G1 X70.852 Y56.860 Z0.550 E185.04809
G1 X70.159 Y57.140 Z0.550 E185.46751
G1 X69.467 Y57.500 Z0.550 E185.90572
G1 X66.003 Y59.500 Z0.550 E188.15078
G1 X65.310 Y59.860 Z0.550 E188.58900
G1 X64.617 Y60.140 Z0.550 E189.00841
G1 X63.924 Y60.340 Z0.550 E189.41315
G1 X63.231 Y60.460 Z0.550 E189.80779
G1 X62.538 Y60.500 Z0.550 E190.19729
G1 X61.846 Y60.460 Z0.550 E190.58680
G1 X61.153 Y60.340 Z0.550 E190.98144
G1 X60.460 Y60.140 Z0.550 E191.38618
G1 X59.767 Y59.860 Z0.550 E191.80559
G1 X59.074 Y59.500 Z0.550 E192.24381
G1 X55.610 Y57.500 Z0.550 E194.48887
G1 X54.917 Y57.140 Z0.550 E194.92708
G1 X54.225 Y56.860 Z0.550 E195.34650
G1 X53.532 Y56.660 Z0.550 E195.75123
G1 X52.839 Y56.540 Z0.550 E196.14588
G1 X52.146 Y56.500 Z0.550 E196.53538
G1 X51.453 Y56.540 Z0.550 E196.92488
G1 X50.761 Y56.660 Z0.550 E197.31953
G1 X50.068 Y56.860 Z0.550 E197.72426
G1 X49.375 Y57.140 Z0.550 E198.14367
G1 X48.682 Y57.500 Z0.550 E198.58189
G1 X45.218 Y59.500 Z0.550 E200.82695
G1 X44.525 Y59.860 Z0.550 E201.26517
G1 X43.832 Y60.140 Z0.550 E201.68458
G1 X43.140 Y60.340 Z0.550 E202.08931
G1 X42.447 Y60.460 Z0.550 E202.48396
G1 X41.754 Y60.500 Z0.550 E202.87346
G1 X41.061 Y60.460 Z0.550 E203.26296
G1 X40.368 Y60.340 Z0.550 E203.65761
G1 X39.675 Y60.140 Z0.550 E204.06234
G1 X38.983 Y59.860 Z0.550 E204.48176
G1 X38.290 Y59.500 Z0.550 E204.91997
G1 X34.826 Y57.500 Z0.550 E207.16503
G1 X34.488 Y57.315 Z0.550 E207.38117
G1 X34.167 Y57.160 Z0.550 E207.58096
G1 X33.864 Y57.035 Z0.550 E207.76498
G1 X33.579 Y56.940 Z0.550 E207.93401
G1 X33.310 Y56.875 Z0.550 E208.08905
G1 X33.059 Y56.840 Z0.550 E208.23137
G1 X32.825 Y56.835 Z0.550 E208.36264
G1 X32.609 Y56.860 Z0.550 E208.48496
G1 X32.409 Y56.915 Z0.550 E208.60094
G1 X32.228 Y57.000 Z0.550 E208.71362
G1 X32.063 Y57.115 Z0.550 E208.82629
G1 X31.916 Y57.260 Z0.550 E208.94227
G1 X31.786 Y57.435 Z0.550 E209.06459
G1 X31.673 Y57.640 Z0.550 E209.19586
G1 X31.578 Y57.875 Z0.550 E209.33818
G1 X31.500 Y58.140 Z0.550 E209.49322
G1 X31.440 Y58.435 Z0.550 E209.66225
G1 X31.396 Y58.760 Z0.550 E209.84628
G1 X31.370 Y59.115 Z0.550 E210.04606
G1 X31.362 Y59.500 Z0.550 E210.26220
G1 X31.362 Y63.500 Z0.550 E212.50726
G1 X31.396 Y64.280 Z0.550 E212.94548
G1 X31.500 Y65.020 Z0.550 E213.36489
G1 X31.673 Y65.720 Z0.550 E213.76962
G1 X31.916 Y66.380 Z0.550 E214.16427
G1 X32.228 Y67.000 Z0.550 E214.55377
G1 X32.609 Y67.580 Z0.550 E214.94327
G1 X33.059 Y68.120 Z0.550 E215.33792
G1 X33.579 Y68.620 Z0.550 E215.74265
G1 X34.167 Y69.080 Z0.550 E216.16206
G1 X34.826 Y69.500 Z0.550 E216.60028
G1 X38.290 Y71.500 Z0.550 E218.84534
G1 X38.983 Y71.860 Z0.550 E219.28356
G1 X39.675 Y72.140 Z0.550 E219.70297
G1 X40.368 Y72.340 Z0.550 E220.10771
G1 X41.061 Y72.460 Z0.550 E220.50235
G1 X41.754 Y72.500 Z0.550 E220.89185
G1 X42.447 Y72.460 Z0.550 E221.28136
G1 X43.140 Y72.340 Z0.550 E221.67600
G1 X43.832 Y72.140 Z0.550 E222.08074
G1 X44.525 Y71.860 Z0.550 E222.50015
G1 X45.218 Y71.500 Z0.550 E222.93837
G1 X48.682 Y69.500 Z0.550 E225.18342
G1 X49.375 Y69.140 Z0.550 E225.62164
G1 X50.068 Y68.860 Z0.550 E226.04105
G1 X50.761 Y68.660 Z0.550 E226.44579
G1 X51.453 Y68.540 Z0.550 E226.84043
G1 X52.146 Y68.500 Z0.550 E227.22994
G1 X52.839 Y68.540 Z0.550 E227.61944
G1 X53.532 Y68.660 Z0.550 E228.01409
G1 X54.225 Y68.860 Z0.550 E228.41882
G1 X54.917 Y69.140 Z0.550 E228.83823
G1 X55.610 Y69.500 Z0.550 E229.27645
G1 X59.074 Y71.500 Z0.550 E231.52151
G1 X59.767 Y71.860 Z0.550 E231.95973
G1 X60.460 Y72.140 Z0.550 E232.37914
G1 X61.153 Y72.340 Z0.550 E232.78387
G1 X61.846 Y72.460 Z0.550 E233.17852
G1 X62.538 Y72.500 Z0.550 E233.56802
G1 X63.231 Y72.460 Z0.550 E233.95752
G1 X63.924 Y72.340 Z0.550 E234.35217
G1 X64.617 Y72.140 Z0.550 E234.75690
G1 X65.310 Y71.860 Z0.550 E235.17631
G1 X66.003 Y71.500 Z0.550 E235.61453
G1 X69.467 Y69.500 Z0.550 E237.85959
G1 X70.159 Y69.140 Z0.550 E238.29781
G1 X70.852 Y68.860 Z0.550 E238.71722
G1 X71.545 Y68.660 Z0.550 E239.12195
G1 X72.238 Y68.540 Z0.550 E239.51660
G1 X72.931 Y68.500 Z0.550 E239.90610
G1 X73.624 Y68.540 Z0.550 E240.29561
G1 X74.316 Y68.660 Z0.550 E240.69025
G1 X75.009 Y68.860 Z0.550 E241.09499
G1 X75.702 Y69.140 Z0.550 E241.51440
G1 X76.395 Y69.500 Z0.550 E241.95262
G1 X79.859 Y71.500 Z0.550 E244.19767
G1 X80.552 Y71.860 Z0.550 E244.63589
G1 X81.245 Y72.140 Z0.550 E245.05530
G1 X81.937 Y72.340 Z0.550 E245.46004
G1 X82.630 Y72.460 Z0.550 E245.85468
G1 X83.323 Y72.500 Z0.550 E246.24419
G1 X84.016 Y72.460 Z0.550 E246.63369
G1 X84.709 Y72.340 Z0.550 E247.02834
G1 X85.402 Y72.140 Z0.550 E247.43307
G1 X86.094 Y71.860 Z0.550 E247.85248
G1 X86.787 Y71.500 Z0.550 E248.29070
G1 X90.251 Y69.500 Z0.550 E250.53576
G1 X90.944 Y69.140 Z0.550 E250.97398
G1 X91.637 Y68.860 Z0.550 E251.39339
G1 X92.330 Y68.660 Z0.550 E251.79812
G1 X93.023 Y68.540 Z0.550 E252.19277
G1 X93.715 Y68.500 Z0.550 E252.58227
G1 X94.408 Y68.540 Z0.550 E252.97177
G1 X95.101 Y68.660 Z0.550 E253.36642
G1 X95.794 Y68.860 Z0.550 E253.77115
G1 X96.487 Y69.140 Z0.550 E254.19056
G1 X97.179 Y69.500 Z0.550 E254.62878
G1 X100.644 Y71.500 Z0.550 E256.87384
G1 X101.336 Y71.860 Z0.550 E257.31206
G1 X102.029 Y72.140 Z0.550 E257.73147
G1 X102.722 Y72.340 Z0.550 E258.13620
G1 X103.415 Y72.460 Z0.550 E258.53085
G1 X104.108 Y72.500 Z0.550 E258.92035
G1 X104.801 Y72.460 Z0.550 E259.30986
G1 X105.493 Y72.340 Z0.550 E259.70450
G1 X106.186 Y72.140 Z0.550 E260.10924
G1 X106.879 Y71.860 Z0.550 E260.52865
G1 X107.572 Y71.500 Z0.550 E260.96687
G1 X111.036 Y69.500 Z0.550 E263.21192
G1 X111.729 Y69.140 Z0.550 E263.65014
G1 X112.422 Y68.860 Z0.550 E264.06955
G1 X113.114 Y68.660 Z0.550 E264.47429
G1 X113.807 Y68.540 Z0.550 E264.86893
G1 X114.500 Y68.500 Z0.550 E265.25844
G1 X115.193 Y68.540 Z0.550 E265.64794
G1 X115.886 Y68.660 Z0.550 E266.04259
G1 X116.578 Y68.860 Z0.550 E266.44732
G1 X117.271 Y69.140 Z0.550 E266.86673
G1 X117.964 Y69.500 Z0.550 E267.30495
G1 X121.428 Y71.500 Z0.550 E269.55001
G1 X122.121 Y71.860 Z0.550 E269.98823
G1 X122.814 Y72.140 Z0.550 E270.40764
G1 X123.507 Y72.340 Z0.550 E270.81237
G1 X124.199 Y72.460 Z0.550 E271.20702
G1 X124.892 Y72.500 Z0.550 E271.59652
G1 X125.585 Y72.460 Z0.550 E271.98602
G1 X126.278 Y72.340 Z0.550 E272.38067
G1 X126.971 Y72.140 Z0.550 E272.78540
G1 X127.664 Y71.860 Z0.550 E273.20481
G1 X128.356 Y71.500 Z0.550 E273.64303
G1 X131.821 Y69.500 Z0.550 E275.88809
G1 X132.513 Y69.140 Z0.550 E276.32631
G1 X133.206 Y68.860 Z0.550 E276.74572
G1 X133.899 Y68.660 Z0.550 E277.15045
G1 X134.592 Y68.540 Z0.550 E277.54510
G1 X135.285 Y68.500 Z0.550 E277.93460
G1 X135.977 Y68.540 Z0.550 E278.32411
G1 X136.670 Y68.660 Z0.550 E278.71875
G1 X137.363 Y68.860 Z0.550 E279.12349
G1 X138.056 Y69.140 Z0.550 E279.54290
G1 X138.749 Y69.500 Z0.550 E279.98112
G1 X142.213 Y71.500 Z0.550 E282.22617
G1 X142.906 Y71.860 Z0.550 E282.66439
G1 X143.598 Y72.140 Z0.550 E283.08380
G1 X144.291 Y72.340 Z0.550 E283.48854
G1 X144.984 Y72.460 Z0.550 E283.88318
G1 X145.677 Y72.500 Z0.550 E284.27269
G1 X146.370 Y72.460 Z0.550 E284.66219
G1 X147.063 Y72.340 Z0.550 E285.05684
G1 X147.755 Y72.140 Z0.550 E285.46157
G1 X148.448 Y71.860 Z0.550 E285.88098
G1 X149.141 Y71.500 Z0.550 E286.31920
G1 X152.605 Y69.500 Z0.550 E288.56426
G1 X153.298 Y69.140 Z0.550 E289.00248
G1 X153.991 Y68.860 Z0.550 E289.42189
G1 X154.684 Y68.660 Z0.550 E289.82662
G1 X155.376 Y68.540 Z0.550 E290.22127
G1 X156.069 Y68.500 Z0.550 E290.61077
G1 X156.762 Y68.540 Z0.550 E291.00027
G1 X157.455 Y68.660 Z0.550 E291.39492
G1 X158.148 Y68.860 Z0.550 E291.79965
G1 X158.841 Y69.140 Z0.550 E292.21906
G1 X159.533 Y69.500 Z0.550 E292.65728
G1 X162.997 Y71.500 Z0.550 E294.90234
G1 X163.690 Y71.860 Z0.550 E295.34056
G1 X164.383 Y72.140 Z0.550 E295.75997
G1 X165.076 Y72.340 Z0.550 E296.16470
G1 X165.769 Y72.460 Z0.550 E296.55935
G1 X166.462 Y72.500 Z0.550 E296.94885
G1 X167.154 Y72.460 Z0.550 E297.33836
G1 X167.847 Y72.340 Z0.550 E297.73300
G1 X168.540 Y72.140 Z0.550 E298.13774
G1 X169.233 Y71.860 Z0.550 E298.55715
G1 X169.926 Y71.500 Z0.550 E298.99537
G1 X173.390 Y69.500 Z0.550 E301.24042
G1 X174.083 Y69.140 Z0.550 E301.67864
G1 X174.775 Y68.860 Z0.550 E302.09805
G1 X175.468 Y68.660 Z0.550 E302.50279
G1 X176.161 Y68.540 Z0.550 E302.89743
G1 X176.854 Y68.500 Z0.550 E303.28694
G1 X177.547 Y68.540 Z0.550 E303.67644
G1 X178.239 Y68.660 Z0.550 E304.07108
G1 X178.932 Y68.860 Z0.550 E304.47582
G1 X179.625 Y69.140 Z0.550 E304.89523
G1 X180.318 Y69.500 Z0.550 E305.33345
G1 X183.782 Y71.500 Z0.550 E307.57851
G1 X184.475 Y71.860 Z0.550 E308.01673
G1 X185.168 Y72.140 Z0.550 E308.43614
G1 X185.860 Y72.340 Z0.550 E308.84087
G1 X186.553 Y72.460 Z0.550 E309.23552
G1 X187.246 Y72.500 Z0.550 E309.62502
G1 X187.939 Y72.460 Z0.550 E310.01452
G1 X188.632 Y72.340 Z0.550 E310.40917
G1 X189.325 Y72.140 Z0.550 E310.81390
G1 X190.017 Y71.860 Z0.550 E311.23331
G1 X190.710 Y71.500 Z0.550 E311.67153
G1 X194.174 Y69.500 Z0.550 E313.91659
G1 X194.512 Y69.315 Z0.550 E314.13273
G1 X194.833 Y69.160 Z0.550 E314.33251
G1 X195.136 Y69.035 Z0.550 E314.51654
G1 X195.421 Y68.940 Z0.550 E314.68557
G1 X195.690 Y68.875 Z0.550 E314.84061
G1 X195.941 Y68.840 Z0.550 E314.98293
G1 X196.175 Y68.835 Z0.550 E315.11420
G1 X196.391 Y68.860 Z0.550 E315.23652
G1 X196.591 Y68.915 Z0.550 E315.35250
G1 X196.772 Y69.000 Z0.550 E315.46517
G1 X196.937 Y69.115 Z0.550 E315.57785
G1 X197.084 Y69.260 Z0.550 E315.69383
G1 X197.214 Y69.435 Z0.550 E315.81615
G1 X197.327 Y69.640 Z0.550 E315.94742
G1 X197.422 Y69.875 Z0.550 E316.08974
G1 X197.500 Y70.140 Z0.550 E316.24478
G1 X197.560 Y70.435 Z0.550 E316.41381
G1 X197.604 Y70.760 Z0.550 E316.59783
G1 X197.630 Y71.115 Z0.550 E316.79762
G1 X197.638 Y71.500 Z0.550 E317.01376
G1 X197.638 Y75.500 Z0.550 E319.25882
G1 X197.604 Y76.280 Z0.550 E319.69703
G1 X197.500 Y77.020 Z0.550 E320.11645
G1 X197.327 Y77.720 Z0.550 E320.52118
G1 X197.084 Y78.380 Z0.550 E320.91583
G1 X196.772 Y79.000 Z0.550 E321.30533
G1 X196.391 Y79.580 Z0.550 E321.69483
G1 X195.941 Y80.120 Z0.550 E322.08948
G1 X195.421 Y80.620 Z0.550 E322.49421
G1 X194.833 Y81.080 Z0.550 E322.91362
G1 X194.174 Y81.500 Z0.550 E323.35184
G1 X190.710 Y83.500 Z0.550 E325.59690
G1 X190.017 Y83.860 Z0.550 E326.03512
G1 X189.325 Y84.140 Z0.550 E326.45453
G1 X188.632 Y84.340 Z0.550 E326.85926
G1 X187.939 Y84.460 Z0.550 E327.25391
G1 X187.246 Y84.500 Z0.550 E327.64341
G1 X186.553 Y84.460 Z0.550 E328.03291
G1 X185.860 Y84.340 Z0.550 E328.42756
G1 X185.168 Y84.140 Z0.550 E328.83229
G1 X184.475 Y83.860 Z0.550 E329.25171
G1 X183.782 Y83.500 Z0.550 E329.68992
G1 X180.318 Y81.500 Z0.550 E331.93498
G1 X179.625 Y81.140 Z0.550 E332.37320
G1 X178.932 Y80.860 Z0.550 E332.79261
G1 X178.239 Y80.660 Z0.550 E333.19735
G1 X177.547 Y80.540 Z0.550 E333.59199
G1 X176.854 Y80.500 Z0.550 E333.98150
G1 X176.161 Y80.540 Z0.550 E334.37100
G1 X175.468 Y80.660 Z0.550 E334.76564
G1 X174.775 Y80.860 Z0.550 E335.17038
G1 X174.083 Y81.140 Z0.550 E335.58979
G1 X173.390 Y81.500 Z0.550 E336.02801
G1 X169.926 Y83.500 Z0.550 E338.27307
G1 X169.233 Y83.860 Z0.550 E338.71128
G1 X168.540 Y84.140 Z0.550 E339.13070
G1 X167.847 Y84.340 Z0.550 E339.53543
G1 X167.154 Y84.460 Z0.550 E339.93008
G1 X166.462 Y84.500 Z0.550 E340.31958
G1 X165.769 Y84.460 Z0.550 E340.70908
G1 X165.076 Y84.340 Z0.550 E341.10373
G1 X164.383 Y84.140 Z0.550 E341.50846
G1 X163.690 Y83.860 Z0.550 E341.92787
G1 X162.997 Y83.500 Z0.550 E342.36609
G1 X159.533 Y81.500 Z0.550 E344.61115
G1 X158.841 Y81.140 Z0.550 E345.04937
G1 X158.148 Y80.860 Z0.550 E345.46878
G1 X157.455 Y80.660 Z0.550 E345.87351
G1 X156.762 Y80.540 Z0.550 E346.26816
G1 X156.069 Y80.500 Z0.550 E346.65766
G1 X155.376 Y80.540 Z0.550 E347.04716
G1 X154.684 Y80.660 Z0.550 E347.44181
G1 X153.991 Y80.860 Z0.550 E347.84654
G1 X153.298 Y81.140 Z0.550 E348.26596
G1 X152.605 Y81.500 Z0.550 E348.70417
G1 X149.141 Y83.500 Z0.550 E350.94923
G1 X148.448 Y83.860 Z0.550 E351.38745
G1 X147.755 Y84.140 Z0.550 E351.80686
G1 X147.063 Y84.340 Z0.550 E352.21160
G1 X146.370 Y84.460 Z0.550 E352.60624
G1 X145.677 Y84.500 Z0.550 E352.99574
G1 X144.984 Y84.460 Z0.550 E353.38525
G1 X144.291 Y84.340 Z0.550 E353.77989
G1 X143.598 Y84.140 Z0.550 E354.18463
G1 X142.906 Y83.860 Z0.550 E354.60404
G1 X142.213 Y83.500 Z0.550 E355.04226
G1 X138.749 Y81.500 Z0.550 E357.28732
G1 X138.056 Y81.140 Z0.550 E357.72553
G1 X137.363 Y80.860 Z0.550 E358.14495
G1 X136.670 Y80.660 Z0.550 E358.54968
G1 X135.977 Y80.540 Z0.550 E358.94432
G1 X135.285 Y80.500 Z0.550 E359.33383
G1 X134.592 Y80.540 Z0.550 E359.72333
G1 X133.899 Y80.660 Z0.550 E360.11798
G1 X133.206 Y80.860 Z0.550 E360.52271
G1 X132.513 Y81.140 Z0.550 E360.94212
G1 X131.821 Y81.500 Z0.550 E361.38034
G1 X128.356 Y83.500 Z0.550 E363.62540
G1 X127.664 Y83.860 Z0.550 E364.06362
G1 X126.971 Y84.140 Z0.550 E364.48303
G1 X126.278 Y84.340 Z0.550 E364.88776
G1 X125.585 Y84.460 Z0.550 E365.28241
G1 X124.892 Y84.500 Z0.550 E365.67191
G1 X124.199 Y84.460 Z0.550 E366.06141
G1 X123.507 Y84.340 Z0.550 E366.45606
G1 X122.814 Y84.140 Z0.550 E366.86079
G1 X122.121 Y83.860 Z0.550 E367.28021
G1 X121.428 Y83.500 Z0.550 E367.71842
G1 X117.964 Y81.500 Z0.550 E369.96348
G1 X117.271 Y81.140 Z0.550 E370.40170
G1 X116.578 Y80.860 Z0.550 E370.82111
G1 X115.886 Y80.660 Z0.550 E371.22585
G1 X115.193 Y80.540 Z0.550 E371.62049
G1 X114.500 Y80.500 Z0.550 E372.00999
G1 X113.807 Y80.540 Z0.550 E372.39950
G1 X113.114 Y80.660 Z0.550 E372.79414
G1 X112.422 Y80.860 Z0.550 E373.19888
G1 X111.729 Y81.140 Z0.550 E373.61829
G1 X111.036 Y81.500 Z0.550 E374.05651
G1 X107.572 Y83.500 Z0.550 E376.30157
G1 X106.879 Y83.860 Z0.550 E376.73978
G1 X106.186 Y84.140 Z0.550 E377.15920
G1 X105.493 Y84.340 Z0.550 E377.56393
G1 X104.801 Y84.460 Z0.550 E377.95857
G1 X104.108 Y84.500 Z0.550 E378.34808
G1 X103.415 Y84.460 Z0.550 E378.73758
G1 X102.722 Y84.340 Z0.550 E379.13223
G1 X102.029 Y84.140 Z0.550 E379.53696
G1 X101.336 Y83.860 Z0.550 E379.95637
G1 X100.644 Y83.500 Z0.550 E380.39459
G1 X97.179 Y81.500 Z0.550 E382.63965
G1 X96.487 Y81.140 Z0.550 E383.07787
G1 X95.794 Y80.860 Z0.550 E383.49728
G1 X95.101 Y80.660 Z0.550 E383.90201
G1 X94.408 Y80.540 Z0.550 E384.29666
G1 X93.715 Y80.500 Z0.550 E384.68616
G1 X93.023 Y80.540 Z0.550 E385.07566
G1 X92.330 Y80.660 Z0.550 E385.47031
G1 X91.637 Y80.860 Z0.550 E385.87504
G1 X90.944 Y81.140 Z0.550 E386.29446
G1 X90.251 Y81.500 Z0.550 E386.73267
G1 X86.787 Y83.500 Z0.550 E388.97773
G1 X86.094 Y83.860 Z0.550 E389.41595
G1 X85.402 Y84.140 Z0.550 E389.83536
G1 X84.709 Y84.340 Z0.550 E390.24010
G1 X84.016 Y84.460 Z0.550 E390.63474
G1 X83.323 Y84.500 Z0.550 E391.02424
G1 X82.630 Y84.460 Z0.550 E391.41375
G1 X81.937 Y84.340 Z0.550 E391.80839
G1 X81.245 Y84.140 Z0.550 E392.21313
G1 X80.552 Y83.860 Z0.550 E392.63254
G1 X79.859 Y83.500 Z0.550 E393.07076
G1 X76.395 Y81.500 Z0.550 E395.31582
G1 X75.702 Y81.140 Z0.550 E395.75403
G1 X75.009 Y80.860 Z0.550 E396.17345
G1 X74.316 Y80.660 Z0.550 E396.57818
G1 X73.624 Y80.540 Z0.550 E396.97282
G1 X72.931 Y80.500 Z0.550 E397.36233
G1 X72.238 Y80.540 Z0.550 E397.75183
G1 X71.545 Y80.660 Z0.550 E398.14648
G1 X70.852 Y80.860 Z0.550 E398.55121
G1 X70.159 Y81.140 Z0.550 E398.97062
G1 X69.467 Y81.500 Z0.550 E399.40884
G1 X66.003 Y83.500 Z0.550 E401.65390
G1 X65.310 Y83.860 Z0.550 E402.09212
G1 X64.617 Y84.140 Z0.550 E402.51153
G1 X63.924 Y84.340 Z0.550 E402.91626
G1 X63.231 Y84.460 Z0.550 E403.31091
G1 X62.538 Y84.500 Z0.550 E403.70041
G1 X61.846 Y84.460 Z0.550 E404.08991
G1 X61.153 Y84.340 Z0.550 E404.48456
G1 X60.460 Y84.140 Z0.550 E404.88929
G1 X59.767 Y83.860 Z0.550 E405.30870
G1 X59.074 Y83.500 Z0.550 E405.74692
G1 X55.610 Y81.500 Z0.550 E407.99198
G1 X54.917 Y81.140 Z0.550 E408.43020
G1 X54.225 Y80.860 Z0.550 E408.84961
G1 X53.532 Y80.660 Z0.550 E409.25435
G1 X52.839 Y80.540 Z0.550 E409.64899
G1 X52.146 Y80.500 Z0.550 E410.03849
G1 X51.453 Y80.540 Z0.550 E410.42800
G1 X50.761 Y80.660 Z0.550 E410.82264
G1 X50.068 Y80.860 Z0.550 E411.22738
G1 X49.375 Y81.140 Z0.550 E411.64679
G1 X48.682 Y81.500 Z0.550 E412.08501
G1 X45.218 Y83.500 Z0.550 E414.33007
G1 X44.525 Y83.860 Z0.550 E414.76828
G1 X43.832 Y84.140 Z0.550 E415.18770
G1 X43.140 Y84.340 Z0.550 E415.59243
G1 X42.447 Y84.460 Z0.550 E415.98707
G1 X41.754 Y84.500 Z0.550 E416.37658
G1 X41.061 Y84.460 Z0.550 E416.76608
G1 X40.368 Y84.340 Z0.550 E417.16073
G1 X39.675 Y84.140 Z0.550 E417.56546
G1 X38.983 Y83.860 Z0.550 E417.98487
G1 X38.290 Y83.500 Z0.550 E418.42309
G1 X34.826 Y81.500 Z0.550 E420.66815
G1 X34.488 Y81.315 Z0.550 E420.88429
G1 X34.167 Y81.160 Z0.550 E421.08407
G1 X33.864 Y81.035 Z0.550 E421.26810
G1 X33.579 Y80.940 Z0.550 E421.43713
G1 X33.310 Y80.875 Z0.550 E421.59216
G1 X33.059 Y80.840 Z0.550 E421.73449
G1 X32.825 Y80.835 Z0.550 E421.86575
G1 X32.609 Y80.860 Z0.550 E421.98808
G1 X32.409 Y80.915 Z0.550 E422.10406
G1 X32.228 Y81.000 Z0.550 E422.21673
G1 X32.063 Y81.115 Z0.550 E422.32941
G1 X31.916 Y81.260 Z0.550 E422.44538
G1 X31.786 Y81.435 Z0.550 E422.56771
G1 X31.673 Y81.640 Z0.550 E422.69898
G1 X31.578 Y81.875 Z0.550 E422.84130
G1 X31.500 Y82.140 Z0.550 E422.99634
G1 X31.440 Y82.435 Z0.550 E423.16537
G1 X31.396 Y82.760 Z0.550 E423.34939
G1 X31.370 Y83.115 Z0.550 E423.54917
G1 X31.362 Y83.500 Z0.550 E423.76532
G1 X31.362 Y87.500 Z0.550 E426.01037
G1 X31.396 Y88.280 Z0.550 E426.44859
G1 X31.500 Y89.020 Z0.550 E426.86800
G1 X31.673 Y89.720 Z0.550 E427.27274
G1 X31.916 Y90.380 Z0.550 E427.66738
G1 X32.228 Y91.000 Z0.550 E428.05689
G1 X32.609 Y91.580 Z0.550 E428.44639
G1 X33.059 Y92.120 Z0.550 E428.84104
G1 X33.579 Y92.620 Z0.550 E429.24577
G1 X34.167 Y93.080 Z0.550 E429.66518
G1 X34.826 Y93.500 Z0.550 E430.10340
G1 X38.290 Y95.500 Z0.550 E432.34846
G1 X38.983 Y95.860 Z0.550 E432.78668
G1 X39.675 Y96.140 Z0.550 E433.20609
G1 X40.368 Y96.340 Z0.550 E433.61082
G1 X41.061 Y96.460 Z0.550 E434.00547
G1 X41.754 Y96.500 Z0.550 E434.39497
G1 X42.447 Y96.460 Z0.550 E434.78447
G1 X43.140 Y96.340 Z0.550 E435.17912
G1 X43.832 Y96.140 Z0.550 E435.58385
G1 X44.525 Y95.860 Z0.550 E436.00326
G1 X45.218 Y95.500 Z0.550 E436.44148
G1 X48.682 Y93.500 Z0.550 E438.68654
G1 X49.375 Y93.140 Z0.550 E439.12476
G1 X50.068 Y92.860 Z0.550 E439.54417
G1 X50.761 Y92.660 Z0.550 E439.94890
G1 X51.453 Y92.540 Z0.550 E440.34355
G1 X52.146 Y92.500 Z0.550 E440.73305
G1 X52.839 Y92.540 Z0.550 E441.12256
G1 X53.532 Y92.660 Z0.550 E441.51720
G1 X54.225 Y92.860 Z0.550 E441.92194
G1 X54.917 Y93.140 Z0.550 E442.34135
G1 X55.610 Y93.500 Z0.550 E442.77957
G1 X59.074 Y95.500 Z0.550 E445.02462
G1 X59.767 Y95.860 Z0.550 E445.46284
G1 X60.460 Y96.140 Z0.550 E445.88225
G1 X61.153 Y96.340 Z0.550 E446.28699
G1 X61.846 Y96.460 Z0.550 E446.68163
G1 X62.538 Y96.500 Z0.550 E447.07114
G1 X63.231 Y96.460 Z0.550 E447.46064
G1 X63.924 Y96.340 Z0.550 E447.85528
G1 X64.617 Y96.140 Z0.550 E448.26002
G1 X65.310 Y95.860 Z0.550 E448.67943
G1 X66.003 Y95.500 Z0.550 E449.11765
G1 X69.467 Y93.500 Z0.550 E451.36271
G1 X70.159 Y93.140 Z0.550 E451.80093
G1 X70.852 Y92.860 Z0.550 E452.22034
G1 X71.545 Y92.660 Z0.550 E452.62507
G1 X72.238 Y92.540 Z0.550 E453.01972
G1 X72.931 Y92.500 Z0.550 E453.40922
G1 X73.624 Y92.540 Z0.550 E453.79872
G1 X74.316 Y92.660 Z0.550 E454.19337
G1 X75.009 Y92.860 Z0.550 E454.59810
G1 X75.702 Y93.140 Z0.550 E455.01751
G1 X76.395 Y93.500 Z0.550 E455.45573
G1 X79.859 Y95.500 Z0.550 E457.70079
G1 X80.552 Y95.860 Z0.550 E458.13901
G1 X81.245 Y96.140 Z0.550 E458.55842
G1 X81.937 Y96.340 Z0.550 E458.96315
G1 X82.630 Y96.460 Z0.550 E459.35780
G1 X83.323 Y96.500 Z0.550 E459.74730
G1 X84.016 Y96.460 Z0.550 E460.13681
G1 X84.709 Y96.340 Z0.550 E460.53145
G1 X85.402 Y96.140 Z0.550 E460.93619
G1 X86.094 Y95.860 Z0.550 E461.35560
G1 X86.787 Y95.500 Z0.550 E461.79381
G1 X90.251 Y93.500 Z0.550 E464.03887
G1 X90.944 Y93.140 Z0.550 E464.47709
G1 X91.637 Y92.860 Z0.550 E464.89650
G1 X92.330 Y92.660 Z0.550 E465.30124
G1 X93.023 Y92.540 Z0.550 E465.69588
G1 X93.715 Y92.500 Z0.550 E466.08539
G1 X94.408 Y92.540 Z0.550 E466.47489
G1 X95.101 Y92.660 Z0.550 E466.86953
G1 X95.794 Y92.860 Z0.550 E467.27427
G1 X96.487 Y93.140 Z0.550 E467.69368
G1 X97.179 Y93.500 Z0.550 E468.13190
G1 X100.644 Y95.500 Z0.550 E470.37696
G1 X101.336 Y95.860 Z0.550 E470.81518
G1 X102.029 Y96.140 Z0.550 E471.23459
G1 X102.722 Y96.340 Z0.550 E471.63932
G1 X103.415 Y96.460 Z0.550 E472.03397
G1 X104.108 Y96.500 Z0.550 E472.42347
G1 X104.801 Y96.460 Z0.550 E472.81297
G1 X105.493 Y96.340 Z0.550 E473.20762
G1 X106.186 Y96.140 Z0.550 E473.61235
G1 X106.879 Y95.860 Z0.550 E474.03176
G1 X107.572 Y95.500 Z0.550 E474.46998
G1 X111.036 Y93.500 Z0.550 E476.71504
G1 X111.729 Y93.140 Z0.550 E477.15326
G1 X112.422 Y92.860 Z0.550 E477.57267
G1 X113.114 Y92.660 Z0.550 E477.97740
G1 X113.807 Y92.540 Z0.550 E478.37205
G1 X114.500 Y92.500 Z0.550 E478.76155
G1 X115.193 Y92.540 Z0.550 E479.15106
G1 X115.886 Y92.660 Z0.550 E479.54570
G1 X116.578 Y92.860 Z0.550 E479.95043
G1 X117.271 Y93.140 Z0.550 E480.36985
G1 X117.964 Y93.500 Z0.550 E480.80806
G1 X121.428 Y95.500 Z0.550 E483.05312
G1 X122.121 Y95.860 Z0.550 E483.49134
G1 X122.814 Y96.140 Z0.550 E483.91075
G1 X123.507 Y96.340 Z0.550 E484.31549
G1 X124.199 Y96.460 Z0.550 E484.71013
G1 X124.892 Y96.500 Z0.550 E485.09964
G1 X125.585 Y96.460 Z0.550 E485.48914
G1 X126.278 Y96.340 Z0.550 E485.88378
G1 X126.971 Y96.140 Z0.550 E486.28852
G1 X127.664 Y95.860 Z0.550 E486.70793
G1 X128.356 Y95.500 Z0.550 E487.14615
G1 X131.821 Y93.500 Z0.550 E489.39121
G1 X132.513 Y93.140 Z0.550 E489.82943
G1 X133.206 Y92.860 Z0.550 E490.24884
G1 X133.899 Y92.660 Z0.550 E490.65357
G1 X134.592 Y92.540 Z0.550 E491.04822
G1 X135.285 Y92.500 Z0.550 E491.43772
G1 X135.977 Y92.540 Z0.550 E491.82722
G1 X136.670 Y92.660 Z0.550 E492.22187
G1 X137.363 Y92.860 Z0.550 E492.62660
G1 X138.056 Y93.140 Z0.550 E493.04601
G1 X138.749 Y93.500 Z0.550 E493.48423
G1 X142.213 Y95.500 Z0.550 E495.72929
G1 X142.906 Y95.860 Z0.550 E496.16751
G1 X143.598 Y96.140 Z0.550 E496.58692
G1 X144.291 Y96.340 Z0.550 E496.99165
G1 X144.984 Y96.460 Z0.550 E497.38630
G1 X145.677 Y96.500 Z0.550 E497.77580
G1 X146.370 Y96.460 Z0.550 E498.16531
G1 X147.063 Y96.340 Z0.550 E498.55995
G1 X147.755 Y96.140 Z0.550 E498.96468
G1 X148.448 Y95.860 Z0.550 E499.38410
G1 X149.141 Y95.500 Z0.550 E499.82231
G1 X152.605 Y93.500 Z0.550 E502.06737
G1 X153.298 Y93.140 Z0.550 E502.50559
G1 X153.991 Y92.860 Z0.550 E502.92500
G1 X154.684 Y92.660 Z0.550 E503.32974
G1 X155.376 Y92.540 Z0.550 E503.72438
G1 X156.069 Y92.500 Z0.550 E504.11389
G1 X156.762 Y92.540 Z0.550 E504.50339
G1 X157.455 Y92.660 Z0.550 E504.89803
G1 X158.148 Y92.860 Z0.550 E505.30277
G1 X158.841 Y93.140 Z0.550 E505.72218
G1 X159.533 Y93.500 Z0.550 E506.16040
G1 X162.997 Y95.500 Z0.550 E508.40546
G1 X163.690 Y95.860 Z0.550 E508.84367
G1 X164.383 Y96.140 Z0.550 E509.26309
G1 X165.076 Y96.340 Z0.550 E509.66782
G1 X165.769 Y96.460 Z0.550 E510.06247
G1 X166.462 Y96.500 Z0.550 E510.45197
G1 X167.154 Y96.460 Z0.550 E510.84147
G1 X167.847 Y96.340 Z0.550 E511.23612
G1 X168.540 Y96.140 Z0.550 E511.64085
G1 X169.233 Y95.860 Z0.550 E512.06026
G1 X169.926 Y95.500 Z0.550 E512.49848
G1 X173.390 Y93.500 Z0.550 E514.74354
G1 X174.083 Y93.140 Z0.550 E515.18176
G1 X174.775 Y92.860 Z0.550 E515.60117
G1 X175.468 Y92.660 Z0.550 E516.00590
G1 X176.161 Y92.540 Z0.550 E516.40055
G1 X176.854 Y92.500 Z0.550 E516.79005
G1 X177.547 Y92.540 Z0.550 E517.17956
G1 X178.239 Y92.660 Z0.550 E517.57420
G1 X178.932 Y92.860 Z0.550 E517.97893
G1 X179.625 Y93.140 Z0.550 E518.39835
G1 X180.318 Y93.500 Z0.550 E518.83656
G1 X183.782 Y95.500 Z0.550 E521.08162
G1 X184.475 Y95.860 Z0.550 E521.51984
G1 X185.168 Y96.140 Z0.550 E521.93925
G1 X185.860 Y96.340 Z0.550 E522.34399
G1 X186.553 Y96.460 Z0.550 E522.73863
G1 X187.246 Y96.500 Z0.550 E523.12814
G1 X187.939 Y96.460 Z0.550 E523.51764
G1 X188.632 Y96.340 Z0.550 E523.91228
G1 X189.325 Y96.140 Z0.550 E524.31702
G1 X190.017 Y95.860 Z0.550 E524.73643
G1 X190.710 Y95.500 Z0.550 E525.17465
G1 X194.174 Y93.500 Z0.550 E527.41971
G1 X194.512 Y93.315 Z0.550 E527.63585
G1 X194.833 Y93.160 Z0.550 E527.83563
G1 X195.136 Y93.035 Z0.550 E528.01965
G1 X195.421 Y92.940 Z0.550 E528.18869
G1 X195.690 Y92.875 Z0.550 E528.34372
G1 X195.941 Y92.840 Z0.550 E528.48604
G1 X196.175 Y92.835 Z0.550 E528.61731
G1 X196.391 Y92.860 Z0.550 E528.73964
G1 X196.591 Y92.915 Z0.550 E528.85562
G1 X196.772 Y93.000 Z0.550 E528.96829
G1 X196.937 Y93.115 Z0.550 E529.08096
G1 X197.084 Y93.260 Z0.550 E529.19694
G1 X197.214 Y93.435 Z0.550 E529.31927
G1 X197.327 Y93.640 Z0.550 E529.45054
G1 X197.422 Y93.875 Z0.550 E529.59286
G1 X197.500 Y94.140 Z0.550 E529.74789
G1 X197.560 Y94.435 Z0.550 E529.91693
G1 X197.604 Y94.760 Z0.550 E530.10095
G1 X197.630 Y95.115 Z0.550 E530.30073
G1 X197.638 Y95.500 Z0.550 E530.51687
G1 X197.638 Y99.500 Z0.550 E532.76193
G1 X197.604 Y100.280 Z0.550 E533.20015
G1 X197.500 Y101.020 Z0.550 E533.61956
G1 X197.327 Y101.720 Z0.550 E534.02430
G1 X197.084 Y102.380 Z0.550 E534.41894
G1 X196.772 Y103.000 Z0.550 E534.80844
G1 X196.391 Y103.580 Z0.550 E535.19795
G1 X195.941 Y104.120 Z0.550 E535.59259
G1 X195.421 Y104.620 Z0.550 E535.99733
G1 X194.833 Y105.080 Z0.550 E536.41674
G1 X194.174 Y105.500 Z0.550 E536.85496
G1 X190.710 Y107.500 Z0.550 E539.10002
G1 X190.017 Y107.860 Z0.550 E539.53823
G1 X189.325 Y108.140 Z0.550 E539.95765
G1 X188.632 Y108.340 Z0.550 E540.36238
G1 X187.939 Y108.460 Z0.550 E540.75702
G1 X187.246 Y108.500 Z0.550 E541.14653
G1 X186.553 Y108.460 Z0.550 E541.53603
G1 X185.860 Y108.340 Z0.550 E541.93068
G1 X185.168 Y108.140 Z0.550 E542.33541
G1 X184.475 Y107.860 Z0.550 E542.75482
G1 X183.782 Y107.500 Z0.550 E543.19304
G1 X180.318 Y105.500 Z0.550 E545.43810
G1 X179.625 Y105.140 Z0.550 E545.87632
G1 X178.932 Y104.860 Z0.550 E546.29573
G1 X178.239 Y104.660 Z0.550 E546.70046
G1 X177.547 Y104.540 Z0.550 E547.09511
G1 X176.854 Y104.500 Z0.550 E547.48461
G1 X176.161 Y104.540 Z0.550 E547.87411
G1 X175.468 Y104.660 Z0.550 E548.26876
G1 X174.775 Y104.860 Z0.550 E548.67349
G1 X174.083 Y105.140 Z0.550 E549.09291
G1 X173.390 Y105.500 Z0.550 E549.53112
G1 X169.926 Y107.500 Z0.550 E551.77618
G1 X169.233 Y107.860 Z0.550 E552.21440
G1 X168.540 Y108.140 Z0.550 E552.63381
G1 X167.847 Y108.340 Z0.550 E553.03855
G1 X167.154 Y108.460 Z0.550 E553.43319
G1 X166.462 Y108.500 Z0.550 E553.82269
G1 X165.769 Y108.460 Z0.550 E554.21220
G1 X165.076 Y108.340 Z0.550 E554.60684
G1 X164.383 Y108.140 Z0.550 E555.01158
G1 X163.690 Y107.860 Z0.550 E555.43099
G1 X162.997 Y107.500 Z0.550 E555.86921
G1 X159.533 Y105.500 Z0.550 E558.11427
G1 X158.841 Y105.140 Z0.550 E558.55248
G1 X158.148 Y104.860 Z0.550 E558.97190
G1 X157.455 Y104.660 Z0.550 E559.37663
G1 X156.762 Y104.540 Z0.550 E559.77127
G1 X156.069 Y104.500 Z0.550 E560.16078
G1 X155.376 Y104.540 Z0.550 E560.55028
G1 X154.684 Y104.660 Z0.550 E560.94493
G1 X153.991 Y104.860 Z0.550 E561.34966
G1 X153.298 Y105.140 Z0.550 E561.76907
G1 X152.605 Y105.500 Z0.550 E562.20729
G1 X149.141 Y107.500 Z0.550 E564.45235
G1 X148.448 Y107.860 Z0.550 E564.89057
G1 X147.755 Y108.140 Z0.550 E565.30998
G1 X147.063 Y108.340 Z0.550 E565.71471
G1 X146.370 Y108.460 Z0.550 E566.10936
G1 X145.677 Y108.500 Z0.550 E566.49886
G1 X144.984 Y108.460 Z0.550 E566.88836
G1 X144.291 Y108.340 Z0.550 E567.28301
G1 X143.598 Y108.140 Z0.550 E567.68774
G1 X142.906 Y107.860 Z0.550 E568.10715
G1 X142.213 Y107.500 Z0.550 E568.54537
G1 X138.749 Y105.500 Z0.550 E570.79043
G1 X138.056 Y105.140 Z0.550 E571.22865
G1 X137.363 Y104.860 Z0.550 E571.64806
G1 X136.670 Y104.660 Z0.550 E572.05280
G1 X135.977 Y104.540 Z0.550 E572.44744
G1 X135.285 Y104.500 Z0.550 E572.83694
G1 X134.592 Y104.540 Z0.550 E573.22645
G1 X133.899 Y104.660 Z0.550 E573.62109
G1 X133.206 Y104.860 Z0.550 E574.02583
G1 X132.513 Y105.140 Z0.550 E574.44524
G1 X131.821 Y105.500 Z0.550 E574.88346
G1 X128.356 Y107.500 Z0.550 E577.12852
G1 X127.664 Y107.860 Z0.550 E577.56673
G1 X126.971 Y108.140 Z0.550 E577.98614
G1 X126.278 Y108.340 Z0.550 E578.39088
G1 X125.585 Y108.460 Z0.550 E578.78552
G1 X124.892 Y108.500 Z0.550 E579.17503
G1 X124.199 Y108.460 Z0.550 E579.56453
G1 X123.507 Y108.340 Z0.550 E579.95918
G1 X122.814 Y108.140 Z0.550 E580.36391
G1 X122.121 Y107.860 Z0.550 E580.78332
G1 X121.428 Y107.500 Z0.550 E581.22154
G1 X117.964 Y105.500 Z0.550 E583.46660
G1 X117.271 Y105.140 Z0.550 E583.90482
G1 X116.578 Y104.860 Z0.550 E584.32423
G1 X115.886 Y104.660 Z0.550 E584.72896
G1 X115.193 Y104.540 Z0.550 E585.12361
G1 X114.500 Y104.500 Z0.550 E585.51311
G1 X113.807 Y104.540 Z0.550 E585.90261
G1 X113.114 Y104.660 Z0.550 E586.29726
G1 X112.422 Y104.860 Z0.550 E586.70199
G1 X111.729 Y105.140 Z0.550 E587.12140
G1 X111.036 Y105.500 Z0.550 E587.55962
G1 X107.572 Y107.500 Z0.550 E589.80468
G1 X106.879 Y107.860 Z0.550 E590.24290
G1 X106.186 Y108.140 Z0.550 E590.66231
G1 X105.493 Y108.340 Z0.550 E591.06705
G1 X104.801 Y108.460 Z0.550 E591.46169
G1 X104.108 Y108.500 Z0.550 E591.85119
G1 X103.415 Y108.460 Z0.550 E592.24070
G1 X102.722 Y108.340 Z0.550 E592.63534
G1 X102.029 Y108.140 Z0.550 E593.04008
G1 X101.336 Y107.860 Z0.550 E593.45949
G1 X100.644 Y107.500 Z0.550 E593.89771
G1 X97.179 Y105.500 Z0.550 E596.14277
G1 X96.487 Y105.140 Z0.550 E596.58098
G1 X95.794 Y104.860 Z0.550 E597.00039
G1 X95.101 Y104.660 Z0.550 E597.40513
G1 X94.408 Y104.540 Z0.550 E597.79977
G1 X93.715 Y104.500 Z0.550 E598.18928
G1 X93.023 Y104.540 Z0.550 E598.57878
G1 X92.330 Y104.660 Z0.550 E598.97343
G1 X91.637 Y104.860 Z0.550 E599.37816
G1 X90.944 Y105.140 Z0.550 E599.79757
G1 X90.251 Y105.500 Z0.550 E600.23579
G1 X86.787 Y107.500 Z0.550 E602.48085
G1 X86.094 Y107.860 Z0.550 E602.91907
G1 X85.402 Y108.140 Z0.550 E603.33848
G1 X84.709 Y108.340 Z0.550 E603.74321
G1 X84.016 Y108.460 Z0.550 E604.13786
G1 X83.323 Y108.500 Z0.550 E604.52736
G1 X82.630 Y108.460 Z0.550 E604.91686
G1 X81.937 Y108.340 Z0.550 E605.31151
G1 X81.245 Y108.140 Z0.550 E605.71624
G1 X80.552 Y107.860 Z0.550 E606.13565
G1 X79.859 Y107.500 Z0.550 E606.57387
G1 X76.395 Y105.500 Z0.550 E608.81893
G1 X75.702 Y105.140 Z0.550 E609.25715
G1 X75.009 Y104.860 Z0.550 E609.67656
G1 X74.316 Y104.660 Z0.550 E610.08130
G1 X73.624 Y104.540 Z0.550 E610.47594
G1 X72.931 Y104.500 Z0.550 E610.86544
G1 X72.238 Y104.540 Z0.550 E611.25495
G1 X71.545 Y104.660 Z0.550 E611.64959
G1 X70.852 Y104.860 Z0.550 E612.05433
G1 X70.159 Y105.140 Z0.550 E612.47374
G1 X69.467 Y105.500 Z0.550 E612.91196
G1 X66.003 Y107.500 Z0.550 E615.15701
G1 X65.310 Y107.860 Z0.550 E615.59523
G1 X64.617 Y108.140 Z0.550 E616.01464
G1 X63.924 Y108.340 Z0.550 E616.41938
G1 X63.231 Y108.460 Z0.550 E616.81402
G1 X62.538 Y108.500 Z0.550 E617.20353
G1 X61.846 Y108.460 Z0.550 E617.59303
G1 X61.153 Y108.340 Z0.550 E617.98768
G1 X60.460 Y108.140 Z0.550 E618.39241
G1 X59.767 Y107.860 Z0.550 E618.81182
G1 X59.074 Y107.500 Z0.550 E619.25004
G1 X55.610 Y105.500 Z0.550 E621.49510
G1 X54.917 Y105.140 Z0.550 E621.93332
G1 X54.225 Y104.860 Z0.550 E622.35273
G1 X53.532 Y104.660 Z0.550 E622.75746
G1 X52.839 Y104.540 Z0.550 E623.15211
G1 X52.146 Y104.500 Z0.550 E623.54161
G1 X51.453 Y104.540 Z0.550 E623.93111
G1 X50.761 Y104.660 Z0.550 E624.32576
G1 X50.068 Y104.860 Z0.550 E624.73049
G1 X49.375 Y105.140 Z0.550 E625.14990
G1 X48.682 Y105.500 Z0.550 E625.58812
G1 X45.218 Y107.500 Z0.550 E627.83318
G1 X44.525 Y107.860 Z0.550 E628.27140
G1 X43.832 Y108.140 Z0.550 E628.69081
G1 X43.140 Y108.340 Z0.550 E629.09554
G1 X42.447 Y108.460 Z0.550 E629.49019
G1 X41.754 Y108.500 Z0.550 E629.87969
G1 X41.061 Y108.460 Z0.550 E630.26920
G1 X40.368 Y108.340 Z0.550 E630.66384
G1 X39.675 Y108.140 Z0.550 E631.06858
G1 X38.983 Y107.860 Z0.550 E631.48799
G1 X38.290 Y107.500 Z0.550 E631.92621
G1 X34.826 Y105.500 Z0.550 E634.17126
G1 X34.488 Y105.315 Z0.550 E634.38741
G1 X34.167 Y105.160 Z0.550 E634.58719
G1 X33.864 Y105.035 Z0.550 E634.77121
G1 X33.579 Y104.940 Z0.550 E634.94024
G1 X33.310 Y104.875 Z0.550 E635.09528
G1 X33.059 Y104.840 Z0.550 E635.23760
G1 X32.825 Y104.835 Z0.550 E635.36887
G1 X32.609 Y104.860 Z0.550 E635.49120
G1 X32.409 Y104.915 Z0.550 E635.60717
G1 X32.228 Y105.000 Z0.550 E635.71985
G1 X32.063 Y105.115 Z0.550 E635.83252
G1 X31.916 Y105.260 Z0.550 E635.94850
G1 X31.786 Y105.435 Z0.550 E636.07083
G1 X31.673 Y105.640 Z0.550 E636.20209
G1 X31.578 Y105.875 Z0.550 E636.34442
G1 X31.500 Y106.140 Z0.550 E636.49945
G1 X31.440 Y106.435 Z0.550 E636.66848
G1 X31.396 Y106.760 Z0.550 E636.85251
G1 X31.370 Y107.115 Z0.550 E637.05229
G1 X31.362 Y107.500 Z0.550 E637.26843
G1 X31.362 Y111.500 Z0.550 E639.51349
G1 X31.396 Y112.280 Z0.550 E639.95171
G1 X31.500 Y113.020 Z0.550 E640.37112
G1 X31.673 Y113.720 Z0.550 E640.77585
G1 X31.916 Y114.380 Z0.550 E641.17050
G1 X32.228 Y115.000 Z0.550 E641.56000
G1 X32.609 Y115.580 Z0.550 E641.94951
G1 X33.059 Y116.120 Z0.550 E642.34415
G1 X33.579 Y116.620 Z0.550 E642.74888
G1 X34.167 Y117.080 Z0.550 E643.16830
G1 X34.826 Y117.500 Z0.550 E643.60651
G1 X38.290 Y119.500 Z0.550 E645.85157
G1 X38.983 Y119.860 Z0.550 E646.28979
G1 X39.675 Y120.140 Z0.550 E646.70920
G1 X40.368 Y120.340 Z0.550 E647.11394
G1 X41.061 Y120.460 Z0.550 E647.50858
G1 X41.754 Y120.500 Z0.550 E647.89809
G1 X42.447 Y120.460 Z0.550 E648.28759
G1 X43.140 Y120.340 Z0.550 E648.68223
G1 X43.832 Y120.140 Z0.550 E649.08697
G1 X44.525 Y119.860 Z0.550 E649.50638
G1 X45.218 Y119.500 Z0.550 E649.94460
G1 X48.682 Y117.500 Z0.550 E652.18966
G1 X49.375 Y117.140 Z0.550 E652.62787
G1 X50.068 Y116.860 Z0.550 E653.04729
G1 X50.761 Y116.660 Z0.550 E653.45202
G1 X51.453 Y116.540 Z0.550 E653.84667
G1 X52.146 Y116.500 Z0.550 E654.23617
G1 X52.839 Y116.540 Z0.550 E654.62567
G1 X53.532 Y116.660 Z0.550 E655.02032
G1 X54.225 Y116.860 Z0.550 E655.42505
G1 X54.917 Y117.140 Z0.550 E655.84446
G1 X55.610 Y117.500 Z0.550 E656.28268
G1 X59.074 Y119.500 Z0.550 E658.52774
G1 X59.767 Y119.860 Z0.550 E658.96596
G1 X60.460 Y120.140 Z0.550 E659.38537
G1 X61.153 Y120.340 Z0.550 E659.79010
G1 X61.846 Y120.460 Z0.550 E660.18475
G1 X62.538 Y120.500 Z0.550 E660.57425
G1 X63.231 Y120.460 Z0.550 E660.96376
G1 X63.924 Y120.340 Z0.550 E661.35840
G1 X64.617 Y120.140 Z0.550 E661.76313
G1 X65.310 Y119.860 Z0.550 E662.18255
G1 X66.003 Y119.500 Z0.550 E662.62076
G1 X69.467 Y117.500 Z0.550 E664.86582
G1 X70.159 Y117.140 Z0.550 E665.30404
G1 X70.852 Y116.860 Z0.550 E665.72345
G1 X71.545 Y116.660 Z0.550 E666.12819
G1 X72.238 Y116.540 Z0.550 E666.52283
G1 X72.931 Y116.500 Z0.550 E666.91234
G1 X73.624 Y116.540 Z0.550 E667.30184
G1 X74.316 Y116.660 Z0.550 E667.69648
G1 X75.009 Y116.860 Z0.550 E668.10122
G1 X75.702 Y117.140 Z0.550 E668.52063
G1 X76.395 Y117.500 Z0.550 E668.95885
G1 X79.859 Y119.500 Z0.550 E671.20391
G1 X80.552 Y119.860 Z0.550 E671.64212
G1 X81.245 Y120.140 Z0.550 E672.06154
G1 X81.937 Y120.340 Z0.550 E672.46627
G1 X82.630 Y120.460 Z0.550 E672.86092
G1 X83.323 Y120.500 Z0.550 E673.25042
G1 X84.016 Y120.460 Z0.550 E673.63992
G1 X84.709 Y120.340 Z0.550 E674.03457
G1 X85.402 Y120.140 Z0.550 E674.43930
G1 X86.094 Y119.860 Z0.550 E674.85871
G1 X86.787 Y119.500 Z0.550 E675.29693
G1 X90.251 Y117.500 Z0.550 E677.54199
G1 X90.944 Y117.140 Z0.550 E677.98021
G1 X91.637 Y116.860 Z0.550 E678.39962
G1 X92.330 Y116.660 Z0.550 E678.80435
G1 X93.023 Y116.540 Z0.550 E679.19900
G1 X93.715 Y116.500 Z0.550 E679.58850
G1 X94.408 Y116.540 Z0.550 E679.97801
G1 X95.101 Y116.660 Z0.550 E680.37265
G1 X95.794 Y116.860 Z0.550 E680.77738
G1 X96.487 Y117.140 Z0.550 E681.19680
G1 X97.179 Y117.500 Z0.550 E681.63501
G1 X100.644 Y119.500 Z0.550 E683.88007
G1 X101.336 Y119.860 Z0.550 E684.31829
G1 X102.029 Y120.140 Z0.550 E684.73770
G1 X102.722 Y120.340 Z0.550 E685.14244
G1 X103.415 Y120.460 Z0.550 E685.53708
G1 X104.108 Y120.500 Z0.550 E685.92659
G1 X104.801 Y120.460 Z0.550 E686.31609
G1 X105.493 Y120.340 Z0.550 E686.71073
G1 X106.186 Y120.140 Z0.550 E687.11547
G1 X106.879 Y119.860 Z0.550 E687.53488
G1 X107.572 Y119.500 Z0.550 E687.97310
G1 X111.036 Y117.500 Z0.550 E690.21816
G1 X111.729 Y117.140 Z0.550 E690.65637
G1 X112.422 Y116.860 Z0.550 E691.07579
G1 X113.114 Y116.660 Z0.550 E691.48052
G1 X113.807 Y116.540 Z0.550 E691.87517
G1 X114.500 Y116.500 Z0.550 E692.26467
G1 X115.193 Y116.540 Z0.550 E692.65417
G1 X115.886 Y116.660 Z0.550 E693.04882
G1 X116.578 Y116.860 Z0.550 E693.45355
G1 X117.271 Y117.140 Z0.550 E693.87296
G1 X117.964 Y117.500 Z0.550 E694.31118
G1 X121.428 Y119.500 Z0.550 E696.55624
G1 X122.121 Y119.860 Z0.550 E696.99446
G1 X122.814 Y120.140 Z0.550 E697.41387
G1 X123.507 Y120.340 Z0.550 E697.81860
G1 X124.199 Y120.460 Z0.550 E698.21325
G1 X124.892 Y120.500 Z0.550 E698.60275
G1 X125.585 Y120.460 Z0.550 E698.99226
G1 X126.278 Y120.340 Z0.550 E699.38690
G1 X126.971 Y120.140 Z0.550 E699.79163
G1 X127.664 Y119.860 Z0.550 E700.21105
G1 X128.356 Y119.500 Z0.550 E700.64926
G1 X131.821 Y117.500 Z0.550 E702.89432
G1 X132.513 Y117.140 Z0.550 E703.33254
G1 X133.206 Y116.860 Z0.550 E703.75195
G1 X133.899 Y116.660 Z0.550 E704.15669
G1 X134.592 Y116.540 Z0.550 E704.55133
G1 X135.285 Y116.500 Z0.550 E704.94084
G1 X135.977 Y116.540 Z0.550 E705.33034
G1 X136.670 Y116.660 Z0.550 E705.72498
G1 X137.363 Y116.860 Z0.550 E706.12972
G1 X138.056 Y117.140 Z0.550 E706.54913
G1 X138.749 Y117.500 Z0.550 E706.98735
G1 X142.213 Y119.500 Z0.550 E709.23241
G1 X142.906 Y119.860 Z0.550 E709.67062
G1 X143.598 Y120.140 Z0.550 E710.09004
G1 X144.291 Y120.340 Z0.550 E710.49477
G1 X144.984 Y120.460 Z0.550 E710.88942
G1 X145.677 Y120.500 Z0.550 E711.27892
G1 X146.370 Y120.460 Z0.550 E711.66842
G1 X147.063 Y120.340 Z0.550 E712.06307
G1 X147.755 Y120.140 Z0.550 E712.46780
G1 X148.448 Y119.860 Z0.550 E712.88721
G1 X149.141 Y119.500 Z0.550 E713.32543
G1 X152.605 Y117.500 Z0.550 E715.57049
G1 X153.298 Y117.140 Z0.550 E716.00871
G1 X153.991 Y116.860 Z0.550 E716.42812
G1 X154.684 Y116.660 Z0.550 E716.83285
G1 X155.376 Y116.540 Z0.550 E717.22750
G1 X156.069 Y116.500 Z0.550 E717.61700
G1 X156.762 Y116.540 Z0.550 E718.00650
G1 X157.455 Y116.660 Z0.550 E718.40115
G1 X158.148 Y116.860 Z0.550 E718.80588
G1 X158.841 Y117.140 Z0.550 E719.22530
G1 X159.533 Y117.500 Z0.550 E719.66351
G1 X162.997 Y119.500 Z0.550 E721.90857
G1 X163.690 Y119.860 Z0.550 E722.34679
G1 X164.383 Y120.140 Z0.550 E722.76620
G1 X165.076 Y120.340 Z0.550 E723.17094
G1 X165.769 Y120.460 Z0.550 E723.56558
G1 X166.462 Y120.500 Z0.550 E723.95508
G1 X167.154 Y120.460 Z0.550 E724.34459
G1 X167.847 Y120.340 Z0.550 E724.73923
G1 X168.540 Y120.140 Z0.550 E725.14397
G1 X169.233 Y119.860 Z0.550 E725.56338
G1 X169.926 Y119.500 Z0.550 E726.00160
G1 X173.390 Y117.500 Z0.550 E728.24666
G1 X174.083 Y117.140 Z0.550 E728.68487
G1 X174.775 Y116.860 Z0.550 E729.10429
G1 X175.468 Y116.660 Z0.550 E729.50902
G1 X176.161 Y116.540 Z0.550 E729.90367
G1 X176.854 Y116.500 Z0.550 E730.29317
G1 X177.547 Y116.540 Z0.550 E730.68267
G1 X178.239 Y116.660 Z0.550 E731.07732
G1 X178.932 Y116.860 Z0.550 E731.48205
G1 X179.625 Y117.140 Z0.550 E731.90146
G1 X180.318 Y117.500 Z0.550 E732.33968
G1 X183.782 Y119.500 Z0.550 E734.58474
G1 X184.475 Y119.860 Z0.550 E735.02296
G1 X185.168 Y120.140 Z0.550 E735.44237
G1 X185.860 Y120.340 Z0.550 E735.84710
G1 X186.553 Y120.460 Z0.550 E736.24175
G1 X187.246 Y120.500 Z0.550 E736.63125
G1 X187.939 Y120.460 Z0.550 E737.02075
G1 X188.632 Y120.340 Z0.550 E737.41540
G1 X189.325 Y120.140 Z0.550 E737.82013
G1 X190.017 Y119.860 Z0.550 E738.23955
G1 X190.710 Y119.500 Z0.550 E738.67776
G1 X194.174 Y117.500 Z0.550 E740.92282
G1 X194.512 Y117.315 Z0.550 E741.13896
G1 X194.833 Y117.160 Z0.550 E741.33875
G1 X195.136 Y117.035 Z0.550 E741.52277
G1 X195.421 Y116.940 Z0.550 E741.69180
G1 X195.690 Y116.875 Z0.550 E741.84684
G1 X195.941 Y116.840 Z0.550 E741.98916
G1 X196.175 Y116.835 Z0.550 E742.12043
G1 X196.391 Y116.860 Z0.550 E742.24275
G1 X196.591 Y116.915 Z0.550 E742.35873
G1 X196.772 Y117.000 Z0.550 E742.47141
G1 X196.937 Y117.115 Z0.550 E742.58408
G1 X197.084 Y117.260 Z0.550 E742.70006
G1 X197.214 Y117.435 Z0.550 E742.82238
G1 X197.327 Y117.640 Z0.550 E742.95365
G1 X197.422 Y117.875 Z0.550 E743.09597
G1 X197.500 Y118.140 Z0.550 E743.25101
G1 X197.560 Y118.435 Z0.550 E743.42004
G1 X197.604 Y118.760 Z0.550 E743.60407
G1 X197.630 Y119.115 Z0.550 E743.80385
G1 X197.638 Y119.500 Z0.550 E744.01999
G1 X197.638 Y123.500 Z0.550 E746.26505
G1 X197.604 Y124.280 Z0.550 E746.70327
G1 X197.500 Y125.020 Z0.550 E747.12268
G1 X197.327 Y125.720 Z0.550 E747.52741
G1 X197.084 Y126.380 Z0.550 E747.92206
G1 X196.772 Y127.000 Z0.550 E748.31156
G1 X196.391 Y127.580 Z0.550 E748.70106
G1 X195.941 Y128.120 Z0.550 E749.09571
G1 X195.421 Y128.620 Z0.550 E749.50044
G1 X194.833 Y129.080 Z0.550 E749.91985
G1 X194.174 Y129.500 Z0.550 E750.35807
G1 X190.710 Y131.500 Z0.550 E752.60313
G1 X190.017 Y131.860 Z0.550 E753.04135
G1 X189.325 Y132.140 Z0.550 E753.46076
G1 X188.632 Y132.340 Z0.550 E753.86550
G1 X187.939 Y132.460 Z0.550 E754.26014
G1 X187.246 Y132.500 Z0.550 E754.64964
G1 X186.553 Y132.460 Z0.550 E755.03915
G1 X185.860 Y132.340 Z0.550 E755.43379
G1 X185.168 Y132.140 Z0.550 E755.83853
G1 X184.475 Y131.860 Z0.550 E756.25794
G1 X183.782 Y131.500 Z0.550 E756.69616
G1 X180.318 Y129.500 Z0.550 E758.94121
G1 X179.625 Y129.140 Z0.550 E759.37943
G1 X178.932 Y128.860 Z0.550 E759.79884
G1 X178.239 Y128.660 Z0.550 E760.20358
G1 X177.547 Y128.540 Z0.550 E760.59822
G1 X176.854 Y128.500 Z0.550 E760.98773
G1 X176.161 Y128.540 Z0.550 E761.37723
G1 X175.468 Y128.660 Z0.550 E761.77188
G1 X174.775 Y128.860 Z0.550 E762.17661
G1 X174.083 Y129.140 Z0.550 E762.59602
G1 X173.390 Y129.500 Z0.550 E763.03424
G1 X169.926 Y131.500 Z0.550 E765.27930
G1 X169.233 Y131.860 Z0.550 E765.71752
G1 X168.540 Y132.140 Z0.550 E766.13693
G1 X167.847 Y132.340 Z0.550 E766.54166
G1 X167.154 Y132.460 Z0.550 E766.93631
G1 X166.462 Y132.500 Z0.550 E767.32581
G1 X165.769 Y132.460 Z0.550 E767.71531
G1 X165.076 Y132.340 Z0.550 E768.10996
G1 X164.383 Y132.140 Z0.550 E768.51469
G1 X163.690 Y131.860 Z0.550 E768.93410
G1 X162.997 Y131.500 Z0.550 E769.37232
G1 X159.533 Y129.500 Z0.550 E771.61738
G1 X158.841 Y129.140 Z0.550 E772.05560
G1 X158.148 Y128.860 Z0.550 E772.47501
G1 X157.455 Y128.660 Z0.550 E772.87974
G1 X156.762 Y128.540 Z0.550 E773.27439
G1 X156.069 Y128.500 Z0.550 E773.66389
G1 X155.376 Y128.540 Z0.550 E774.05340
G1 X154.684 Y128.660 Z0.550 E774.44804
G1 X153.991 Y128.860 Z0.550 E774.85278
G1 X153.298 Y129.140 Z0.550 E775.27219
G1 X152.605 Y129.500 Z0.550 E775.71041
G1 X149.141 Y131.500 Z0.550 E777.95546
G1 X148.448 Y131.860 Z0.550 E778.39368
G1 X147.755 Y132.140 Z0.550 E778.81309
G1 X147.063 Y132.340 Z0.550 E779.21783
G1 X146.370 Y132.460 Z0.550 E779.61247
G1 X145.677 Y132.500 Z0.550 E780.00198
G1 X144.984 Y132.460 Z0.550 E780.39148
G1 X144.291 Y132.340 Z0.550 E780.78613
G1 X143.598 Y132.140 Z0.550 E781.19086
G1 X142.906 Y131.860 Z0.550 E781.61027
G1 X142.213 Y131.500 Z0.550 E782.04849
G1 X138.749 Y129.500 Z0.550 E784.29355
G1 X138.056 Y129.140 Z0.550 E784.73177
G1 X137.363 Y128.860 Z0.550 E785.15118
G1 X136.670 Y128.660 Z0.550 E785.55591
G1 X135.977 Y128.540 Z0.550 E785.95056
G1 X135.285 Y128.500 Z0.550 E786.34006
G1 X134.592 Y128.540 Z0.550 E786.72956
G1 X133.899 Y128.660 Z0.550 E787.12421
G1 X133.206 Y128.860 Z0.550 E787.52894
G1 X132.513 Y129.140 Z0.550 E787.94835
G1 X131.821 Y129.500 Z0.550 E788.38657
G1 X128.356 Y131.500 Z0.550 E790.63163
G1 X127.664 Y131.860 Z0.550 E791.06985
G1 X126.971 Y132.140 Z0.550 E791.48926
G1 X126.278 Y132.340 Z0.550 E791.89399
G1 X125.585 Y132.460 Z0.550 E792.28864
G1 X124.892 Y132.500 Z0.550 E792.67814
G1 X124.199 Y132.460 Z0.550 E793.06765
G1 X123.507 Y132.340 Z0.550 E793.46229
G1 X122.814 Y132.140 Z0.550 E793.86703
G1 X122.121 Y131.860 Z0.550 E794.28644
G1 X121.428 Y131.500 Z0.550 E794.72466
G1 X117.964 Y129.500 Z0.550 E796.96971
G1 X117.271 Y129.140 Z0.550 E797.40793
G1 X116.578 Y128.860 Z0.550 E797.82734
G1 X115.886 Y128.660 Z0.550 E798.23208
G1 X115.193 Y128.540 Z0.550 E798.62672
G1 X114.500 Y128.500 Z0.550 E799.01623
G1 X113.807 Y128.540 Z0.550 E799.40573
G1 X113.114 Y128.660 Z0.550 E799.80038
G1 X112.422 Y128.860 Z0.550 E800.20511
G1 X111.729 Y129.140 Z0.550 E800.62452
G1 X111.036 Y129.500 Z0.550 E801.06274
G1 X107.572 Y131.500 Z0.550 E803.30780
G1 X106.879 Y131.860 Z0.550 E803.74602
G1 X106.186 Y132.140 Z0.550 E804.16543
G1 X105.493 Y132.340 Z0.550 E804.57016
G1 X104.801 Y132.460 Z0.550 E804.96481
G1 X104.108 Y132.500 Z0.550 E805.35431
G1 X103.415 Y132.460 Z0.550 E805.74381
G1 X102.722 Y132.340 Z0.550 E806.13846
G1 X102.029 Y132.140 Z0.550 E806.54319
G1 X101.336 Y131.860 Z0.550 E806.96260
G1 X100.644 Y131.500 Z0.550 E807.40082
G1 X97.179 Y129.500 Z0.550 E809.64588
G1 X96.487 Y129.140 Z0.550 E810.08410
G1 X95.794 Y128.860 Z0.550 E810.50351
G1 X95.101 Y128.660 Z0.550 E810.90824
G1 X94.408 Y128.540 Z0.550 E811.30289
G1 X93.715 Y128.500 Z0.550 E811.69239
G1 X93.023 Y128.540 Z0.550 E812.08190
G1 X92.330 Y128.660 Z0.550 E812.47654
G1 X91.637 Y128.860 Z0.550 E812.88128
G1 X90.944 Y129.140 Z0.550 E813.30069
G1 X90.251 Y129.500 Z0.550 E813.73891
G1 X86.787 Y131.500 Z0.550 E815.98396
G1 X86.094 Y131.860 Z0.550 E816.42218
G1 X85.402 Y132.140 Z0.550 E816.84159
G1 X84.709 Y132.340 Z0.550 E817.24633
G1 X84.016 Y132.460 Z0.550 E817.64097
G1 X83.323 Y132.500 Z0.550 E818.03048
G1 X82.630 Y132.460 Z0.550 E818.41998
G1 X81.937 Y132.340 Z0.550 E818.81462
G1 X81.245 Y132.140 Z0.550 E819.21936
G1 X80.552 Y131.860 Z0.550 E819.63877
G1 X79.859 Y131.500 Z0.550 E820.07699
G1 X76.395 Y129.500 Z0.550 E822.32205
G1 X75.702 Y129.140 Z0.550 E822.76027
G1 X75.009 Y128.860 Z0.550 E823.17968
G1 X74.316 Y128.660 Z0.550 E823.58441
G1 X73.624 Y128.540 Z0.550 E823.97906
G1 X72.931 Y128.500 Z0.550 E824.36856
G1 X72.238 Y128.540 Z0.550 E824.75806
G1 X71.545 Y128.660 Z0.550 E825.15271
G1 X70.852 Y128.860 Z0.550 E825.55744
G1 X70.159 Y129.140 Z0.550 E825.97685
G1 X69.467 Y129.500 Z0.550 E826.41507
G1 X66.003 Y131.500 Z0.550 E828.66013
G1 X65.310 Y131.860 Z0.550 E829.09835
G1 X64.617 Y132.140 Z0.550 E829.51776
G1 X63.924 Y132.340 Z0.550 E829.92249
G1 X63.231 Y132.460 Z0.550 E830.31714
G1 X62.538 Y132.500 Z0.550 E830.70664
G1 X61.846 Y132.460 Z0.550 E831.09615
G1 X61.153 Y132.340 Z0.550 E831.49079
G1 X60.460 Y132.140 Z0.550 E831.89553
G1 X59.767 Y131.860 Z0.550 E832.31494
G1 X59.074 Y131.500 Z0.550 E832.75316
G1 X55.610 Y129.500 Z0.550 E834.99821
G1 X54.917 Y129.140 Z0.550 E835.43643
G1 X54.225 Y128.860 Z0.550 E835.85584
G1 X53.532 Y128.660 Z0.550 E836.26058
G1 X52.839 Y128.540 Z0.550 E836.65522
G1 X52.146 Y128.500 Z0.550 E837.04473
G1 X51.453 Y128.540 Z0.550 E837.43423
G1 X50.761 Y128.660 Z0.550 E837.82887
G1 X50.068 Y128.860 Z0.550 E838.23361
G1 X49.375 Y129.140 Z0.550 E838.65302
G1 X48.682 Y129.500 Z0.550 E839.09124
G1 X45.218 Y131.500 Z0.550 E841.33630
G1 X44.525 Y131.860 Z0.550 E841.77452
G1 X43.832 Y132.140 Z0.550 E842.19393
G1 X43.140 Y132.340 Z0.550 E842.59866
G1 X42.447 Y132.460 Z0.550 E842.99331
G1 X41.754 Y132.500 Z0.550 E843.38281
G1 X41.061 Y132.460 Z0.550 E843.77231
G1 X40.368 Y132.340 Z0.550 E844.16696
G1 X39.675 Y132.140 Z0.550 E844.57169
G1 X38.983 Y131.860 Z0.550 E844.99110
G1 X38.290 Y131.500 Z0.550 E845.42932
G1 X34.826 Y129.500 Z0.550 E847.67438
G1 X34.488 Y129.315 Z0.550 E847.89052
G1 X34.167 Y129.160 Z0.550 E848.09030
G1 X33.864 Y129.035 Z0.550 E848.27433
G1 X33.579 Y128.940 Z0.550 E848.44336
G1 X33.310 Y128.875 Z0.550 E848.59840
G1 X33.059 Y128.840 Z0.550 E848.74072
G1 X32.825 Y128.835 Z0.550 E848.87199
G1 X32.609 Y128.860 Z0.550 E848.99431
G1 X32.409 Y128.915 Z0.550 E849.11029
G1 X32.228 Y129.000 Z0.550 E849.22296
G1 X32.063 Y129.115 Z0.550 E849.33564
G1 X31.916 Y129.260 Z0.550 E849.45162
G1 X31.786 Y129.435 Z0.550 E849.57394
G1 X31.673 Y129.640 Z0.550 E849.70521
G1 X31.578 Y129.875 Z0.550 E849.84753
G1 X31.500 Y130.140 Z0.550 E850.00257
G1 X31.440 Y130.435 Z0.550 E850.17160
G1 X31.396 Y130.760 Z0.550 E850.35562
G1 X31.370 Y131.115 Z0.550 E850.55541
G1 X31.362 Y131.500 Z0.550 E850.77155
G1 X31.362 Y135.500 Z0.550 E853.01661
G1 X31.396 Y136.280 Z0.550 E853.45482
G1 X31.500 Y137.020 Z0.550 E853.87424
G1 X31.673 Y137.720 Z0.550 E854.27897
G1 X31.916 Y138.380 Z0.550 E854.67362
G1 X32.228 Y139.000 Z0.550 E855.06312
G1 X32.609 Y139.580 Z0.550 E855.45262
G1 X33.059 Y140.120 Z0.550 E855.84727
G1 X33.579 Y140.620 Z0.550 E856.25200
G1 X34.167 Y141.080 Z0.550 E856.67141
G1 X34.826 Y141.500 Z0.550 E857.10963
G1 X38.290 Y143.500 Z0.550 E859.35469
G1 X38.983 Y143.860 Z0.550 E859.79291
G1 X39.675 Y144.140 Z0.550 E860.21232
G1 X40.368 Y144.340 Z0.550 E860.61705
G1 X41.061 Y144.460 Z0.550 E861.01170
G1 X41.754 Y144.500 Z0.550 E861.40120
G1 X42.447 Y144.460 Z0.550 E861.79070
G1 X43.140 Y144.340 Z0.550 E862.18535
G1 X43.832 Y144.140 Z0.550 E862.59008
G1 X44.525 Y143.860 Z0.550 E863.00950
G1 X45.218 Y143.500 Z0.550 E863.44771
G1 X48.682 Y141.500 Z0.550 E865.69277
G1 X49.375 Y141.140 Z0.550 E866.13099
G1 X50.068 Y140.860 Z0.550 E866.55040
G1 X50.761 Y140.660 Z0.550 E866.95514
G1 X51.453 Y140.540 Z0.550 E867.34978
G1 X52.146 Y140.500 Z0.550 E867.73928
G1 X52.839 Y140.540 Z0.550 E868.12879
G1 X53.532 Y140.660 Z0.550 E868.52343
G1 X54.225 Y140.860 Z0.550 E868.92817
G1 X54.917 Y141.140 Z0.550 E869.34758
G1 X55.610 Y141.500 Z0.550 E869.78580
G1 X59.074 Y143.500 Z0.550 E872.03086
G1 X59.767 Y143.860 Z0.550 E872.46907
G1 X60.460 Y144.140 Z0.550 E872.88849
G1 X61.153 Y144.340 Z0.550 E873.29322
G1 X61.846 Y144.460 Z0.550 E873.68787
G1 X62.538 Y144.500 Z0.550 E874.07737
G1 X63.231 Y144.460 Z0.550 E874.46687
G1 X63.924 Y144.340 Z0.550 E874.86152
G1 X64.617 Y144.140 Z0.550 E875.26625
G1 X65.310 Y143.860 Z0.550 E875.68566
G1 X66.003 Y143.500 Z0.550 E876.12388
G1 X69.467 Y141.500 Z0.550 E878.36894
G1 X70.159 Y141.140 Z0.550 E878.80716
G1 X70.852 Y140.860 Z0.550 E879.22657
G1 X71.545 Y140.660 Z0.550 E879.63130
G1 X72.238 Y140.540 Z0.550 E880.02595
G1 X72.931 Y140.500 Z0.550 E880.41545
G1 X73.624 Y140.540 Z0.550 E880.80495
G1 X74.316 Y140.660 Z0.550 E881.19960
G1 X75.009 Y140.860 Z0.550 E881.60433
G1 X75.702 Y141.140 Z0.550 E882.02375
G1 X76.395 Y141.500 Z0.550 E882.46196
G1 X79.859 Y143.500 Z0.550 E884.70702
G1 X80.552 Y143.860 Z0.550 E885.14524
G1 X81.245 Y144.140 Z0.550 E885.56465
G1 X81.937 Y144.340 Z0.550 E885.96939
G1 X82.630 Y144.460 Z0.550 E886.36403
G1 X83.323 Y144.500 Z0.550 E886.75353
G1 X84.016 Y144.460 Z0.550 E887.14304
G1 X84.709 Y144.340 Z0.550 E887.53768
G1 X85.402 Y144.140 Z0.550 E887.94242
G1 X86.094 Y143.860 Z0.550 E888.36183
G1 X86.787 Y143.500 Z0.550 E888.80005
G1 X90.251 Y141.500 Z0.550 E891.04511
G1 X90.944 Y141.140 Z0.550 E891.48332
G1 X91.637 Y140.860 Z0.550 E891.90274
G1 X92.330 Y140.660 Z0.550 E892.30747
G1 X93.023 Y140.540 Z0.550 E892.70211
G1 X93.715 Y140.500 Z0.550 E893.09162
G1 X94.408 Y140.540 Z0.550 E893.48112
G1 X95.101 Y140.660 Z0.550 E893.87577
G1 X95.794 Y140.860 Z0.550 E894.28050
G1 X96.487 Y141.140 Z0.550 E894.69991
G1 X97.179 Y141.500 Z0.550 E895.13813
G1 X100.644 Y143.500 Z0.550 E897.38319
G1 X101.336 Y143.860 Z0.550 E897.82141
G1 X102.029 Y144.140 Z0.550 E898.24082
G1 X102.722 Y144.340 Z0.550 E898.64555
G1 X103.415 Y144.460 Z0.550 E899.04020
G1 X104.108 Y144.500 Z0.550 E899.42970
G1 X104.801 Y144.460 Z0.550 E899.81920
G1 X105.493 Y144.340 Z0.550 E900.21385
G1 X106.186 Y144.140 Z0.550 E900.61858
G1 X106.879 Y143.860 Z0.550 E901.03800
G1 X107.572 Y143.500 Z0.550 E901.47621
G1 X111.036 Y141.500 Z0.550 E903.72127
G1 X111.729 Y141.140 Z0.550 E904.15949
G1 X112.422 Y140.860 Z0.550 E904.57890
G1 X113.114 Y140.660 Z0.550 E904.98364
G1 X113.807 Y140.540 Z0.550 E905.37828
G1 X114.500 Y140.500 Z0.550 E905.76778
G1 X115.193 Y140.540 Z0.550 E906.15729
G1 X115.886 Y140.660 Z0.550 E906.55193
G1 X116.578 Y140.860 Z0.550 E906.95667
G1 X117.271 Y141.140 Z0.550 E907.37608
G1 X117.964 Y141.500 Z0.550 E907.81430
G1 X121.428 Y143.500 Z0.550 E910.05936
G1 X122.121 Y143.860 Z0.550 E910.49757
G1 X122.814 Y144.140 Z0.550 E910.91699
G1 X123.507 Y144.340 Z0.550 E911.32172
G1 X124.199 Y144.460 Z0.550 E911.71636
G1 X124.892 Y144.500 Z0.550 E912.10587
G1 X125.585 Y144.460 Z0.550 E912.49537
G1 X126.278 Y144.340 Z0.550 E912.89002
G1 X126.971 Y144.140 Z0.550 E913.29475
G1 X127.664 Y143.860 Z0.550 E913.71416
G1 X128.356 Y143.500 Z0.550 E914.15238
G1 X131.821 Y141.500 Z0.550 E916.39744
G1 X132.513 Y141.140 Z0.550 E916.83566
G1 X133.206 Y140.860 Z0.550 E917.25507
G1 X133.899 Y140.660 Z0.550 E917.65980
G1 X134.592 Y140.540 Z0.550 E918.05445
G1 X135.285 Y140.500 Z0.550 E918.44395
G1 X135.977 Y140.540 Z0.550 E918.83345
G1 X136.670 Y140.660 Z0.550 E919.22810
G1 X137.363 Y140.860 Z0.550 E919.63283
G1 X138.056 Y141.140 Z0.550 E920.05225
G1 X138.749 Y141.500 Z0.550 E920.49046
G1 X142.213 Y143.500 Z0.550 E922.73552
G1 X142.906 Y143.860 Z0.550 E923.17374
G1 X143.598 Y144.140 Z0.550 E923.59315
G1 X144.291 Y144.340 Z0.550 E923.99789
G1 X144.984 Y144.460 Z0.550 E924.39253
G1 X145.677 Y144.500 Z0.550 E924.78203
G1 X146.370 Y144.460 Z0.550 E925.17154
G1 X147.063 Y144.340 Z0.550 E925.56618
G1 X147.755 Y144.140 Z0.550 E925.97092
G1 X148.448 Y143.860 Z0.550 E926.39033
G1 X149.141 Y143.500 Z0.550 E926.82855
G1 X152.605 Y141.500 Z0.550 E929.07361
G1 X153.298 Y141.140 Z0.550 E929.51182
G1 X153.991 Y140.860 Z0.550 E929.93124
G1 X154.684 Y140.660 Z0.550 E930.33597
G1 X155.376 Y140.540 Z0.550 E930.73061
G1 X156.069 Y140.500 Z0.550 E931.12012
G1 X156.762 Y140.540 Z0.550 E931.50962
G1 X157.455 Y140.660 Z0.550 E931.90427
G1 X158.148 Y140.860 Z0.550 E932.30900
G1 X158.841 Y141.140 Z0.550 E932.72841
G1 X159.533 Y141.500 Z0.550 E933.16663
G1 X162.997 Y143.500 Z0.550 E935.41169
G1 X163.690 Y143.860 Z0.550 E935.84991
G1 X164.383 Y144.140 Z0.550 E936.26932
G1 X165.076 Y144.340 Z0.550 E936.67405
G1 X165.769 Y144.460 Z0.550 E937.06870
G1 X166.462 Y144.500 Z0.550 E937.45820
G1 X167.154 Y144.460 Z0.550 E937.84770
G1 X167.847 Y144.340 Z0.550 E938.24235
G1 X168.540 Y144.140 Z0.550 E938.64708
G1 X169.233 Y143.860 Z0.550 E939.06649
G1 X169.926 Y143.500 Z0.550 E939.50471
G1 X173.390 Y141.500 Z0.550 E941.74977
G1 X174.083 Y141.140 Z0.550 E942.18799
G1 X174.775 Y140.860 Z0.550 E942.60740
G1 X175.468 Y140.660 Z0.550 E943.01214
G1 X176.161 Y140.540 Z0.550 E943.40678
G1 X176.854 Y140.500 Z0.550 E943.79628
G1 X177.547 Y140.540 Z0.550 E944.18579
G1 X178.239 Y140.660 Z0.550 E944.58043
G1 X178.932 Y140.860 Z0.550 E944.98517
G1 X179.625 Y141.140 Z0.550 E945.40458
G1 X180.318 Y141.500 Z0.550 E945.84280
G1 X183.782 Y143.500 Z0.550 E948.08786
G1 X184.475 Y143.860 Z0.550 E948.52607
G1 X185.168 Y144.140 Z0.550 E948.94549
G1 X185.860 Y144.340 Z0.550 E949.35022
G1 X186.553 Y144.460 Z0.550 E949.74486
G1 X187.246 Y144.500 Z0.550 E950.13437
G1 X187.939 Y144.460 Z0.550 E950.52387
G1 X188.632 Y144.340 Z0.550 E950.91852
G1 X189.325 Y144.140 Z0.550 E951.32325
G1 X190.017 Y143.860 Z0.550 E951.74266
G1 X190.710 Y143.500 Z0.550 E952.18088
G1 X194.174 Y141.500 Z0.550 E954.42594
G1 X194.512 Y141.315 Z0.550 E954.64208
G1 X194.833 Y141.160 Z0.550 E954.84186
G1 X195.136 Y141.035 Z0.550 E955.02589
G1 X195.421 Y140.940 Z0.550 E955.19492
G1 X195.690 Y140.875 Z0.550 E955.34995
G1 X195.941 Y140.840 Z0.550 E955.49228
G1 X196.175 Y140.835 Z0.550 E955.62354
G1 X196.391 Y140.860 Z0.550 E955.74587
G1 X196.591 Y140.915 Z0.550 E955.86185
G1 X196.772 Y141.000 Z0.550 E955.97452
G1 X196.937 Y141.115 Z0.550 E956.08720
G1 X197.084 Y141.260 Z0.550 E956.20317
G1 X197.214 Y141.435 Z0.550 E956.32550
G1 X197.327 Y141.640 Z0.550 E956.45677
G1 X197.422 Y141.875 Z0.550 E956.59909
G1 X197.500 Y142.140 Z0.550 E956.75413
G1 X197.560 Y142.435 Z0.550 E956.92316
G1 X197.604 Y142.760 Z0.550 E957.10718
G1 X197.630 Y143.115 Z0.550 E957.30696
G1 X197.638 Y143.500 Z0.550 E957.52311
G1 X197.638 Y147.500 Z0.550 E959.76816
G1 X197.604 Y148.280 Z0.550 E960.20638
G1 X197.500 Y149.020 Z0.550 E960.62579
G1 X197.327 Y149.720 Z0.550 E961.03053
G1 X197.084 Y150.380 Z0.550 E961.42517
G1 X196.772 Y151.000 Z0.550 E961.81468
G1 X196.391 Y151.580 Z0.550 E962.20418
G1 X195.941 Y152.120 Z0.550 E962.59883
G1 X195.421 Y152.620 Z0.550 E963.00356
G1 X194.833 Y153.080 Z0.550 E963.42297
G1 X194.174 Y153.500 Z0.550 E963.86119
G1 X190.710 Y155.500 Z0.550 E966.10625
G1 X190.017 Y155.860 Z0.550 E966.54447
G1 X189.325 Y156.140 Z0.550 E966.96388
G1 X188.632 Y156.340 Z0.550 E967.36861
G1 X187.939 Y156.460 Z0.550 E967.76326
G1 X187.246 Y156.500 Z0.550 E968.15276
G1 X186.553 Y156.460 Z0.550 E968.54226
G1 X185.860 Y156.340 Z0.550 E968.93691
G1 X185.168 Y156.140 Z0.550 E969.34164
G1 X184.475 Y155.860 Z0.550 E969.76105
G1 X183.782 Y155.500 Z0.550 E970.19927
G1 X180.318 Y153.500 Z0.550 E972.44433
G1 X179.625 Y153.140 Z0.550 E972.88255
G1 X178.932 Y152.860 Z0.550 E973.30196
G1 X178.239 Y152.660 Z0.550 E973.70669
G1 X177.547 Y152.540 Z0.550 E974.10134
G1 X176.854 Y152.500 Z0.550 E974.49084
G1 X176.161 Y152.540 Z0.550 E974.88035
G1 X175.468 Y152.660 Z0.550 E975.27499
G1 X174.775 Y152.860 Z0.550 E975.67973
G1 X174.083 Y153.140 Z0.550 E976.09914
G1 X173.390 Y153.500 Z0.550 E976.53736
G1 X169.926 Y155.500 Z0.550 E978.78241
G1 X169.233 Y155.860 Z0.550 E979.22063
G1 X168.540 Y156.140 Z0.550 E979.64004
G1 X167.847 Y156.340 Z0.550 E980.04478
G1 X167.154 Y156.460 Z0.550 E980.43942
G1 X166.462 Y156.500 Z0.550 E980.82893
G1 X165.769 Y156.460 Z0.550 E981.21843
G1 X165.076 Y156.340 Z0.550 E981.61307
G1 X164.383 Y156.140 Z0.550 E982.01781
G1 X163.690 Y155.860 Z0.550 E982.43722
G1 X162.997 Y155.500 Z0.550 E982.87544
G1 X159.533 Y153.500 Z0.550 E985.12050
G1 X158.841 Y153.140 Z0.550 E985.55872
G1 X158.148 Y152.860 Z0.550 E985.97813
G1 X157.455 Y152.660 Z0.550 E986.38286
G1 X156.762 Y152.540 Z0.550 E986.77751
G1 X156.069 Y152.500 Z0.550 E987.16701
G1 X155.376 Y152.540 Z0.550 E987.55651
G1 X154.684 Y152.660 Z0.550 E987.95116
G1 X153.991 Y152.860 Z0.550 E988.35589
G1 X153.298 Y153.140 Z0.550 E988.77530
G1 X152.605 Y153.500 Z0.550 E989.21352
G1 X149.141 Y155.500 Z0.550 E991.45858
G1 X148.448 Y155.860 Z0.550 E991.89680
G1 X147.755 Y156.140 Z0.550 E992.31621
G1 X147.063 Y156.340 Z0.550 E992.72094
G1 X146.370 Y156.460 Z0.550 E993.11559
G1 X145.677 Y156.500 Z0.550 E993.50509
G1 X144.984 Y156.460 Z0.550 E993.89460
G1 X144.291 Y156.340 Z0.550 E994.28924
G1 X143.598 Y156.140 Z0.550 E994.69398
G1 X142.906 Y155.860 Z0.550 E995.11339
G1 X142.213 Y155.500 Z0.550 E995.55160
G1 X138.749 Y153.500 Z0.550 E997.79666
G1 X138.056 Y153.140 Z0.550 E998.23488
G1 X137.363 Y152.860 Z0.550 E998.65429
G1 X136.670 Y152.660 Z0.550 E999.05903
G1 X135.977 Y152.540 Z0.550 E999.45367
G1 X135.285 Y152.500 Z0.550 E999.84318
G1 X134.592 Y152.540 Z0.550 E1000.23268
G1 X133.899 Y152.660 Z0.550 E1000.62732
G1 X133.206 Y152.860 Z0.550 E1001.03206
G1 X132.513 Y153.140 Z0.550 E1001.45147
G1 X131.821 Y153.500 Z0.550 E1001.88969
G1 X128.356 Y155.500 Z0.550 E1004.13475
G1 X127.664 Y155.860 Z0.550 E1004.57297
G1 X126.971 Y156.140 Z0.550 E1004.99238
G1 X126.278 Y156.340 Z0.550 E1005.39711
G1 X125.585 Y156.460 Z0.550 E1005.79176
G1 X124.892 Y156.500 Z0.550 E1006.18126
G1 X124.199 Y156.460 Z0.550 E1006.57076
G1 X123.507 Y156.340 Z0.550 E1006.96541
G1 X122.814 Y156.140 Z0.550 E1007.37014
G1 X122.121 Y155.860 Z0.550 E1007.78955
G1 X121.428 Y155.500 Z0.550 E1008.22777
G1 X117.964 Y153.500 Z0.550 E1010.47283
G1 X117.271 Y153.140 Z0.550 E1010.91105
G1 X116.578 Y152.860 Z0.550 E1011.33046
G1 X115.886 Y152.660 Z0.550 E1011.73519
G1 X115.193 Y152.540 Z0.550 E1012.12984
G1 X114.500 Y152.500 Z0.550 E1012.51934
G1 X113.807 Y152.540 Z0.550 E1012.90885
G1 X113.114 Y152.660 Z0.550 E1013.30349
G1 X112.422 Y152.860 Z0.550 E1013.70822
G1 X111.729 Y153.140 Z0.550 E1014.12764
G1 X111.036 Y153.500 Z0.550 E1014.56585
G1 X107.572 Y155.500 Z0.550 E1016.81091
G1 X106.879 Y155.860 Z0.550 E1017.24913
G1 X106.186 Y156.140 Z0.550 E1017.66854
G1 X105.493 Y156.340 Z0.550 E1018.07328
G1 X104.801 Y156.460 Z0.550 E1018.46792
G1 X104.108 Y156.500 Z0.550 E1018.85743
G1 X103.415 Y156.460 Z0.550 E1019.24693
G1 X102.722 Y156.340 Z0.550 E1019.64157
G1 X102.029 Y156.140 Z0.550 E1020.04631
G1 X101.336 Y155.860 Z0.550 E1020.46572
G1 X100.644 Y155.500 Z0.550 E1020.90394
G1 X97.179 Y153.500 Z0.550 E1023.14900
G1 X96.487 Y153.140 Z0.550 E1023.58722
G1 X95.794 Y152.860 Z0.550 E1024.00663
G1 X95.101 Y152.660 Z0.550 E1024.41136
G1 X94.408 Y152.540 Z0.550 E1024.80601
G1 X93.715 Y152.500 Z0.550 E1025.19551
G1 X93.023 Y152.540 Z0.550 E1025.58501
G1 X92.330 Y152.660 Z0.550 E1025.97966
G1 X91.637 Y152.860 Z0.550 E1026.38439
G1 X90.944 Y153.140 Z0.550 E1026.80380
G1 X90.251 Y153.500 Z0.550 E1027.24202
G1 X86.787 Y155.500 Z0.550 E1029.48708
G1 X86.094 Y155.860 Z0.550 E1029.92530
G1 X85.402 Y156.140 Z0.550 E1030.34471
G1 X84.709 Y156.340 Z0.550 E1030.74944
G1 X84.016 Y156.460 Z0.550 E1031.14409
G1 X83.323 Y156.500 Z0.550 E1031.53359
G1 X82.630 Y156.460 Z0.550 E1031.92310
G1 X81.937 Y156.340 Z0.550 E1032.31774
G1 X81.245 Y156.140 Z0.550 E1032.72247
G1 X80.552 Y155.860 Z0.550 E1033.14189
G1 X79.859 Y155.500 Z0.550 E1033.58010
G1 X76.395 Y153.500 Z0.550 E1035.82516
G1 X75.702 Y153.140 Z0.550 E1036.26338
G1 X75.009 Y152.860 Z0.550 E1036.68279
G1 X74.316 Y152.660 Z0.550 E1037.08753
G1 X73.624 Y152.540 Z0.550 E1037.48217
G1 X72.931 Y152.500 Z0.550 E1037.87168
G1 X72.238 Y152.540 Z0.550 E1038.26118
G1 X71.545 Y152.660 Z0.550 E1038.65582
G1 X70.852 Y152.860 Z0.550 E1039.06056
G1 X70.159 Y153.140 Z0.550 E1039.47997
G1 X69.467 Y153.500 Z0.550 E1039.91819
G1 X66.003 Y155.500 Z0.550 E1042.16325
G1 X65.310 Y155.860 Z0.550 E1042.60146
G1 X64.617 Y156.140 Z0.550 E1043.02088
G1 X63.924 Y156.340 Z0.550 E1043.42561
G1 X63.231 Y156.460 Z0.550 E1043.82026
G1 X62.538 Y156.500 Z0.550 E1044.20976
G1 X61.846 Y156.460 Z0.550 E1044.59926
G1 X61.153 Y156.340 Z0.550 E1044.99391
G1 X60.460 Y156.140 Z0.550 E1045.39864
G1 X59.767 Y155.860 Z0.550 E1045.81805
G1 X59.074 Y155.500 Z0.550 E1046.25627
G1 X55.610 Y153.500 Z0.550 E1048.50133
G1 X54.917 Y153.140 Z0.550 E1048.93955
G1 X54.225 Y152.860 Z0.550 E1049.35896
G1 X53.532 Y152.660 Z0.550 E1049.76369
G1 X52.839 Y152.540 Z0.550 E1050.15834
G1 X52.146 Y152.500 Z0.550 E1050.54784
G1 X51.453 Y152.540 Z0.550 E1050.93735
G1 X50.761 Y152.660 Z0.550 E1051.33199
G1 X50.068 Y152.860 Z0.550 E1051.73672
G1 X49.375 Y153.140 Z0.550 E1052.15614
G1 X48.682 Y153.500 Z0.550 E1052.59435
G1 X45.218 Y155.500 Z0.550 E1054.83941
G1 X44.525 Y155.860 Z0.550 E1055.27763
G1 X43.832 Y156.140 Z0.550 E1055.69704
G1 X43.140 Y156.340 Z0.550 E1056.10178
G1 X42.447 Y156.460 Z0.550 E1056.49642
G1 X41.754 Y156.500 Z0.550 E1056.88593
G1 X41.061 Y156.460 Z0.550 E1057.27543
G1 X40.368 Y156.340 Z0.550 E1057.67007
G1 X39.675 Y156.140 Z0.550 E1058.07481
G1 X38.983 Y155.860 Z0.550 E1058.49422
G1 X38.290 Y155.500 Z0.550 E1058.93244
G1 X34.826 Y153.500 Z0.550 E1061.17750
G1 X34.488 Y153.315 Z0.550 E1061.39364
G1 X34.167 Y153.160 Z0.550 E1061.59342
G1 X33.864 Y153.035 Z0.550 E1061.77744
G1 X33.579 Y152.940 Z0.550 E1061.94648
G1 X33.310 Y152.875 Z0.550 E1062.10151
G1 X33.059 Y152.840 Z0.550 E1062.24383
G1 X32.825 Y152.835 Z0.550 E1062.37510
G1 X32.609 Y152.860 Z0.550 E1062.49743
G1 X32.409 Y152.915 Z0.550 E1062.61341
G1 X32.228 Y153.000 Z0.550 E1062.72608
G1 X32.063 Y153.115 Z0.550 E1062.83875
G1 X31.916 Y153.260 Z0.550 E1062.95473
G1 X31.786 Y153.435 Z0.550 E1063.07706
G1 X31.673 Y153.640 Z0.550 E1063.20833
G1 X31.578 Y153.875 Z0.550 E1063.35065
G1 X31.500 Y154.140 Z0.550 E1063.50568
G1 X31.440 Y154.435 Z0.550 E1063.67472
G1 X31.396 Y154.760 Z0.550 E1063.85874
G1 X31.370 Y155.115 Z0.550 E1064.05852
G1 X31.362 Y155.500 Z0.550 E1064.27466
G1 X31.362 Y159.500 Z0.550 E1066.51972
G1 X31.396 Y160.280 Z0.550 E1066.95794
G1 X31.500 Y161.020 Z0.550 E1067.37735
G1 X31.673 Y161.720 Z0.550 E1067.78209
G1 X31.916 Y162.380 Z0.550 E1068.17673
G1 X32.228 Y163.000 Z0.550 E1068.56623
G1 X32.609 Y163.580 Z0.550 E1068.95574
G1 X33.059 Y164.120 Z0.550 E1069.35038
G1 X33.579 Y164.620 Z0.550 E1069.75512
G1 X34.167 Y165.080 Z0.550 E1070.17453
G1 X34.826 Y165.500 Z0.550 E1070.61275
G1 X38.290 Y167.500 Z0.550 E1072.85781
G1 X38.983 Y167.860 Z0.550 E1073.29602
G1 X39.675 Y168.140 Z0.550 E1073.71544
G1 X40.368 Y168.340 Z0.550 E1074.12017
G1 X41.061 Y168.460 Z0.550 E1074.51481
G1 X41.754 Y168.500 Z0.550 E1074.90432
G1 X42.447 Y168.460 Z0.550 E1075.29382
G1 X43.140 Y168.340 Z0.550 E1075.68847
G1 X43.832 Y168.140 Z0.550 E1076.09320
G1 X44.525 Y167.860 Z0.550 E1076.51261
G1 X45.218 Y167.500 Z0.550 E1076.95083
G1 X48.682 Y165.500 Z0.550 E1079.19589
G1 X49.375 Y165.140 Z0.550 E1079.63411
G1 X50.068 Y164.860 Z0.550 E1080.05352
G1 X50.761 Y164.660 Z0.550 E1080.45825
G1 X51.453 Y164.540 Z0.550 E1080.85290
G1 X52.146 Y164.500 Z0.550 E1081.24240
G1 X52.839 Y164.540 Z0.550 E1081.63190
G1 X53.532 Y164.660 Z0.550 E1082.02655
G1 X54.225 Y164.860 Z0.550 E1082.43128
G1 X54.917 Y165.140 Z0.550 E1082.85070
G1 X55.610 Y165.500 Z0.550 E1083.28891
G1 X59.074 Y167.500 Z0.550 E1085.53397
G1 X59.767 Y167.860 Z0.550 E1085.97219
G1 X60.460 Y168.140 Z0.550 E1086.39160
G1 X61.153 Y168.340 Z0.550 E1086.79634
G1 X61.846 Y168.460 Z0.550 E1087.19098
G1 X62.538 Y168.500 Z0.550 E1087.58048
G1 X63.231 Y168.460 Z0.550 E1087.96999
G1 X63.924 Y168.340 Z0.550 E1088.36463
G1 X64.617 Y168.140 Z0.550 E1088.76937
G1 X65.310 Y167.860 Z0.550 E1089.18878
G1 X66.003 Y167.500 Z0.550 E1089.62700
G1 X69.467 Y165.500 Z0.550 E1091.87206
G1 X70.159 Y165.140 Z0.550 E1092.31027
G1 X70.852 Y164.860 Z0.550 E1092.72969
G1 X71.545 Y164.660 Z0.550 E1093.13442
G1 X72.238 Y164.540 Z0.550 E1093.52906
G1 X72.931 Y164.500 Z0.550 E1093.91857
G1 X73.624 Y164.540 Z0.550 E1094.30807
G1 X74.316 Y164.660 Z0.550 E1094.70272
G1 X75.009 Y164.860 Z0.550 E1095.10745
G1 X75.702 Y165.140 Z0.550 E1095.52686
G1 X76.395 Y165.500 Z0.550 E1095.96508
G1 X79.859 Y167.500 Z0.550 E1098.21014
G1 X80.552 Y167.860 Z0.550 E1098.64836
G1 X81.245 Y168.140 Z0.550 E1099.06777
G1 X81.937 Y168.340 Z0.550 E1099.47250
G1 X82.630 Y168.460 Z0.550 E1099.86715
G1 X83.323 Y168.500 Z0.550 E1100.25665
G1 X84.016 Y168.460 Z0.550 E1100.64615
G1 X84.709 Y168.340 Z0.550 E1101.04080
G1 X85.402 Y168.140 Z0.550 E1101.44553
G1 X86.094 Y167.860 Z0.550 E1101.86494
G1 X86.787 Y167.500 Z0.550 E1102.30316
G1 X90.251 Y165.500 Z0.550 E1104.54822
G1 X90.944 Y165.140 Z0.550 E1104.98644
G1 X91.637 Y164.860 Z0.550 E1105.40585
G1 X92.330 Y164.660 Z0.550 E1105.81059
G1 X93.023 Y164.540 Z0.550 E1106.20523
G1 X93.715 Y164.500 Z0.550 E1106.59473
G1 X94.408 Y164.540 Z0.550 E1106.98424
G1 X95.101 Y164.660 Z0.550 E1107.37888
G1 X95.794 Y164.860 Z0.550 E1107.78362
G1 X96.487 Y165.140 Z0.550 E1108.20303
G1 X97.179 Y165.500 Z0.550 E1108.64125
G1 X100.644 Y167.500 Z0.550 E1110.88631
G1 X101.336 Y167.860 Z0.550 E1111.32452
G1 X102.029 Y168.140 Z0.550 E1111.74393
G1 X102.722 Y168.340 Z0.550 E1112.14867
G1 X103.415 Y168.460 Z0.550 E1112.54331
G1 X104.108 Y168.500 Z0.550 E1112.93282
G1 X104.801 Y168.460 Z0.550 E1113.32232
G1 X105.493 Y168.340 Z0.550 E1113.71697
G1 X106.186 Y168.140 Z0.550 E1114.12170
G1 X106.879 Y167.860 Z0.550 E1114.54111
G1 X107.572 Y167.500 Z0.550 E1114.97933
G1 X111.036 Y165.500 Z0.550 E1117.22439
G1 X111.729 Y165.140 Z0.550 E1117.66261
G1 X112.422 Y164.860 Z0.550 E1118.08202
G1 X113.114 Y164.660 Z0.550 E1118.48675
G1 X113.807 Y164.540 Z0.550 E1118.88140
G1 X114.500 Y164.500 Z0.550 E1119.27090
G1 X115.193 Y164.540 Z0.550 E1119.66040
G1 X115.886 Y164.660 Z0.550 E1120.05505
G1 X116.578 Y164.860 Z0.550 E1120.45978
G1 X117.271 Y165.140 Z0.550 E1120.87919
G1 X117.964 Y165.500 Z0.550 E1121.31741
G1 X121.428 Y167.500 Z0.550 E1123.56247
G1 X122.121 Y167.860 Z0.550 E1124.00069
G1 X122.814 Y168.140 Z0.550 E1124.42010
G1 X123.507 Y168.340 Z0.550 E1124.82484
G1 X124.199 Y168.460 Z0.550 E1125.21948
G1 X124.892 Y168.500 Z0.550 E1125.60898
G1 X125.585 Y168.460 Z0.550 E1125.99849
G1 X126.278 Y168.340 Z0.550 E1126.39313
G1 X126.971 Y168.140 Z0.550 E1126.79787
G1 X127.664 Y167.860 Z0.550 E1127.21728
G1 X128.356 Y167.500 Z0.550 E1127.65550
G1 X131.821 Y165.500 Z0.550 E1129.90056
G1 X132.513 Y165.140 Z0.550 E1130.33877
G1 X133.206 Y164.860 Z0.550 E1130.75818
G1 X133.899 Y164.660 Z0.550 E1131.16292
G1 X134.592 Y164.540 Z0.550 E1131.55756
G1 X135.285 Y164.500 Z0.550 E1131.94707
G1 X135.977 Y164.540 Z0.550 E1132.33657
G1 X136.670 Y164.660 Z0.550 E1132.73122
G1 X137.363 Y164.860 Z0.550 E1133.13595
G1 X138.056 Y165.140 Z0.550 E1133.55536
G1 X138.749 Y165.500 Z0.550 E1133.99358
G1 X142.213 Y167.500 Z0.550 E1136.23864
G1 X142.906 Y167.860 Z0.550 E1136.67686
G1 X143.598 Y168.140 Z0.550 E1137.09627
G1 X144.291 Y168.340 Z0.550 E1137.50100
G1 X144.984 Y168.460 Z0.550 E1137.89565
G1 X145.677 Y168.500 Z0.550 E1138.28515
G1 X146.370 Y168.460 Z0.550 E1138.67465
G1 X147.063 Y168.340 Z0.550 E1139.06930
G1 X147.755 Y168.140 Z0.550 E1139.47403
G1 X148.448 Y167.860 Z0.550 E1139.89344
G1 X149.141 Y167.500 Z0.550 E1140.33166
G1 X152.605 Y165.500 Z0.550 E1142.57672
G1 X153.298 Y165.140 Z0.550 E1143.01494
G1 X153.991 Y164.860 Z0.550 E1143.43435
G1 X154.684 Y164.660 Z0.550 E1143.83909
G1 X155.376 Y164.540 Z0.550 E1144.23373
G1 X156.069 Y164.500 Z0.550 E1144.62323
G1 X156.762 Y164.540 Z0.550 E1145.01274
G1 X157.455 Y164.660 Z0.550 E1145.40738
G1 X158.148 Y164.860 Z0.550 E1145.81212
G1 X158.841 Y165.140 Z0.550 E1146.23153
G1 X159.533 Y165.500 Z0.550 E1146.66975
G1 X162.997 Y167.500 Z0.550 E1148.91480
G1 X163.690 Y167.860 Z0.550 E1149.35302
G1 X164.383 Y168.140 Z0.550 E1149.77243
G1 X165.076 Y168.340 Z0.550 E1150.17717
G1 X165.769 Y168.460 Z0.550 E1150.57181
G1 X166.462 Y168.500 Z0.550 E1150.96132
G1 X167.154 Y168.460 Z0.550 E1151.35082
G1 X167.847 Y168.340 Z0.550 E1151.74547
G1 X168.540 Y168.140 Z0.550 E1152.15020
G1 X169.233 Y167.860 Z0.550 E1152.56961
G1 X169.926 Y167.500 Z0.550 E1153.00783
G1 X173.390 Y165.500 Z0.550 E1155.25289
G1 X174.083 Y165.140 Z0.550 E1155.69111
G1 X174.775 Y164.860 Z0.550 E1156.11052
G1 X175.468 Y164.660 Z0.550 E1156.51525
G1 X176.161 Y164.540 Z0.550 E1156.90990
G1 X176.854 Y164.500 Z0.550 E1157.29940
G1 X177.547 Y164.540 Z0.550 E1157.68890
G1 X178.239 Y164.660 Z0.550 E1158.08355
G1 X178.932 Y164.860 Z0.550 E1158.48828
G1 X179.625 Y165.140 Z0.550 E1158.90769
G1 X180.318 Y165.500 Z0.550 E1159.34591
G1 X183.782 Y167.500 Z0.550 E1161.59097
G1 X184.475 Y167.860 Z0.550 E1162.02919
G1 X185.168 Y168.140 Z0.550 E1162.44860
G1 X185.860 Y168.340 Z0.550 E1162.85333
G1 X186.553 Y168.460 Z0.550 E1163.24798
G1 X187.246 Y168.500 Z0.550 E1163.63748
G1 X187.939 Y168.460 Z0.550 E1164.02699
G1 X188.632 Y168.340 Z0.550 E1164.42163
G1 X189.325 Y168.140 Z0.550 E1164.82637
G1 X190.017 Y167.860 Z0.550 E1165.24578
G1 X190.710 Y167.500 Z0.550 E1165.68400
G1 X194.174 Y165.500 Z0.550 E1167.92905
G1 X194.512 Y165.315 Z0.550 E1168.14520
G1 X194.833 Y165.160 Z0.550 E1168.34498
G1 X195.136 Y165.035 Z0.550 E1168.52900
G1 X195.421 Y164.940 Z0.550 E1168.69803
G1 X195.690 Y164.875 Z0.550 E1168.85307
G1 X195.941 Y164.840 Z0.550 E1168.99539
G1 X196.175 Y164.835 Z0.550 E1169.12666
G1 X196.391 Y164.860 Z0.550 E1169.24899
G1 X196.591 Y164.915 Z0.550 E1169.36496
G1 X196.772 Y165.000 Z0.550 E1169.47764
G1 X196.937 Y165.115 Z0.550 E1169.59031
G1 X197.084 Y165.260 Z0.550 E1169.70629
G1 X197.214 Y165.435 Z0.550 E1169.82862
G1 X197.327 Y165.640 Z0.550 E1169.95988
G1 X197.422 Y165.875 Z0.550 E1170.10221
G1 X197.500 Y166.140 Z0.550 E1170.25724
G1 X197.560 Y166.435 Z0.550 E1170.42627
G1 X197.604 Y166.760 Z0.550 E1170.61030
G1 X197.630 Y167.115 Z0.550 E1170.81008
G1 X197.638 Y167.500 Z0.550 E1171.02622
G1 X197.638 Y171.500 Z0.550 E1173.27128
G1 X197.604 Y172.280 Z0.550 E1173.70950
G1 X197.500 Y173.020 Z0.550 E1174.12891
G1 X197.327 Y173.720 Z0.550 E1174.53364
G1 X197.084 Y174.380 Z0.550 E1174.92829
G1 X196.772 Y175.000 Z0.550 E1175.31779
G1 X196.391 Y175.580 Z0.550 E1175.70730
G1 X195.941 Y176.120 Z0.550 E1176.10194
G1 X195.421 Y176.620 Z0.550 E1176.50667
G1 X194.833 Y177.080 Z0.550 E1176.92609
G1 X194.174 Y177.500 Z0.550 E1177.36430
G1 X190.710 Y179.500 Z0.550 E1179.60936
G1 X190.017 Y179.860 Z0.550 E1180.04758
G1 X189.325 Y180.140 Z0.550 E1180.46699
G1 X188.632 Y180.340 Z0.550 E1180.87173
G1 X187.939 Y180.460 Z0.550 E1181.26637
G1 X187.246 Y180.500 Z0.550 E1181.65588
G1 X186.553 Y180.460 Z0.550 E1182.04538
G1 X185.860 Y180.340 Z0.550 E1182.44002
G1 X185.168 Y180.140 Z0.550 E1182.84476
G1 X184.475 Y179.860 Z0.550 E1183.26417
G1 X183.782 Y179.500 Z0.550 E1183.70239
G1 X180.318 Y177.500 Z0.550 E1185.94745
G1 X179.625 Y177.140 Z0.550 E1186.38566
G1 X178.932 Y176.860 Z0.550 E1186.80508
G1 X178.239 Y176.660 Z0.550 E1187.20981
G1 X177.547 Y176.540 Z0.550 E1187.60446
G1 X176.854 Y176.500 Z0.550 E1187.99396
G1 X176.161 Y176.540 Z0.550 E1188.38346
G1 X175.468 Y176.660 Z0.550 E1188.77811
G1 X174.775 Y176.860 Z0.550 E1189.18284
G1 X174.083 Y177.140 Z0.550 E1189.60225
G1 X173.390 Y177.500 Z0.550 E1190.04047
G1 X169.926 Y179.500 Z0.550 E1192.28553
G1 X169.233 Y179.860 Z0.550 E1192.72375
G1 X168.540 Y180.140 Z0.550 E1193.14316
G1 X167.847 Y180.340 Z0.550 E1193.54789
G1 X167.154 Y180.460 Z0.550 E1193.94254
G1 X166.462 Y180.500 Z0.550 E1194.33204
G1 X165.769 Y180.460 Z0.550 E1194.72155
G1 X165.076 Y180.340 Z0.550 E1195.11619
G1 X164.383 Y180.140 Z0.550 E1195.52092
G1 X163.690 Y179.860 Z0.550 E1195.94034
G1 X162.997 Y179.500 Z0.550 E1196.37855
G1 X159.533 Y177.500 Z0.550 E1198.62361
G1 X158.841 Y177.140 Z0.550 E1199.06183
G1 X158.148 Y176.860 Z0.550 E1199.48124
G1 X157.455 Y176.660 Z0.550 E1199.88598
G1 X156.762 Y176.540 Z0.550 E1200.28062
G1 X156.069 Y176.500 Z0.550 E1200.67013
G1 X155.376 Y176.540 Z0.550 E1201.05963
G1 X154.684 Y176.660 Z0.550 E1201.45427
G1 X153.991 Y176.860 Z0.550 E1201.85901
G1 X153.298 Y177.140 Z0.550 E1202.27842
G1 X152.605 Y177.500 Z0.550 E1202.71664
G1 X149.141 Y179.500 Z0.550 E1204.96170
G1 X148.448 Y179.860 Z0.550 E1205.39991
G1 X147.755 Y180.140 Z0.550 E1205.81933
G1 X147.063 Y180.340 Z0.550 E1206.22406
G1 X146.370 Y180.460 Z0.550 E1206.61871
G1 X145.677 Y180.500 Z0.550 E1207.00821
G1 X144.984 Y180.460 Z0.550 E1207.39771
G1 X144.291 Y180.340 Z0.550 E1207.79236
G1 X143.598 Y180.140 Z0.550 E1208.19709
G1 X142.906 Y179.860 Z0.550 E1208.61650
G1 X142.213 Y179.500 Z0.550 E1209.05472
G1 X138.749 Y177.500 Z0.550 E1211.29978
G1 X138.056 Y177.140 Z0.550 E1211.73800
G1 X137.363 Y176.860 Z0.550 E1212.15741
G1 X136.670 Y176.660 Z0.550 E1212.56214
G1 X135.977 Y176.540 Z0.550 E1212.95679
G1 X135.285 Y176.500 Z0.550 E1213.34629
G1 X134.592 Y176.540 Z0.550 E1213.73580
G1 X133.899 Y176.660 Z0.550 E1214.13044
G1 X133.206 Y176.860 Z0.550 E1214.53517
G1 X132.513 Y177.140 Z0.550 E1214.95459
G1 X131.821 Y177.500 Z0.550 E1215.39280
G1 X128.356 Y179.500 Z0.550 E1217.63786
G1 X127.664 Y179.860 Z0.550 E1218.07608
G1 X126.971 Y180.140 Z0.550 E1218.49549
G1 X126.278 Y180.340 Z0.550 E1218.90023
G1 X125.585 Y180.460 Z0.550 E1219.29487
G1 X124.892 Y180.500 Z0.550 E1219.68438
G1 X124.199 Y180.460 Z0.550 E1220.07388
G1 X123.507 Y180.340 Z0.550 E1220.46852
G1 X122.814 Y180.140 Z0.550 E1220.87326
G1 X122.121 Y179.860 Z0.550 E1221.29267
G1 X121.428 Y179.500 Z0.550 E1221.73089
G1 X117.964 Y177.500 Z0.550 E1223.97595
G1 X117.271 Y177.140 Z0.550 E1224.41416
G1 X116.578 Y176.860 Z0.550 E1224.83358
G1 X115.886 Y176.660 Z0.550 E1225.23831
G1 X115.193 Y176.540 Z0.550 E1225.63296
G1 X114.500 Y176.500 Z0.550 E1226.02246
G1 X113.807 Y176.540 Z0.550 E1226.41196
G1 X113.114 Y176.660 Z0.550 E1226.80661
G1 X112.422 Y176.860 Z0.550 E1227.21134
G1 X111.729 Y177.140 Z0.550 E1227.63075
G1 X111.036 Y177.500 Z0.550 E1228.06897
G1 X107.572 Y179.500 Z0.550 E1230.31403
G1 X106.879 Y179.860 Z0.550 E1230.75225
G1 X106.186 Y180.140 Z0.550 E1231.17166
G1 X105.493 Y180.340 Z0.550 E1231.57639
G1 X104.801 Y180.460 Z0.550 E1231.97104
G1 X104.108 Y180.500 Z0.550 E1232.36054
G1 X103.415 Y180.460 Z0.550 E1232.75005
G1 X102.722 Y180.340 Z0.550 E1233.14469
G1 X102.029 Y180.140 Z0.550 E1233.54942
G1 X101.336 Y179.860 Z0.550 E1233.96884
G1 X100.644 Y179.500 Z0.550 E1234.40705
G1 X97.179 Y177.500 Z0.550 E1236.65211
G1 X96.487 Y177.140 Z0.550 E1237.09033
G1 X95.794 Y176.860 Z0.550 E1237.50974
G1 X95.101 Y176.660 Z0.550 E1237.91448
G1 X94.408 Y176.540 Z0.550 E1238.30912
G1 X93.715 Y176.500 Z0.550 E1238.69863
G1 X93.023 Y176.540 Z0.550 E1239.08813
G1 X92.330 Y176.660 Z0.550 E1239.48277
G1 X91.637 Y176.860 Z0.550 E1239.88751
G1 X90.944 Y177.140 Z0.550 E1240.30692
G1 X90.251 Y177.500 Z0.550 E1240.74514
G1 X86.787 Y179.500 Z0.550 E1242.99020
G1 X86.094 Y179.860 Z0.550 E1243.42841
G1 X85.402 Y180.140 Z0.550 E1243.84783
G1 X84.709 Y180.340 Z0.550 E1244.25256
G1 X84.016 Y180.460 Z0.550 E1244.64721
G1 X83.323 Y180.500 Z0.550 E1245.03671
G1 X82.630 Y180.460 Z0.550 E1245.42621
G1 X81.937 Y180.340 Z0.550 E1245.82086
G1 X81.245 Y180.140 Z0.550 E1246.22559
G1 X80.552 Y179.860 Z0.550 E1246.64500
G1 X79.859 Y179.500 Z0.550 E1247.08322
G1 X76.395 Y177.500 Z0.550 E1249.32828
G1 X75.702 Y177.140 Z0.550 E1249.76650
G1 X75.009 Y176.860 Z0.550 E1250.18591
G1 X74.316 Y176.660 Z0.550 E1250.59064
G1 X73.624 Y176.540 Z0.550 E1250.98529
G1 X72.931 Y176.500 Z0.550 E1251.37479
G1 X72.238 Y176.540 Z0.550 E1251.76429
G1 X71.545 Y176.660 Z0.550 E1252.15894
G1 X70.852 Y176.860 Z0.550 E1252.56367
G1 X70.159 Y177.140 Z0.550 E1252.98309
G1 X69.467 Y177.500 Z0.550 E1253.42130
G1 X66.003 Y179.500 Z0.550 E1255.66636
G1 X65.310 Y179.860 Z0.550 E1256.10458
G1 X64.617 Y180.140 Z0.550 E1256.52399
G1 X63.924 Y180.340 Z0.550 E1256.92873
G1 X63.231 Y180.460 Z0.550 E1257.32337
G1 X62.538 Y180.500 Z0.550 E1257.71287
G1 X61.846 Y180.460 Z0.550 E1258.10238
G1 X61.153 Y180.340 Z0.550 E1258.49702
G1 X60.460 Y180.140 Z0.550 E1258.90176
G1 X59.767 Y179.860 Z0.550 E1259.32117
G1 X59.074 Y179.500 Z0.550 E1259.75939
G1 X55.610 Y177.500 Z0.550 E1262.00445
G1 X54.917 Y177.140 Z0.550 E1262.44266
G1 X54.225 Y176.860 Z0.550 E1262.86208
G1 X53.532 Y176.660 Z0.550 E1263.26681
G1 X52.839 Y176.540 Z0.550 E1263.66146
G1 X52.146 Y176.500 Z0.550 E1264.05096
G1 X51.453 Y176.540 Z0.550 E1264.44046
G1 X50.761 Y176.660 Z0.550 E1264.83511
G1 X50.068 Y176.860 Z0.550 E1265.23984
G1 X49.375 Y177.140 Z0.550 E1265.65925
G1 X48.682 Y177.500 Z0.550 E1266.09747
G1 X45.218 Y179.500 Z0.550 E1268.34253
G1 X44.525 Y179.860 Z0.550 E1268.78075
G1 X43.832 Y180.140 Z0.550 E1269.20016
G1 X43.140 Y180.340 Z0.550 E1269.60489
G1 X42.447 Y180.460 Z0.550 E1269.99954
G1 X41.754 Y180.500 Z0.550 E1270.38904
G1 X41.061 Y180.460 Z0.550 E1270.77854
G1 X40.368 Y180.340 Z0.550 E1271.17319
G1 X39.675 Y180.140 Z0.550 E1271.57792
G1 X38.983 Y179.860 Z0.550 E1271.99734
G1 X38.290 Y179.500 Z0.550 E1272.43555
G1 X34.826 Y177.500 Z0.550 E1274.68061
G1 X34.167 Y177.080 Z0.550 E1275.11883
G1 X33.579 Y176.620 Z0.550 E1275.53824
G1 X33.059 Y176.120 Z0.550 E1275.94298
G1 X32.609 Y175.580 Z0.550 E1276.33762
G1 X32.228 Y175.000 Z0.550 E1276.72712
G1 X31.916 Y174.380 Z0.550 E1277.11663
G1 X31.673 Y173.720 Z0.550 E1277.51127
G1 X31.500 Y173.020 Z0.550 E1277.91601
G1 X31.396 Y172.280 Z0.550 E1278.33542
G1 X31.362 Y171.500 Z0.550 E1278.77364
G1 X31.362 Y47.500 Z0.550 E1348.37047
M107
M104 S0
M140 S0
G1 Z40.5 F900
G0 X10 Y215 F9000
